company name,continent,country,address,email,phone,fax
WMM - Weber Marketing- &amp; Marktforschung GmbH,Europe,Germany,Humboldtstrasse 53-55 Haus B 22083 Hamburg Germany       ,info@wmm.de,Phone: +4940226227630,
SINUS Markt- und Sozialforschung GmbH,Europe,Germany,Gaisbergstraße 6 69115 Heidelberg Germany        ,susanne.ernst@sinus-institut.de,Phone: +49-6221-80890,Fax: +49-6221-808.925
ISM GLOBAL DYNAMICS GmbH,Europe,Germany,Hessenring 89 61348 Bad Homburg v. d. Höhe Germany        ,info@globdyn.com,Phone: +49-6172-9213-0,Fax: +49-6172-9213-499
IfA Marktforschung Bremer + Partner GmbH,Europe,Germany,Westendhof 5 45143 Essen Germany        ,mailbox@ifa-germany.de,Phone: +49-201-833.2530,Fax: +49-201-833.2532
Unabhängiges Meinungsforschungsinstitut INFO GmbH,Europe,Germany,Schönholzer Str. 1A D-13187 Berlin Germany        ,mail@infogmbh.de,Phone: 493 049 0010,Fax: +49-30-4900.1499
SKOPOS Institut für Markt- und Kommunikationsforschung GmbH &amp; Co. KG,Europe,Germany,Hans-Boeckler-Strasse 163 50354 Koeln-Huerth Germany        ,mail@skopos.de,Phone: +49-2233-99880,Fax: +49-2233-9988111
Spectos GmbH,Europe,Germany,Theaterstr 6 01067 Dresden Germany       ,info@spectos.com,Phone: +49351320250,
infas Institut für angewandte Sozialwissenschaft GmbH,Europe,Germany,Friedrich-Wilhelm-Str. 18 53113 Bonn Germany        ,info@infas.de,Phone: 492 283 8220,Fax: +49-228-3100 71
MRC Managing Research for Companies GmbH,Europe,Germany,Konsul-Smidt-Strasse 76 28217 Bremen Germany        ,mrc-bremen@mrc.de,Phone: +49-421-322.7910,Fax: +49-421-322.7979
mc markt-consult Institut für Strukturforschung &amp; Marketingberatung GmbH,Europe,Germany,HammerbrookstraÃe 93 20097 Hamburg Germany        ,info@markt-consult.com,Phone: +49-40-386.0420,Fax: +49-40-3860.4218
Foerster &amp; Thelen Marktforschung Feldservice GmbH,Europe,Germany,Stühmeyerstraße 16 44787 Bochum NRW Germany        ,info@ftmafo.de,Phone: 492 345 0740,Fax: +49-234-5074-199
GapFish GmbH,Europe,Germany,Uhlandstraße 175 Berlin Germany        ,info@gapfish.com,Phone: +49 30 809 5206 - 11,Fax: +49-30809520699
NORSTAT Deutschland GmbH,Europe,Germany,Kaflerstrasse 8 81241 Munich Germany        ,info@norstat.de,Phone: +49 (0) 89 5480 1940,Fax: +49 (0) 89 5480 19499
Perleberg Pharma Partner,Europe,Germany,Wartenau 12a 22089 Hamburg Germany        ,office@ppp-health-research.com,Phone: +49-40-235.1930,Fax: +49-40-2351.9315
COBUS Marktforschung GmbH,Europe,Germany,Leopoldstrasse 1 76133 Karlsruhe Germany        ,info@cobus.de,Phone: +49-721-160.090,Fax: +49-721-160.0920
Institut für Demoskopie Allensbach GmbH,Europe,Germany,Radolfzeller Str. 8 78472 Allensbach am Bodensee Germany        ,info@ifd-allensbach.de,Phone: 497 533 8050,Fax: 497 533 3048
EPINION - Germany - Research &amp; Insights,Europe,Germany,Ericusspitze 4 20457 Hamburg Germany       ,contact@epinionglobal.com,Phone: +43 (0) 699 13180416,
Kohorten GmbH &amp; Co. KG,Europe,Germany,Kranzplatz 11 65183 Wiesbaden Germany        ,info@kohorten.com,Phone: +49-611-991.610,Fax: +49-611-991.6190
Spiegel Institut Mannheim GmbH &amp; Co. KG,Europe,Germany,Eastsite VI Hermsheimer Str. 5 68163 Mannheim Baden-Württemberg Germany        ,info@spiegel-institut.de,Phone: +49-621-72844-0,Fax: +49-621-72844-199
comperis GmbH,Europe,Germany,Dornierstr. 17 70469 Stuttgart Germany        ,info@comperis.de,Phone: +49-711-128524-20,Fax: +49-711-128524-30
RONIN,Europe,United-Kingdom-GB,80-84 Bondway SW81SF London United Kingdom (GB)        ,info@ronin.com,Phone: +44-20-7091-1400,Fax: +44-20-7091-1401
Ugam,Europe,United-Kingdom-GB,1st Floor Dean Bradley House 52 Horseferry Road SW1P 2AF London England United Kingdom (GB)        ,enquiries@ugamsolutions.com,Phone: +44 207-222-0123,Fax: +44-20-7803.1497
Circle Research,Europe,United-Kingdom-GB,71 Hopton Street SE1 9LR London United Kingdom (GB)        ,andrew.dalglish@circle-research.com,Phone: +44 (0)20 7960 3802,Fax: +44 (0)20 7928 6052
Made in Studios,Europe,United-Kingdom-GB,85-89 Colmore Row B3 2BB Birmingham United Kingdom (GB)       ,r.leray@madeinsurveys.com,Phone: +44 (0)121 679 0105,
Medicys Limited,Europe,United-Kingdom-GB,152 Staplehurst Road ME10 1QZ Sittingbourne Kent United Kingdom (GB)        ,info@medicysltd.co.uk,Phone: +44 (0) 1795 426655,Fax: +44-1795-428833
ASK Global Universal Ltd.,Europe,United-Kingdom-GB,"Lynton, 1 Southview Turnpike Hill TR17 0AY Marazion Cornwall United Kingdom (GB)       ",ask@askglobaluniversal.com,Phone: +44-1736-71-93-21,
KANTAR TNS,Europe,United-Kingdom-GB,6 More London Place SE1 2QY London United Kingdom (GB)        ,trevor.richards@tnsofres.com,Phone: +44 (0)20 7656 5000,Fax: +44-2089674330
London Economics Ltd,Europe,United-Kingdom-GB,"Somerset House, New Wing Strand WC2R 1LA London United Kingdom (GB)        ",info@londoneconomics.co.uk,Phone: +44 (0)20 3701 7700,Fax: +44 (0)20 3701 7701
JRA Research,Europe,United-Kingdom-GB,Victoria Court Kent Street NG1 3LZ Nottingham United Kingdom (GB)        ,paul@jraresearch.com,Phone: +44-115-955.1133,Fax: +44-115-953.7077
Blue Latitude Network Limited,Europe,United-Kingdom-GB,"5th Floor, Crusader House 145 - 157 Saint John Street London United Kingdom (GB)       ",Eimear.Power@bluelatitude.net,Phone: +44-2033281852,
GfK in U.K.,Europe,United-Kingdom-GB,25 Canada Square Canary Wharf E14 5LQ London United Kingdom (GB)        ,ukinfo@gfk.com,Phone: +44 20 7890 9000,Fax: +44-2078909001
Perspective,Europe,United-Kingdom-GB,Tech West House 10 Warple Way W3 0UE London United Kingdom (GB)        ,info@perspectivemr.co.uk,Phone: +44-20-8896.4400,Fax: +44-20-8896.4401
Plus Four Market Research Limited,Europe,United-Kingdom-GB,"Derwent House 35 South Park Road, Wimbledon SW19 8RR London United Kingdom (GB)        ",info@plus4.co.uk,Phone: +44-20-8254.4444,Fax: +44-20-8254.4440
Flamingo,Europe,United-Kingdom-GB,Bankside 2 100 Southwark Street SE1 0SW London United Kingdom (GB)       ,londonenquiries@flamingogroup.com,Phone: +44 (0)20 3790 0400,
product perceptions ltd.,Europe,United-Kingdom-GB,Windsor Place Faraday Road RH10 9TF Gatwick W. Sussex United Kingdom (GB)        ,info@productperceptions.com,Phone: +44-1293-558.955,Fax: +44-1293-534.963
In-house Research and Training Limited,Europe,United-Kingdom-GB,24 Borough Fields SN4 7AX Royal Wootton Bassett Wiltshire United Kingdom (GB)       ,info@inhouse.uk.net,Phone: +44-1793-848455,
Oxygen Brand Consulting Ltd,Europe,United-Kingdom-GB,1 Bisham Gardens Highgate N6 6DJ London London United Kingdom (GB)       ,info@oxygen.uk.com,Phone: +44-20-8347.7362,
Future Thinking,Europe,United-Kingdom-GB,Laystall House 8 Rosebery Avenue EC1R 4TD London United Kingdom (GB)        ,info@futurethinking.com,Phone: +44-20-7843.9777,Fax: +44-20-7843.9779
Sensory Dimensions,Europe,United-Kingdom-GB,"Science &amp; Technology Centre Earley Gate, Whiteknights Road RG6 6BZ Reading United Kingdom (GB)        ",info@sensorydimensions.com,Phone: +44-118-935.7000,Fax: +44-118-926.7917
SIS International Research,Europe,United-Kingdom-GB,7-10 Adam Street The Strand WC2N 6AA London United Kingdom (GB)       ,researchemea@sisinternational.com,Phone: +4420-7520-9026,
Market Audit,Europe,France,"78C, Bd Leclerc BP 30515 59059 Roubaix Cedex 1 France        ",sdelattre@marketaudit.fr,Phone: +33-3-5956.9500,Fax: +33-3-5956.9509
MIX FACTORY,Europe,France,"4, rue de l'Abreuvoir 92415 Courbevoie Cedex France       ",priscille.bermond@mix-factory.com,Phone: +33-490-522.519,
LA MAISON DU TEST,Europe,France,66 rue de Paris 93100 MONTREUIL France        ,info@lamaisondutest.com,Phone: +33.1.7302.6969,Fax: +33-1-7302.6960
PHOEBUS,Europe,France,95 rue Sainte Catherine BP 40 034 33 036 BORDEAUX France        ,hugues.daolio@phoebus-research.com,Phone: + 33(0)5 56 44 99 15,Fax: + 33(0)5 56 44 99 08
"SAM Sensory and Marketing International, France",Europe,France,46 rue Armand Carrel 75019 Paris France       ,sam-fr@samresearch.com,Phone: +33-148246102,
Cocedal Conseil,Europe,France,25 rue de Ponthieu 75008 Paris France        ,csasson@cocedal.fr,Phone: +33-1-4561 5151,Fax: +33-1-5375 4199
ICARE,Europe,France,11 rue G. Lussac 59650 Villeneuve d'Ascq France        ,icare@icare-mr.com,Phone: +33-3-2005.0260,Fax: +33-3-2005.0250
Bilendi,Europe,France,"3, rue d'Uzes 75002 Paris France        ",l.deliry@bilendi.com,Phone: +33 144882740,Fax: +33 144886031
CREATIVE WORKS,Europe,France,32 rue de Chazelles 75017 Paris France        ,aldo.nonis@creativeworks.fr,Phone: +33-1-4380.0530,Fax: +33-1-4380.2948
BLUE LEMON QUALITATIVE RESEARCH &amp; CONSULTING,Europe,France,101 rue de sèvres 75006 Paris France        ,contact@bluelemon-research.com,Phone: +33-1-39785539,Fax: +33-1-4733.8766
Strategic Research,Europe,France,"17, bd Malesherbes 75008 PARIS France       ",contact@strategicresearch.fr,Phone: +33(0)184162060,
FIELDSHOP,Europe,France,2 Avenue lacassagne 69003 Lyons France        ,fieldshop@field-shop.com,Phone: +33-4-7862.2323,Fax: +33-4-7862.8417
Ipsos,Europe,France,35 rue du Val de Marne 75013 Paris France        ,communication@ipsos.com,Phone: +33-1-4198.9000,Fax: +33-1-4198.9999
HyperWorld,Europe,France,4 Cité Paradis 75010 Paris France       ,contact@hyperworld.fr,Phone: +33 9 50 80 42 95,
Reperes,Europe,France,"20, Rue Bouvier 75011 Paris France        ",reperes@reperes.net,Phone: +33-1-4429.6000,Fax: +33-1-4429.6001
Askia Group,Europe,France,25 rue d'Hauteville 75010 Paris France        ,ask@askia.com,Phone: +33-1-4483.6832,Fax: +33-1-4483.6939
SPATIUM,Europe,France,"81, rue de la Republique 69002 Lyon France        ",info@spatium.com,Phone: +33-4-7838.5760,Fax: +33-4-7240.2415
YouGov France,Europe,France,29 Rue du Louvre 75002 Paris France        ,info@yougov.fr,Phone: +33 (0)1 44 51 95 60,Fax: +33 (0)9 82 62 20 52
FMR GLOBAL HEALTH,Europe,France,"Global Headquarter Rond Point des Champs Elysées, 22 Rue Jean Mermoz 75008 Paris France        ",contact@fmrglobalhealth.com,Phone: +33 1 45 63 16 09,Fax: +33-1-4716.1110
TNS SOFRES,Europe,France,3 avenue Pierre Massé 75014 Paris France        ,contact@tns-sofres.com,Phone: +33-1-40-92-66-66,Fax: +33-1-42-53-91-16
Kfield Marketing Research Instruments,Europe,Italy,Corso delle Province 25 95129 Catania Sicily Italy        ,salvopanarello@kfield.eu,Phone: +39 095-37.48.35,Fax: +39 095-29.37.335
GHIAL MEDIA,Europe,Italy,Via Vincenzo Monti 25 Via Vincenzo Monti 25 20123 Milano Milano Italy        ,segreteria@euromediaresearch.it,Phone: +390243912184,Fax: +39-02-8905.9889
Rome Field &amp; Research International,Europe,Italy,"Via Carlo Bartolomeo Piazza, 16/18 00161 Rome Italy        ",g.grillo@rfr-international.net,Phone: +39-06-4423.7799,Fax: +39-06-2332.39015
EMG SRL,Europe,Italy,Via Carlo De Angeli 3 20141 Milano Italy        ,info@esomar.it,Phone: + 39 02 45485206,Fax: + 39 02 45495181
Lexis ricerche Srl,Europe,Italy,Via Alberto Mario 8 20149 Milan Italy        ,lexis@lexisricerche.it,Phone: +39-02-4800.1683,Fax: +39-02-4800.0689
KIK SRL,Europe,Italy,Via T. Tasso 50 c/o scientific and technological park Kilometro Rosso 24121 Bergamo Italy       ,livia.gervasoni@ourkik.com,Phone: +39 3358242133,
People the Research Partner srl,Europe,Italy,Via Alessandro Volta 16 20121 Milan Italy        ,info@peopleresearch.it,Phone: +39-02-4549.9301,Fax: +39-02-4549.9302
Episteme srl,Europe,Italy,viale Andrea Doria 5 20124 Milan Italy       ,info@episteme.co,Phone: 00390236753757,
SCENARI SRL,Europe,Italy,via diocleziano 42 80125 napoli campania Italy        ,info@scenari.it,Phone: +390812403244,Fax: +390815753192
IdWeb srl,Europe,Italy,"Viale Romagna, 69 06012 Perugia Perugia Italy        ",info@idweb.it,Phone: +39 (0)75 85 11 473,Fax: +39 (0)75 85 12 889
Arkell Research Associates,Europe,Italy,Via Verdina 98 Camaiore 55041 Lucca Italy        ,info@arkellresearch.com,Phone: +39-335-6536910,Fax: +39-0584-1784529
Probe S.r.l.,Europe,Italy,"Via Tadino, 20 20124 Milan Italy        ",probe@probesrl.it,Phone: +39-02-236.3866,Fax: +39-02-236.5356
Format Research S.r.l.,Europe,Italy,Format Research S.r.l. Via Ugo Balzani 77 00162 Rome Italy        ,info@formatresearch.com,Phone: +39-06-8632.8681,Fax: +39-06-8638.4996
Alphabet Research,Europe,Italy,Via Forze Armate 260/2 20152 Milan Italy        ,info@alphabet.it,Phone: +39-02-498.0029,Fax: +39-02-498.1878
Elma Research s.r.l.,Europe,Italy,"Viale V. Lancetti, 40 20158 Milan Italy        ",info@elmaresearch.com,Phone: +39 026880291,Fax: +39 026880410
NEXTEST S.r.l.,Europe,Italy,Via Vittadini 11 20136 Milano Italy        ,info@nextest.it,Phone: +39-02-5843.1229,Fax: +39-02-5830.7612
ApertaMente Srl,Europe,Italy,"Via Palestro, 5/B I - 20900 Monza MB Italy        ",gt.savorgnani@apertamentericerche.it,Phone: +39-039-2914-366,Fax: +39-039-2914-365
Ipsos Srl,Europe,Italy,Via Mauro Macchi 61 20124 Milan Italy        ,info@ipsos.it,Phone: 390 267 3301,Fax: +39-02-6733.0902
Focus S.r.L.,Europe,Italy,Via Pietro Borsieri 12 00195 Rome Italy        ,focus@uni.net,Phone: +39-06-372.8911,Fax: +39-06-372.3842
G&amp;G Associated S.r.l.,Europe,Italy,Viale Regina Margherita 278 00198 ROME Italy        ,info@ggassociated.it,Phone: + 39 06 44 24 56 33,Fax: +39 06 93 38 01 97
Top of Mind MR&amp;C,Europe,Russian-Federation,4 Masterkova str. 115280 Moscow Russian Federation        ,mail@topofmind.ru,Phone: +7-495-114.5664,Fax: +7-495-114.5664
MarketSense,Europe,Russian-Federation,"6 Shluzovaya naberezhnaya building 4, 5th floor 115114 Moscow Russian Federation        ",info@marketsense.ru,Phone: +7-499-579 31 61,Fax: +7-4995793161
WCIOM,Europe,Russian-Federation,Ul. Kazakova 16 Building 2 105064 Moscow Russian Federation        ,inform@wciom.com,Phone: +7-495-748.0807,Fax: +7-495-748.0807
Online Market Intelligence (OMI),Europe,Russian-Federation,"Moscow, Bolshoi Karetniy Per 20, b. 3 127051 Moscow Russian Federation        ",ashashkin@omirussia.ru,Phone: +7-495-660-94-15,Fax: +7-499-978.5197
B&amp,M,Europe,Russian-Federation,15-161 Cherepovetskaya street 127572 Moscow Russian Federation       ,bma@bma.ru,Phone: +7-985-211-6733
GfK in Russia,Europe,Russian-Federation,"Ryazanskiy Prospekt , 8A 11th Floor 109428 Moscow Russian Federation        ",ru@gfk.com,Phone: +7 495 937 7222,Fax: +7 495 937 7233
MASMI - Russia,Europe,Russian-Federation,Malaya Semenovskaya Str. 9 Building 5 107023 Moscow Russian Federation        ,masmi-russia@masmi.com,Phone: +7-495-981.4850,Fax: +7-495-981.4855
Ultex MR,Europe,Russian-Federation,Profsoyuznaya 57 korpus 2 117420 Moscow Russian Federation        ,ap@ultexmr.ru,Phone: +7499 678 33 02,Fax: +7966 119 43 14
SAMI,Europe,Russian-Federation,Pestelya Street 6/25 office 3 191028 St Petersburg Russian Federation        ,sami@masmi.com,Phone: +7-812-275.9510,Fax: +7-812-275.9510
Tochka Rosta Research&amp;Testing,Europe,Russian-Federation,"1 Kvesisskaya str, 18, trade center bld. office 233 trade center bld. office 233 127220 Moscow Russian Federation       ",office@tochkarosta.ru,Phone: +7 499 685 1477,
"Kantar TNS, Russia",Europe,Russian-Federation,"6, Bolshoi Koptevsky pr. 125319 Moscow Russian Federation        ",tns@tns-global.ru,Phone: +7-495-935.8718,Fax: +7-495-926.5228
SOCIS MR Russia,Europe,Russian-Federation,Oktyabrya Ave. 47 150040 Yaroslavl Russian Federation        ,info@socismr.com,Phone: +7-495-510.1940,Fax: +7-4852-730.366
CESSI - Institute for Comparative Social Research,Europe,Russian-Federation,"B.Dmitrovka 20/5, office 66 107031 Moscow Russian Federation        ",cessi@cessi.ru,Phone: +7-495-650.6892,Fax: +7-495-650.5571
QuQuest,Europe,Russian-Federation,"Business Centre Gamma Gamsonovskiy per. 5, bldg.3, Ground Floor 115191 Moscow Russian Federation        ",info@ququest.ru,Phone: +7-495-641.0225,Fax: +7-495-641.0225
FDFgroup,Europe,Russian-Federation,"Gostinichnaya 3, 102 127106 Moscow Russian Federation       ",info@fdfgroup.ru,Phone: +74957552224,
ROMIR Holding,Europe,Russian-Federation,"Barklaya Street, 6-3 121087 Moscow Russian Federation        ",info@romir.ru,Phone: +7-495-988.6081,Fax: +7-495-988.6081
MAGRAM Market Research,Europe,Russian-Federation,"26 Prospect Mira, bld. 8. 129090 Moscow Russian Federation        ",magram@magram.ru,Phone: +7-495-980.8050,Fax: +7-495-980.8051
Bazis Group,Europe,Russian-Federation,R.Luxemburg 22-909 620075 Ekaterinburg Russian Federation        ,info@bazisgroup.com,Phone: +7 (343) 288-57-14,Fax: +7-343-272.4314
Atelier Marker Research,Europe,Russian-Federation,Pyatnitskaya Str. 6/1 115035 Moscow Russian Federation        ,office@atelier-mr.ru,Phone: +7-495-646-0622,Fax: +7-495-646-0622
O+K,Europe,Russian-Federation,9 Chapaeva Street 197046 St. Petersburg Russian Federation        ,oleg@okresearch.ru,Phone: +7-812-244.2442,Fax: +7-812-244.2442
RSVO (face to face &amp; online),Europe,Netherlands,Westzijde 14D Theehuis van Monet 1506 EE Zaandam Netherlands        ,mail@rsvo.nl,Phone: +31-75-631.9320,Fax: +31-75-631.9320
Perspective,Europe,Netherlands,Sarphatistraat 634 1018 AV Amsterdam Netherlands       ,titia@perspective-research.nl,Phone: +31-616612202,
121research,Europe,Netherlands,Jan Evertsenstraat 777 1061 XZ Amsterdam Netherlands        ,121research@kpnmail.nl,Phone: +31-20-6148120,Fax: +31-84-7185.524
Global Data Collection Company (GDCC),Europe,Netherlands,Conradstraat 18 3013 AP Rotterdam Netherlands        ,sales@gdcc.com,Phone: +31-10-300.3003,Fax: +31-10-300.3004
True Research,Europe,Netherlands,Runmoolen 131 1181NZ Amstelveen Netherlands       ,erik@true-research.nl,Phone: +31 20 6452691,
GfK in the Netherlands,Europe,Netherlands,Krijgsman 22-25 1186 DM Amstelveen NH Netherlands        ,nl@gfk.com,Phone: +31-20 713 3000,Fax: +31-35-624.6532
Branches &amp; Trends bv,Europe,Netherlands,Akerstraat 8E 6221 CL Maastricht Netherlands        ,info@branches-en-trends.nl,Phone: +31-43-356.9900,Fax: +31-43-356.9901
haystack international The Netherlands,Europe,Netherlands,haystack BV Klaprozenweg 75 B1 1033 NN Amsterdam Netherlands        ,w.hamaekers@haystack-international.com,Phone: +31 (0)20 8004400,Fax: 321 662 0002
MeMo2,Europe,Netherlands,Jan Luijkenstraat 1071 CT Amsterdam Netherlands       ,info@memo2.com,Phone: +31 20 6794736,
I\'m Research BV,Europe,Netherlands,Grevelingen 42 2641 XZ Pijnacker Netherlands        ,info@imresearch.eu,Phone: +31-15-3610036,Fax: +31-15-3610021
NIPO Software,Europe,Netherlands,Grote Bickersstraat 74 1013 KS Amsterdam Netherlands        ,info@niposoftware.com,Phone: +31-20-522.5989,Fax: +31-20-522.5333
Ferro Explore!,Europe,Netherlands,Weteringschans 85D 1017RZ Amsterdam Netherlands        ,info@ferro-explore.nl,Phone: +31-20-624.3044,Fax: +31-20-622.4299
Sample Solutions BV,Europe,Netherlands,Burgwal 47 2611GG Delft Zuid Holland Netherlands       ,info@samplesolutions.eu,Phone: +31 153010030,
ibt marktonderzoek,Europe,Netherlands,Eerste Jansteenstraat 84a 1072 NP Amsterdam Netherlands        ,eelco.hofma@ibtmarktonderzoek.nl,Phone: +31-20-7980992,Fax: +31-20-428.8428
Vostradamus,Europe,Netherlands,Asterweg 75 1031HM Amsterdam Noord Holland Netherlands        ,info@vostradamus.nl,Phone: +31203033893,Fax: 020 303 3894
ADK INSIGHTS,Europe,Netherlands,Neptunusstraat 31 2132 JA Hoofddorp Netherlands        ,info@adk-insights.com,Phone: +31-23-554.3554,Fax: +31-23-554.3553
DESAN Research Solutions,Europe,Netherlands,P.O. Box 10288 1001 EG Amsterdam Netherlands        ,info@desan.nl,Phone: +31-20-620.1589,Fax: +31-20-638.7299
InSites Consulting B.V.,Europe,Netherlands,Barbizonlaan 45 2908 ME Capelle aan den Ijssel Netherlands        ,info@insites-consulting.com,Phone: +31 (0)10 742 10 30,Fax: +32 (0)2 792 47 03
Q&amp;A Research &amp; Consultancy,Europe,Netherlands,Printerweg 22 3821 AD Amersfoort Netherlands        ,info@qanda.nl,Phone: +31 33 2454637,Fax: +31-33-2457690
PMR - Partners in Marketing Research BV,Europe,Netherlands,Vinkenbos 31 5521 SZ Eersel Netherlands       ,derijk@pmrresearch.nl,Phone: +31-497-518.527,
"Block de Ideas, S.L.",Europe,Spain,"Diputació 180, planta 4 08011 Barcelona Spain        ",rdalet@blockdeideas.es,Phone: +34-93-415.5228,Fax: +34-93-415.9723
Psyma Iberica S.L.,Europe,Spain,C/ Velazquez 22 2° dcha &amp; 3° dcha 28001 Madrid Spain        ,ignacio.macias@psyma-iberica.com,Phone: +34-915-900.977,Fax: +34-915-648.928
Intercampo S.A.,Europe,Spain,C/Bravo Murillo nº 5 28015 Madrid Spain        ,intercampo@intercampo.es,Phone: +34-91-448.3312,Fax: +34-91-445.8096
Ideria Insights,Europe,Spain,"Rambla Catalunya, 62 3-1 08007 Barcelona Spain        ",monicay@ideria.net,Phone: +34 93 272 13 84,Fax: +34-932156654
Kuo Experience Research,Europe,Spain,"Avda. General Peron 22,2 B 28020 Madrid Madrid Spain       ",info@kuo-experience.com,Phone: +34 91 2203641,
CONENTO,Europe,Spain,"SAGASTA 15, 7º 28004 MADRID MADRID Spain        ",jesus.aranda@conento.com,Phone: +34915938066,Fax: +349144886626
LinQ Market Research España S.A.,Europe,Spain,"Calle Aribau 135, 4Âº, 2Âª 08036 Barcelona Spain        ",info@linq-spain.com,Phone: +34-93-363.2770,Fax: +34-93-419.9293
HAMILTON,Europe,Spain,"c/Mallorca, 221 08008 Barcelona Spain       ",info@hamilton.global,Phone: +34 93 237 09 92,
"PRM Internacional, S.A.",Europe,Spain,"Gran Vía Carlos III, 86 3ª Planta 08028 Barcelona Spain        ",prm@prm.es,Phone: +34-93-405.2799,Fax: +34-93-430.1022
"PUNTO DE FUGA, Investigación Prospectiva",Europe,Spain,"Roger de Llúria, 82; 3º 1ª 08009 Barcelona Spain        ",laura.torrebadell@puntodefuga.es,Phone: +34-93-476.1494,Fax: +34-93-476.1491
"Invymark, S.A.",Europe,Spain,"C/Diego de Léon, 30 28006 Madrid Madrid Spain        ",invymark@invymark.es,Phone: +34-91-564.1401,Fax: +34-91-411.4445
C23 Research (Castello Veintitres S.L.),Europe,Spain,Calle Castello 23 - Entreplanta 28001 Madrid Spain        ,info@C23Research.com,Phone: +34-91-435.9985,Fax: +34-91-435.6438
Nueva Investigación,Europe,Spain,Raimundo Fernandez Villaverde 57 2º Derecha 28003 Madrid Spain        ,nueva@nuevainvestigacion.com,Phone: +34-91-353.1490,Fax: +34-91-345.6656
CONECTA Research &amp; Consulting,Europe,Spain,"Alcalá 105, 1ª planta 28009 Madrid Spain        ",conectarc@conectarc.com,Phone: 34 91 1559676,Fax: 34 91 575 75 49
Netquest SL,Europe,Spain,"Gran Capitan, 2- 4 Nexus I Building 08034 Barcelona Spain        ",info@netquest.com,Phone: +34-93-205.0063,Fax: +34-93-280.0750
The Cocktail Analysis,Europe,Spain,"Calle Salamanca, 17 28020 Madrid Madrid Spain       ",info@tcanalysis.com,Phone: +34 91 567 06 05,
Estudio Silvia Roca S.L.,Europe,Spain,C/Valencia 230 2º2ª 08007 Barcelona Spain        ,ivan.bautista@estudiosilviaroca.es,Phone: +34-93-451.5310,Fax: +34-93-451.8012
PSCG - Product Sensory Consulting Group,Europe,Spain,"C/.Toledo, 10, casa 1ª 08195 Sant Cugat del Vallés Spain        ",juan.abante@pscg.es,Phone: +34-93-590.3138,Fax: +34-93-590.3139
Synergic Investigacion y Marketing,Europe,Spain,"Arago, 326, 3-1 08009 Barcelona Spain        ",synergic@synergic.es,Phone: +34-93-487.3309,Fax: +34-93-487.3513
"RANDOM strategy, S.A",Europe,Spain,"Joaquin Costa, 15 pta. 2-3 Avda. Pablo Iglesias, 24 28003 Madrid Spain        ",international@random-strategy.com,Phone: +34-91-453.0022,Fax: +34-91-453.0021
Barem,Europe,Turkey,Abide-i Hurriyet Ca. No 211 Bolkan Plaza A Blok Kat 2 Sisli 34381 Istanbul Turkey        ,barem@barem.com.tr,Phone: +90-212-320.2200,Fax: +90-212-320.2277
Kalita Research and Consultancy,Europe,Turkey,Vali Konagi Cad. Hasim bey Apt. 75/3 Nisantasi 80220 Istanbul Turkey        ,info@kalita.net,Phone: +90-212-2911.986,Fax: +90-212-2911.905
Binom Research,Europe,Turkey,"Akıncı Bayırı Sokak, Şişik İş Merkezi No: 28 Kat: 2, Şişli, İstanbul, Türkiye 34394 Istanbul Istanbul Turkey        ",info@binomarastirma.com,Phone: +902123561646,Fax: 212 356 1646
Menta Research &amp; Consultancy,Europe,Turkey,Yildiz Posta Cad. Emel Sitesi A Blok No:14/4 34349 Istanbul Turkey        ,info@mentaresearch.com,Phone: +90-212-3474380,Fax: +90-212-3474382
Future Generation (FG) Research,Europe,Turkey,Merkez Mah. Hasat Sok. 52/1 Sisli 34381 Istanbul Turkey        ,info@fgresearch.net,Phone: +90-542-4255405,Fax: +90-212-9631341
Q&amp;A MARKET RESEARCH,Europe,Turkey,Bagdat Cad.Tanguner Apt. NO:356 K.3 D.7 34728 Saskinbakkal- Kadikoy/ Istanbul Istanbul Turkey        ,info@qamarketresearch.com,Phone: +90-216-355.3401,Fax: +90-216-355.3403
FutureBright Research and Strategic Consultancy,Europe,Turkey,Halaskargazi Cad. Cifkurt Ap. No: 226 Floor 1-5-6 Sisli 34371 Istanbul Turkey        ,info@futurebright.com.tr,Phone: +90 212 240 21 23,Fax: +90 212 246 08 33
Matris Research,Europe,Turkey,Abide-i Hurriyet Cad. Ucler Apt. No: 141 / 4 Istanbul Turkey        ,info@matrisresearch.com,Phone: +90-212-296-42-61,Fax: +90-212-296-42-63
Sever Impeks Marketing Research and Consultancy Ltd.,Europe,Turkey,"Aytar Cad. No 4 Ayyildis Han Çati Kati, Levent 34340 Istanbul Turkey        ",research@severimpeks.com,Phone: +90-212-279.9318,Fax: +90-212-279.6099
Alfa Market Research &amp; Consultancy Ltd.,Europe,Turkey,Gayrettepe Mah. Ömer Beşiktaş Sok. No:10 Kat:3 34349 İstanbul Beşiktaş Turkey        ,info@alfaresearch.com,Phone: +90.212.2453729,Fax: +90.212.2525504
Diyalog Research,Europe,Turkey,Gulbahar Mah. Harmanyolu Ust Sk. No:4/A Meric Plaza 34394 Mecidiyekoy 34349 Istanbul Turkey        ,nilgun.okutan@diyalogarastirma.com.tr,Phone: +90-212-708.5600,Fax: +90-212-216.8972
ORIS - Objektif Research &amp; Information Services,Europe,Turkey,"19 May?s Mahallesi, Büyükdere Caddesi Beytem Plaza, No: 20/1 - Kat: 5 34381 ?i?li / Istanbul Turkey        ",info@objektifresearch.com,Phone: +90-212-939.6328,Fax: +90-212-939.6201
SIA Research and Consultancy,Europe,Turkey,Mahir Iz Caddesi No:26/1 Altunizade 34662 Istanbul Istanbul Turkey        ,info@sia-insight.com,Phone: + 90 216 325 97 95,Fax: + 90 216 325 85 11
Eksen Research,Europe,Turkey,"Buyukdere Cad. No: 4, Floor: 2 Basman Han, Sisli 34360 Istanbul Turkey        ",info@eksen.eu,Phone: +90-212-291.6006,Fax: +90-212-291.6106
Yontem Research Consultancy Limited,Europe,Turkey,Yildirim Oguz Goker Cad. 5. Gazeteciler Sitesi No: 30 Akatlar/Levent 34335 Istanbul Turkey        ,info@yontemresearch.com,Phone: +90-212-278.1219,Fax: +90-212-269.8707
Logos Research,Europe,Turkey,Omer Avni Mah. Beytulmalci Sokak No:2 D:5 Kabatas-Beyoglu 34427 Istanbul Turkey        ,deniz.ozturk@logos-research.com,Phone: +90-212-2484810,Fax: +90-212-2484870
Ipsos KMG,Europe,Turkey,Centrum Is Merkezi Aydinevler Sanayi Caddesi No:3 Kucukyali 34854 Istanbul Turkey        ,trinfo@ipsos.com,Phone: +90-216-587.1111,Fax: +90-216-417.6565
7P THINK TANK GROUP,Europe,Turkey,Eski Buyukdere caddesi Bilek Is Merkezi No. 33 kat 6 4th Levent-Kagithane 34415 Istanbul Turkey        ,info@7p-thinktankgroup.com,Phone: +90-212-217.5957,Fax: +90-212-273.0167
Etik Research,Europe,Turkey,Mecidiyekoy Mah. Lati Lokum Sok. No: 4 D: 7 Sisli – Istanbul/Turkiye 1438 Sokak No:5 Kat:4 Daire:7  Alsancak- Izmir/Türkiye 35320 Istanbul Turkey        ,turkey@etikarastirma.com,Phone: +90 (232) 422 60 40,Fax: +90 (232) 421 92 76
GfK in Turkey,Europe,Turkey,Cumhuriyet Mh. - (Harika Sk.) ?ncirli Dede Caddesi No:4 Divan Residence at Bomonti Plaza - ?i?li 34380 Istanbul Turkey        ,tr@gfk.com,Phone: +90-212-368.0700,Fax: +90-212-368.0799
Columbus bvba,Europe,Belgium,Elf Novemberlaan 32 9080 Lochristi Belgium        ,info@columbus-research.com,Phone: 329 348 1929,Fax: 329 237 2731
TNS opinion,Europe,Belgium,Rue Jules Cockx 8-10 1160 Brussels Belgium        ,tns@tns-opinion.com,Phone: 322 661 1866,Fax: 322 661 1867
Research Plus,Europe,Belgium,Kardinaal Mercierlaan 34/1 3001 Heverlee Belgium       ,marleen.baptist@researchplus.be,Phone: 321 689 3149,
JPCR s.a.,Europe,Belgium,"Clos de la Futaie, 5 B-1410 Waterloo Brabant Wallon Belgium        ",info@jpcr.be,Phone: 322 376 5210,Fax: 322 376 5214
suAzio Consulting,Europe,Belgium,Dianalaan 151 2600 Antwerp Belgium        ,info@suazio.com,Phone: 323 242 8060,Fax: 323 242 8069
InSites Consulting N.V.,Europe,Belgium,Evergemsesteenweg 195 9032 Ghent (Wondelgem) Belgium        ,info@insites-consulting.com,Phone: +32 (0)9 269 15 00,Fax: +32 (0)9 269 16 00
Profacts,Europe,Belgium,Grote Steenweg 15-17 9840 De Pinte Belgium       ,stijn.derammelaere@profacts.be,Phone: +32-(0)9-244.06.74,
MARESCO,Europe,Belgium,Oogststraat 66 B-2600 Berchem Belgium        ,marketresearch@maresco.biz,Phone: 323 449 4600,Fax: 323 449 8870
haystack international headquarters Belgium,Europe,Belgium,Romeinse straat 4 3001 Heverlee Vlaams-Brabant Belgium        ,quotes@haystack-international.com,Phone: 321 662 1158,Fax: 321 662 0002
SynapsesQuali,Europe,Belgium,"672, Sint-Annalaan 1800 Vilvoorde (Brussels North) Belgium        ",pedro.zaragoza@synapsesquali.com,Phone: 322 759 9199,Fax: 322 262 3092
TNS Dimarso,Europe,Belgium,"49-53, rue du Marais 1000 Brussels Belgium        ",info@tnsglobal.be,Phone: 322 215 1930,Fax: 322 216 1396
GfK in Belgium,Europe,Belgium,Arnould Nobelstraat 42 3000 Leuven Belgium        ,be@gfk.com,Phone: 321 674 2424,Fax: 321 674 2401
Questions and Answers,Europe,Belgium,Gouvernementstraat 5 9000 Ghent Belgium        ,info@questionsandanswers.be,Phone: 329 233 8373,Fax: 329 233 8445
FABRY CONSULT,Europe,Belgium,58 bte51 Quai des Péniches 1000 Brussels Belgium        ,martine.fabry@skynet.be,Phone: 322 243 0021,Fax: 322 243 0021
Market Probe Europe,Europe,Belgium,Veldkant 37 2550 Kontich - Antwerp Belgium        ,d.vanmarsenille@marketprobe.com,Phone: 323 451 0045,Fax: 323 457 5747
WIDE RESEARCH,Europe,Belgium,"124, Rue des 3 ponts 1160 Brussels Belgium       ",tine@wide.be,Phone: 322 627 5050,
AQ Rate,Europe,Belgium,rue Souveraine 96 1050 Brussels Belgium        ,info@aq-rate.com,Phone: 322 646 5626,Fax: 322 646 3735
IRB Europe Sprl,Europe,Belgium,81 Boulevard Louis Schmidtlaan 1040 Brussels Belgium        ,info@irbeurope.com,Phone: 322 740 2180,Fax: 322 735 3414
Dedicated Resources,Europe,Belgium,Dedicated Resources 216 Avenue Brugmann 1050 Brussels Belgium        ,info@dedicated.be,Phone: 322 344 0088,Fax: 322 343 9222
Trilations,Europe,Belgium,Prins Boudewijnlaan 30 2550 Kontich Belgium        ,johan.vermeiren@trilations.com,Phone: 323 877 6400,Fax: 323 450 9919
NORSTAT Sweden,Europe,Sweden,St Larsgatan 32B 582 24 Linkoping Sweden        ,info@norstat.se,Phone: +46-13-489.4000,Fax: +46-13-489.4010
AB Better Business World Wide,Europe,Sweden,Vargmotesvagen 4 18630 Vallentuna/Stockholm Stockholm Sweden       ,info@betterbusiness.se,Phone: +46 (0)8 5118 5110,
CCL Swedish Moderators AB,Europe,Sweden,S:t Eriksgatan 63 Box 49052 10028 Stockholm Sweden       ,info@swedishmoderators.com,Phone: +46704181673,
Red Carpet Research,Europe,Sweden,Rödhakev. 2 Gustavsberg Sweden       ,hello@redcarpetresearch.eu,Phone: +46-737-12-17-11,
Survey Sweden AB,Europe,Sweden,Address Box 149 74523 Enkoping Sweden        ,info@surveysweden.se,Phone: 468 730 3077,Fax: 468 764 7303
Enkätfabriken (Survey Factory),Europe,Sweden,Erik Dahlbergsgatan 11A 41126 Göteborg Sweden       ,kontakt@enkatfabriken.se,Phone: +4631-31 34 878,
FÜRST SCANDINAVIAN RESEARCH AB,Europe,Sweden,"Skolvägen 16, 2nd Floor 192 70 Sollentuna Sweden       ",info@fsr.se,Phone: +46-8-215.959,
Nordic Viewpoint,Europe,Sweden,"J A Wettergrens gata 5 421 30 Västra Götaland, Gothenburg Sweden       ",info@nordic-viewpoint.com,Phone: 0046 31 7872599,
ScandInfo Marketing Research AB,Europe,Sweden,PO Box 3163 Kungsgatan 42 SE-40010 Gothenburg Sweden        ,mail@scandinfo.se,Phone: +46-31-743.4400,Fax: +46-31-743.4490
M3 Research part of Bilendi,Europe,Sweden,Birger Jarlsgatan 50 114 29 Stockholm Sweden       ,csi@M3Research.com,Phone: +46 723 28 94 22,
Inizio Sweden,Europe,Sweden,"Regeringsgatan 29, 7 tr 11153 Stockhkolm Sweden       ",info@inizio.se,Phone: +46738105022,
Ipsos Sweden AB,Europe,Sweden,Box 12236 102 26 Stockholm Sweden        ,info@ipsos.se,Phone: +46-8-5989.9800,Fax: +46-8-5989.9805
QQFS (Qualitative &amp; Quantitative Fieldwork Services),Europe,Sweden,J A Wettergrens gata 5 Gothenburg 421 30 Vastra Frolunda Sweden        ,info@qqfs.com,Phone: +46-31-355.9000,Fax: +46-313559050
PFM Research i Sverige AB,Europe,Sweden,Klammerdammsgatan 2 301 02 Halmstad Sweden        ,kontakt@pfmresearch.se,Phone: +46 35 260 60 00,Fax: +46 35 260 60 99
AB Stelacon,Europe,Sweden,Alströmergatan 16 112 47 Stockholm Sweden        ,office@stelacon.se,Phone: +46-8-5871.2000,Fax: +46-8-5871.2002
GfK in Sweden,Europe,Sweden,Box 401 Sankt Lars väg 43 221 00 Lund Sweden        ,se@gfk.com,Phone: +46 (0)10-455 36 00,Fax: 464 618 1609
Intermetra,Europe,Sweden,Fredsgatan 1 411 07 Gothenburg Sweden        ,mail@intermetra.se,Phone: +46-31-721.9000,Fax: 463 115 7585
Amarillo Research &amp; Consultancy AB,Europe,Sweden,Erik Dahlbergsallén 15 115 20 Stockholm Sweden        ,info@amarillo.se,Phone: 468 731 8700,Fax: 468 679 7001
Perspektiv Undersokkningar AB,Europe,Sweden,Hantverkargatan 78 3TR SE-112 38 Stockholm Sweden       ,asa.nes@perspektivundersokningar.se,Phone: +46-706282407,
Augur,Europe,Sweden,Barnhusgatan 4 111 23 Stockholm Sweden        ,info@augur.se,Phone: +46-8-5452 9100,Fax: +46-8-5452 9120
"SAM Sensory and Marketing International, Switzerland",Europe,Switzerland,Albulastrasse 57 8048 Zürich Switzerland        ,sam-ch@samresearch.com,Phone: +41 44 439 70 40,Fax: +41 44 439 70 41
intervista AG,Europe,Switzerland,Spitalackerstr. 60 3013 Bern Bern Switzerland       ,contact@intervista.ch,Phone: +41 31 511 02 50,
bms Ltd.,Europe,Switzerland,Baarerstrasse 57 6301 Zug Switzerland        ,bms@bms-net.ch,Phone: +41-41-711.4188,Fax: +41-41-711.4185
MIS Trend S.A.,Europe,Switzerland,Pont Bessieres 3 1005 Lausanne Switzerland        ,info@mistrend.ch,Phone: +41-21-320.9503,Fax: +41-21-312.8846
icommit GmbH,Europe,Switzerland,Poststrasse 35 8700 Küsnacht Zurich Switzerland       ,welcome@icommit.ch,Phone: 0041 43 266 88 77,
Innovation Atelier SA,Europe,Switzerland,Ch. d'Entre-deux-Villes 3A 1802 Corseaux Switzerland       ,info@innovationatelier.com,Phone: +41-22-557-9559,
Qualitest AG,Europe,Switzerland,Rosenberghoehe 3 6004 Luzern Switzerland        ,qualitest@qualitestag.ch,Phone: +41-41-712.1221,Fax: +41-41-712.1226
Happy Thinking People AG,Europe,Switzerland,Stauffacherstrasse 101 8004 Zurich Switzerland        ,contact-zurich@happythinkingpeople.com,Phone: +41 44 204 1626,Fax: +41 44 204 1627
SIRO-FIELD,Europe,Switzerland,Marktgasse 1 Postfach 101 8400 Winterthur Switzerland        ,sirofield@active.ch,Phone: +41-52-202.9691,Fax: +41-52-202.9693
Insight Institute AG,Europe,Switzerland,Bergstrasse 138 8032 Zurich Switzerland        ,info@insightinstitute.ch,Phone: +41-44-387.9090,Fax: +41-44-387.9091
Fuhrer &amp; Hotz,Europe,Switzerland,Dorfstrasse 13A 6340 Baar Zug Switzerland        ,info@fuhrer-hotz.ch,Phone: +41 41 766 14 00,Fax: +41 41 766 14 01
LINK Institut für Markt- und Sozialforschung,Europe,Switzerland,Spannortstrasse 7/9 6000 Lucerne 4 Switzerland        ,lucerne@link.ch,Phone: +41-41-367.7373,Fax: +41-41-367.7272
Yxplora AG - field &amp; market research solutions,Europe,Switzerland,Badenerstrasse 78 8004 Zurich Switzerland        ,info@yxplora.com,Phone: +41-44-200.70.40,Fax: +41-44-200.70.49
CBC Switzerland Ltd,Europe,Switzerland,Marktgasse 32 3011 Bern Switzerland        ,renee.wang@cbcnow.com,Phone: +41-31-560.3000,Fax: +41-31-312.5886
Random International Consumer Panels SA (Former P. Robert and Partners SA),Europe,Switzerland,Avenue de Lonay 13 1110 Morges 1 Switzerland        ,info@random-icp.com,Phone: +41-21-802.85.55,Fax: +41-21-802.84.85
GIM Gesellschaft fur innovative Marktforschung Suisse AG,Europe,Switzerland,General-Wille-Strasse 10 8002 Zurich Switzerland        ,info@g-i-m.ch,Phone: +41-44-283.1818,Fax: +41-44-283.1819
TestingTime AG,Europe,Switzerland,Bahnhofstrasse 3 8001 Zurich Switzerland       ,contact@testingtime.com,Phone: +41 44 560 99 15,
Dichter Research AG,Europe,Switzerland,Stauffacherstrasse 27 8004 Zurich Switzerland        ,dichter@dichter.ch,Phone: +41-43-810.0909,Fax: +41-43-810.0901
GfK in Switzerland,Europe,Switzerland,Obermattweg 9 6052 Hergiswil Switzerland        ,ch@gfk.com,Phone: +41 (0)41 632 9111,Fax: +41 (0)79 689 26 59
MSIntelligence,Europe,Switzerland,16 Rue du Roveray 1207 Geneva Switzerland        ,info@msintelligence.com,Phone: +41 22 8495201,Fax: +41 22 8495202
Ennova A/S,Europe,Denmark,Daugbjergvej 26 8000 Aarhus C. Denmark        ,email@ennova.com,Phone: 458 620 2120,Fax: 458 620 2048
M3 Research part of Bilendi,Europe,Denmark,Londongade 4 5000 Odense C Denmark        ,info@m3-mr.com,Phone: 457 070 1718,Fax: 456 614 1943
Epinion - Denmark - Research &amp; Insights,Europe,Denmark,"Ryesgade 3F Ryesgade 3F, 2200 Copenhagen N 2200 Copenhagen N Denmark        ",contact@epinionglobal.com,Phone: 458 730 9500,Fax: 457 023 1423
Wilke Research A/S,Europe,Denmark,Jens Benzons Gade 54B 5000 Odense C Denmark        ,wilke@wilke.dk,Phone: 457 010 2080,Fax: 457 010 2081
Analyse Danmark ApS,Europe,Denmark,Frederiksberg Allé 17 Baghuset DK-1820 Frederiksberg C Denmark       ,info@analysedanmark.dk,Phone: 454 333 1020,
Voxmeter,Europe,Denmark,"Borgergade 6, 4th floor 1300 Copenhagen K Denmark       ",cs@ceminstitute.com,Phone: 457 020 2324,
NORSTAT Denmark,Europe,Denmark,"Frederiksborggade 1, 4. 1360 Copenhagen K Denmark        ",info@norstat.dk,Phone: 453 539 2060,Fax: 453 535 9059
Moos-Bjerre &amp; Lange,Europe,Denmark,Vartov Farvergade 27a 1463 København K Denmark       ,mail@mbla.dk,Phone: 452 777 2020,
YouGov Nordic,Europe,Denmark,"Bryggervangen 55, 1.th DK-2100 Copenhagen 0179 Denmark       ",info@yougov.com,Phone: 457 027 2224,
MEGAFON,Europe,Denmark,Alhambravej 12 1826 Frederiksberg C Denmark        ,megafon@megafon.dk,Phone: 457 741 4141,Fax: 457 741 4177
People Research,Europe,Denmark,Flaesketorvet 26 1711 Copenhagen V Denmark       ,office@peopleresearch.dk,Phone: 453 134 7370,
MarketMinds,Europe,Denmark,Vesterbrogade 121 1620 Copenhagen K Denmark       ,obelitz@marketminds.dk,Phone: 453 538 3853,
Kantar Gallup,Europe,Denmark,Masnedoegade 22-24 2100 Copenhagen O Denmark        ,gallup@tns-gallup.dk,Phone: 453 927 2727,Fax: 453 927 5080
FENESTRA OK,Europe,Denmark,"Fenestra OK Fynsvej 15 2800 Lyngby, Copenhagen Denmark       ",mail@fenestra.dk,Phone: 454 041 5290,
FactiCom,Europe,Denmark,Gersagervej 8 DK-2670 Greve Denmark       ,mail@aspectoweb.com,Phone: 452 074 1775,
DMA Research A/S,Europe,Denmark,Sct. Clemens Torv 15 8000 Århus C Denmark        ,request@dma-research.com,Phone: 458 732 7777,Fax: 458 732 7788
Millward Brown Denmark,Europe,Denmark,Raadhuspladsen 45-47 1550 Copenhagen V. Denmark        ,mbdk@millwardbrown.dk,Phone: 453 377 1040,Fax: 453 377 1050
Aalund A/S,Europe,Denmark,Frederiksgade 73 8000 Aarhus Denmark        ,bc@aalund.com,Phone: 458 731 0909,Fax: 458 731 0900
Lindberg International A/S,Europe,Denmark,Søren Frichs Vej 40B 8230 Åbyhøj Denmark        ,ml@lindberg-international.com,Phone: 457 020 0085,Fax: 457 020 0095
AIM Create,Europe,Denmark,Strandvejen 100 2900 Hellerup Denmark       ,jesper.mortensen@aimcreate.dk,Phone: 457 240 7010,
Millward Brown RI,Europe,Greece,23 Sinopis St. &amp; 139 Michalakopoulou St. 115 27 Athens Greece        ,greece@millwardbrown.com,Phone: +30-210-772.8500,Fax: +30-210-748.8671
Focus Bari S.A. Marketing Research Services,Europe,Greece,59 Vas. Sofias Avenue 115 21 Athens Greece        ,focus@focus.gr,Phone: +30-210-723.8122,Fax: +30-210-723.8085
Braincandy Ltd.,Europe,Greece,23 Rigillis st. 10674 Athens Greece        ,athens@braincandy.gr,Phone: 00302107243001,Fax: 00302107243002
DataPower S.A.,Europe,Greece,15 Feron str. 104 34 Athens Greece        ,datpower@otenet.gr,Phone: +30-210-825.6825,Fax: +30-210-821.7530
Medi-Mark Ltd.,Europe,Greece,"64, L. Riankour Str. Apollo Tower 18 B3 115 23 Athens Greece        ",medimark@hol.gr,Phone: +30-210-699.0124,Fax: +30-210-699.0125
Zampple Hellas,Europe,Greece,5 Nav. Nikodimou st. Syntagma 10558 Athens Attica Greece        ,contact@zampple.com,Phone: 00302103319960,Fax: 00302103210048
MRB Hellas S.A.,Europe,Greece,74 Panormou Str. 115 23 Athens Greece        ,info@mrb.gr,Phone: +30-210-697.1000,Fax: +30-210-698.5813
The Hellenic Research House,Europe,Greece,"42-44, Antinoros Str 16121 Athens Greece        ",hrh@otenet.gr,Phone: +30-210-745.5900,Fax: +30-210-748.8713
Abacus Research,Europe,Greece,FEIDIPPIDOY 2 115  26 ATHENS Greece        ,abacusgr@otenet.gr,Phone: +30-210-777.0023,Fax: +30-210-777.6560
Metron Analysis S.A.,Europe,Greece,6 Sinopis Str. Abelokipi 115 27 Athens Greece        ,metron@metronanalysis.gr,Phone: +30-210-745.1800,Fax: +30-210-745.1888
Explorer Worldwide Research,Europe,Greece,Zan  Moreas 5- Halandri 152 32 Athens Greece        ,info@explorer-research.gr,Phone: +30-210-685.7080,Fax: +30-210-685.8020
STOHOS,Europe,Greece,7 Anastasiou St. 115 24 Athens Greece        ,info@stohosresearch.co,Phone: +30210698.2300,Fax: +30210698.2503
qed Ltd.,Europe,Greece,5 Sevastoupoleos street 115 26 Athens Greece        ,qed@otenet.gr,Phone: +30-210-748.4602,Fax: +30-210-748.4604
Rass Consultancy SA,Europe,Greece,10 Akti Posseidonos Street 185 31 Piraeus Greece        ,contact@rass.gr,Phone: +30-210-419.7100,Fax: +30-210-419.7200
PRORATA S.A.,Europe,Greece,Palaiologou Benizelou 7 10556 Athnes Greece        ,prorata@prorata.gr,Phone: +30 2111031900,Fax: +30 210 3211236
IPSOS-OPINION S.A.,Europe,Greece,"IPSOS-OPINION S.A. 8, Kolokotroni street 105 61 Athens Attica Greece       ",nfo@ipsosopinion.com,Phone: +30-210-323.4344,
Global Link,Europe,Greece,"5, Konitsis Street 151 25 Maroussi Athens Greece        ",globallink@globallink.gr,Phone: +30-210-612.8800,Fax: +30-210-612.8810
MINDVIEW,Europe,Greece,"10, Markou Botsari str. 14561 Kifisia Attiki Greece        ",info@mind-view.gr,Phone: +302106231305,Fax: 210 801 4247
the research hive,Europe,Greece,80 Sevastoupoleos st. Athens Greece        ,info@theresearchhive.gr,Phone: 210 699 0388,Fax: 210 691 4016
TAYLOR NELSON SOFRES MARKET RESEARCH A.E.,Europe,Greece,23 Sinopis Street &amp; 139 Michalakopoulou Street 115 27 Athens Greece        ,tnsgreece@tnsglobal.com,Phone: +30-210-7260.600,Fax: +30-210-7488.671
Data Centrum,Europe,Albania,"Str. Nasi Pavllo, Building ‘Dola', No.5 1000 Tirana Albania       ",info@datacentrum.al,Phone: +355 4 220 11 00,
IDRA Research &amp; Consulting,Europe,Albania,"Siri Kodra Str.  Pall. Abissnet, 11/1 1730 Tirana Tirana Albania        ",auron.pasha@idra.al,Phone: +355-4-2274767,Fax: +355-4-2235519
IFES - Institute for Empirical Social Research,Europe,Austria,Teinfaltstrasse 8 1010 Vienna Austria        ,ifes@ifes.at,Phone: +43-1-54670,Fax: +43-1-5467.0312
Context-Research e.U.,Europe,Austria,Guglgasse 12 / 395 Vienna Austria       ,office@context-research.at,Phone: +43-660-4281506,
2-morrow marketing,Europe,Austria,Handelskai 94-96/10/4 1200 Vienna Austria        ,almhofer@2-morrow.com,Phone: 431 207 2504,Fax: 431 207 2554
TNS INFO Research Austria,Europe,Austria,Kaiserstrasse 55 1070 Vienna Austria        ,office@tns-austria.com,Phone: 431 526 5584,Fax: +43-1-5265.58442
EPINION - Austria - Research &amp; Insights,Europe,Austria,Hainburgerstraße 20/7 1030 Vienna Austria       ,contact@epinionglobal.com,Phone: +43 (0)699 13180416,
OGM,Europe,Austria,Bösendorferstraße 2 1010 Vienna Austria        ,marketing@ogm.at,Phone: +43-1-506.500,Fax: 431 506 5026
Integral Markt- und Meinungsforschung Ges.m.b.H.,Europe,Austria,Mohsgasse 1 1030 Vienna Austria        ,office@integral.co.at,Phone: 431 799 1994,Fax: +43-1-7991.99418
IMAS International GmbH,Europe,Austria,Gruberstr. 2-6 4020 Linz Austria        ,office@imas.at,Phone: +43-732-772.2550,Fax: +43-732-772.2555
Hoffmann &amp; Forcher Marketing Research,Europe,Austria,Krummbaumgasse 1 1020 Vienna Austria        ,hoffmann.forcher@hf.co.at,Phone: +43-1-5854.5350,Fax: +43-1-5854.53544
Spectra Marktforschungsges.m.b.H.,Europe,Austria,Brucknerstrasse 3-5 4020 Linz Upper Austria Austria        ,office@spectra.at,Phone: 437 326 9010,Fax: 437 326 9014
GfK in Austria,Europe,Austria,Ungargasse 37 1030 Vienna Austria        ,at@gfk.com,Phone: +43-1-717.100,Fax: +43-1-7171.0194
marketmind GmbH,Europe,Austria,Porzellangasse 32 1090 Vienna Austria        ,marketmind@marketmind.at,Phone: +43-1-3694.6260,Fax: +43-1-3694.62633
Market-Marktforschungs GmbH &amp; Co KG,Europe,Austria,Klausenbachstrasse 67 4040 Linz Austria        ,research@market.at,Phone: 437 322 5550,Fax: +43-732-255.522
"Das Österreichische Gallup Institut, Dr. Karmasin GmbH",Europe,Austria,Anastasius Grün-Gasse 32 1180 Vienna Austria        ,office@gallup.at,Phone: +43-1-4704.7240,Fax: +43-1-4704.72449
MASMI - BY,Europe,Belarus,"Partizanskij prospect 6a, 1007-1017 220033 Minsk Belarus        ",masmi-by@masmi.com,Phone: +375 17 298-33-34,Fax: +375 17 298-33-33
Mareco Index Bosnia,Europe,Bosnia-Herzegovina,Muhameda Ef. Pandze 4 71000 Sarajevo Bosnia-Herzegovina        ,info@tns-mib.ba,Phone: +387-33-273.970,Fax: +387-33-273.971
Valicon,Europe,Bosnia-Herzegovina,Branilaca Sarajeva 20/IV 71000 Sarajevo Bosnia-Herzegovina        ,info@valicon.net,Phone: +387-33-258.655,Fax: +387-33-258.656
Client-X,Europe,Bulgaria,"25, prof.d-r Petar Dertliev str. 1324 Sofia Sofia Bulgaria       ",office@client-x.com,Phone: +359 2 8 100 177,
LOGO Market Research &amp; Consulting Ltd.,Europe,Bulgaria,"36 Dragan Tzankov Blvd. WTC Interpred, office A-801 1040 Sofia Bulgaria       ",info@logo-mrc.com,Phone: +359 2 815 4910,
MAP Marketing Research Ltd.,Europe,Bulgaria,"JK Mladost 4, Block 426A, Entr.B., Floor 1 1750 Sofia Bulgaria        ",info@map-mr.com,Phone: +359-2-422.5041,Fax: +359-2-969.6095
Market LINKS,Europe,Bulgaria,"5, Angel Kanchev Str. 1000 Sofia Bulgaria        ",office@mmlinks.net,Phone: +359-2-980.5553,Fax: +359-2-980.0400
TNS BBSS Plc.,Europe,Bulgaria,"23, James Boucher Boulevard 1164 Sofia Bulgaria Bulgaria        ",office@tns-bbss.com,Phone: +359 2 4224 800,Fax: +359 2 4224 988
Market Test (r) Ltd.,Europe,Bulgaria,6 Septemvri St. No 4 1000 Sofia Bulgaria        ,office@mtest.bg,Phone: +359-2-988.2779,Fax: +359-2-981.5327
Estat Ltd.,Europe,Bulgaria,"9 St.St. Sedmochislenitsi str, fl.6, apt.29 1421 Sofia Bulgaria        ",office@estatbg.com,Phone: +359-2-950.5515,Fax: +359-2-950.5515
Alpha Research Ltd,Europe,Bulgaria,"54 Iskar Street, Floor 2 1000 Sofia Bulgaria        ",headoffice@aresearch.org,Phone: +359-2-983.6067,Fax: +359-2-986.9075
Global Metrics Ltd.,Europe,Bulgaria,42 Alabin Street 1000 Sofia Bulgaria       ,office@globalmetrics.eu,Phone: +359894357643,
MASMI Adriatica D.O.O.,Europe,Croatia,Amruseva street 5 10000 Zagreb Croatia        ,masmi-adriatica@masmi.com,Phone: +385-1.481.2644,Fax: +385-1.4851.402
VALICON Zagreb,Europe,Croatia,Baruna Trenka 16 10000 Zagreb Croatia        ,kristina.crep@valicon.net,Phone: +385 1 640 99 55,Fax: +385 1 640 99 56
Hendal Research,Europe,Croatia,J. Zerjaviceva 13 10000 Zagreb Croatia        ,info@hendal.hr,Phone: +385-1-487.8180,Fax: +385-1-487.8199
GfK in Croatia,Europe,Croatia,Draskoviceva 54 10000 Zagreb Croatia        ,gfk.hr@gfk.com,Phone: +385 1 4921 222,Fax: +385 1 4921 223
Prizma CPI,Europe,Croatia,Petra Grgeca 9 10000 Zagreb Croatia        ,info@prizmacpi.hr,Phone: +385-1-633.1500,Fax: +385-1-631.4033
IPSOS PULS d.o.o.,Europe,Croatia,Budmanijeva 1 10000 Zagreb Croatia        ,office.croatia@ipsos.com,Phone: +385-1-600.8900,Fax: +385-1-600.8999
RAI Consultants Ltd.,Europe,Cyprus,"Leoforos GIANNOU KRANIDIOTI 213, Latsia 2234 P.O. Box 26727, 1647 Nicosia - Cyprus Latsia Cyprus        ",info@rai.com.cy,Phone: +357-22-368.368,Fax: +357-22-317.797
Pulse Market Research,Europe,Cyprus,"52 Archangelou Michail Str. Office 201, Engomi 2410 Nicosia Cyprus        ",info@pulse.com.cy,Phone: +357-22-447.000,Fax: +357-22-769.841
RetailZoom,Europe,Cyprus,8 Vassiliou Voulgaroktonou Street 1010 Nicosia Cyprus        ,info@retailzoom.net,Phone: +357-22861815,Fax: +357-22861894
NOVERNA Ltd.,Europe,Cyprus,"13, Platonos Street 1011 Nicosia Cyprus        ",harris.papageorgiou@novernaplus.com,Phone: +357-22-769.444,Fax: +357-22-445.776
Cymar Market Research Ltd.,Europe,Cyprus,Digeni Akrita 40 Strovolos 2045 Nicosia Cyprus        ,cymar@cymar.com.cy,Phone: +357-22-468.000,Fax: +357-22-468.008
ConRead Research Bureau Ltd,Europe,Cyprus,"14, Michalakopoulou, Demitas Tower, 3rd Floor, Office 301 1075 Nicosia Cyprus        ",info@conread.com,Phone: +35-722.766.161,Fax: +35-722.766.163
IBRS - International Business and Research Services,Europe,Czech-Republic,Dubecska 8 Kolovratska 6 100 00 Prague 10 Czech Republic        ,ibrs@ibrs.cz,Phone: +420-2-7478.4434,Fax: +420-2-7481.9645
SC&amp;C  s.r.o.,Europe,Czech-Republic,Americká 21 120 00 Prague 2 Czech Republic        ,jrehak@scac.cz,Phone: +420-222-515.844,Fax: +420-222-511.221
Median s.r.o,Europe,Czech-Republic,Národních hrdinu 73 190 12 Prague 9 Czech Republic        ,median@median.cz,Phone: +420-225-301.111,Fax: +420-225-301.101
PSYMA Praha,Europe,Czech-Republic,Pod Zemankou 29 147 00 Prague 4 Czech Republic        ,prague@psyma.com,Phone: +420-2-4409.0211,Fax: +420-2-4409.0212
ppm factum research s.r.o.,Europe,Czech-Republic,Bucharova 1281/2 158 00 Prague 13 Czech Republic        ,info@factum.cz,Phone: +420-233-111.000,Fax: +420-233-111.002
GfK in Czech Republic,Europe,Czech-Republic,Na Hrebenech II 1718/10 14000 Prague Czech Republic        ,cz@gfk.com,Phone: +420-296-555.600,Fax: +420-251-815.800
IPSOS,Europe,Czech-Republic,Na Prikope 22 110 00 Prague 1 Czech Republic        ,office@ipsos-tambor.cz,Phone: +420-226-513.111,Fax: +420-224-931.357
CEE Insight,Europe,Czech-Republic,Ostrovskeho 253/3 150 00 Prague 5 Czech Republic        ,david.ulbrich@cee-insight.eu,Phone: +420-222.367.371,Fax: +420-226.013.271
Data Collect s. r. o.,Europe,Czech-Republic,Geologicka 575/2 152 00 Prague 5 Czech Republic        ,info@datacollect.cz,Phone: +420-225-020.010,Fax: +420-225-020.011
Opinion Window,Europe,Czech-Republic,Jeremenkova 53 U Kublova 1 147 00 Prague 4 Czech Republic        ,info@opw.cz,Phone: +420-2-6121.0533,Fax: +420-2-6122.5307
NMS Market Research,Europe,Czech-Republic,U Nikolajky 13 150 00 Prague 5 Czech Republic       ,info@nms.cz,Phone: +420 222 351 611,
"NORSTAT Baltic (Estonia, Latvia, Lithuania)",Europe,Estonia,Joe 3 10151 Tallinn Tallinn Estonia        ,info@norstat.ee,Phone: 372 680 8955,Fax: 372 680 8956
Kantar Emor,Europe,Estonia,Tammsaare Business Centre A.H. Tammsaare tee 47 11316 Tallinn Estonia        ,emor@emor.ee,Phone: 372 626 8500,Fax: 372 626 8501
Taloustutkimus Oy,Europe,Finland,Lemuntie 9 FI-00510 Helsinki Finland        ,postmaster@taloustutkimus.fi,Phone: +358-10-758.511,Fax: +358-9-7585.1200
Kuulas Helsinki / Business Science Helsinki,Europe,Finland,Bulevardi 14 A 00120 Helsinki Finland       ,contact@kuulas.fi,Phone: +358415282548,
IROResearch Oy,Europe,Finland,Kansakoulukatu 1A 64 Helsinki Finland        ,markku.martikainen@iro.fi,Phone: +358-9-774.0600,Fax: +358-9-7740.6060
Inspirans Ltd.,Europe,Finland,Annankatu 24 00100 Helsinki Finland        ,firstname.lastname@inspirans.fi,Phone: +358-9-684.4340,Fax: +358-9-684.43440
NORSTAT Finland,Europe,Finland,Aleksanterinkatu 48 A 00100 Helsinki Finland       ,info@norstat.fi,Phone: +358 2 529 8080,
M3 Research part of Bilendi,Europe,Finland,Yrjonkatu 34 A 12 00100 Helsinki Finland       ,ja@m3research.com,Phone: +35 8 50 349 7543,
Oy Sailer Research &amp; Development Ltd.,Europe,Finland,Kulmakatu 7 C 63 00170 HELSINKI Finland       ,info@sailer.fi,Phone: +358 44 0700828,
Kantar TNS / TNS Gallup Oy,Europe,Finland,Miestentie 9 C 02150 Espoo Finland        ,tnsfinland@tnsglobal.com,Phone: 358 961 3500,Fax: +358 9 613 50 510
ResearchCenter Ltd. - KutatoCentrum,Europe,Hungary,Árpád Fejedelem útja 79. 1036 Budapest Hungary        ,request@kutatocentrum.hu,Phone: 361 373 0936,Fax: 361 373 0954
Medián Opinion &amp; Market Research Ltd.,Europe,Hungary,Szépvölgyi út 52. 1025 Budapest Hungary        ,median@median.hu,Phone: 361 250 4322,Fax: 361 250 4346
STRAKETING,Europe,Hungary,Ruszti út 1 1022 Budapest Hungary        ,straketing@straketing.hu,Phone: 361 225 1340,Fax: 361 214 7866
IMAS International,Europe,Hungary,IMAS International Lajos U. 78 1036 Budapest Hungary        ,imashun@imas.hu,Phone: 361 315 1506,Fax: 361 315 0905
MASMI Hungary,Europe,Hungary,Váci út 76. 1133 Budapest Hungary       ,masmi-hungary@masmi.com,Phone: 361 470 4070,
GfK in Hungary,Europe,Hungary,"Wesselényi utca 16 A. épület, IV. emelet 1077 Budapest Hungary        ",hu@gfk.com,Phone: 361 452 3050,Fax: 361 320 1776
MMR - Market and Media Research Ltd,Europe,Iceland,Ármúla 32 108 Reykjavík Iceland        ,olafur@mmr.is,Phone: 354 578 5600,Fax: 354 578 5619
Gallup Iceland,Europe,Iceland,Álfheimar 74 104 Reykjavík Iceland        ,einar.einarsson@capacent.is,Phone: 354 540 1000,Fax: 354 540 1099
Behaviour &amp; Attitudes Limited,Europe,Ireland,Milltown House Milltown Road Dublin 6 Ireland        ,info@banda.ie,Phone: +353-1-205.7500,Fax: +353-1-205.7522
iReach Insights,Europe,Ireland,"Temple Hall, Temple Road Blackrock Co. Dublin Leinster Ireland        ",oisin.byrne@ireach.ie,Phone: +353 012143740,Fax: +353 012108562
RED C Research &amp; Marketing Ltd,Europe,Ireland,7 The Seapoint Building Clontarf Road 3 Dublin Ireland        ,info@redcresearch.ie,Phone: +353-1-818.6316,Fax: +353-1-818.6328
Ipsos MRBI,Europe,Ireland,"Block 3, Blackrock Business Park, Carysfort Avenue, Blackrock Co. Dublin Ireland        ",mrbi@ipsos.com,Phone: +353-1-4389000,Fax: +353-1-278.1022
TNS Latvia,Europe,Latvia,Kronvalda bulv. 3-2 LV -1010 Riga Latvia        ,tns@tns.lv,Phone: +371-6709.6300,Fax: +371-6709.6314
FACTUM,Europe,Latvia,Terbatas Str. 53-6 LV-1011 Riga Latvia        ,info@factum.lv,Phone: +371-6721.7554,Fax: +371-6721.7560
Latvian Facts,Europe,Latvia,Bruninieku 8a - 5 1010 Riga Latvia        ,latfacts@latfacts.lv,Phone: 371 731 4002,Fax: 371 727 4936
Market Research Center RTC,Europe,Lithuania,Sporto g. 11 Vilnius Lithuania       ,mindaugas@rtcentras.lt,Phone: +37061006640,
Nielsen,Europe,Lithuania,A. Juozapaviciaus Street 6/2 09310 Vilnius Lithuania        ,esomar@nielsen.com,Phone: +370-5-273.4145,Fax: +370-5-273.4146
"RAIT Group (Estonia, Latvia, Lithuania)",Europe,Lithuania,"Laisves av. 60, 14 fl. Vilnius Lithuania        ",info@raitgroup.com,Phone: +370-5-269.1247,Fax: +370-5-269.1248
Baltic Surveys,Europe,Lithuania,Smolensko str. 10A LT03201 Vilnius Lithuania        ,info@baltic-surveys.lt,Phone: +370-5-212.0104,Fax: +370-5-212.7145
SIC Social Information Centre,Europe,Lithuania,UpÄs 21 08128 Vilnius Lithuania        ,info@sic.lt,Phone: +37052054525,Fax: +37052054501
MKS International Market Research &amp; Consultancy SARL,Europe,Luxembourg,"13, Rue des Caves L-5404 Bech-Kleinmacher Luxembourg        ",International@MKS-Research.com,Phone: +352-267.071,Fax: +352-2670.7130
TNS ILReS,Europe,Luxembourg,"46, Rue du Cimetière 1338 Luxembourg Luxembourg        ",research@tns-ilres.com,Phone: +352-49929-1,Fax: +352-49929-5555
IPSOS Macedonia,Europe,Macedonia,IPSOS dooel Skopje Kairska 31 1000 Skopje Macedonia        ,gjorgji.mitrevski@ipsos.com,Phone: +389-2-309.2720,Fax: +389-2-309.2721
Market Vision,Europe,Macedonia,Kozle br. 8 1000 Skopje Macedonia        ,pgeorgievski@mvision.com.mk,Phone: +38-923296062,Fax: +38-923296063
MISCO International Ltd.,Europe,Malta,"1st Floor, Fino Buildings Notabile Road BKR3000 Mriehel BKR Malta        ",info@miscomalta.com,Phone: +356-212-20303,Fax: +356-212-47512
Bloom Research,Europe,Malta,91-92 Level 3 Psaila Street BKR 9073 Birkirkara Malta       ,info@bloomresearch.com,Phone: +356-20905100,
Marketing Advisory Services,Europe,Malta,"217/1, 21st September Avenue NXR1013 Naxxar Malta        ",info@marketingadvisoryservices.com,Phone: +35627013002,Fax: +35627013005
Norfakta Markedsanalyse AS,Europe,Norway,Kjøpmannsgata 5 7013 Trondheim Norway        ,norfakta@norfakta.no,Phone: 477 384 5500,Fax: 477 384 5501
Faktum Markedsanalyse A/S,Europe,Norway,PB 210 Nordlivn. 5 A 1419 Oppegard Norway        ,post@faktumanalyse.no,Phone: 476 699 2958,Fax: 476 699 1418
Prognosesentert AS,Europe,Norway,Sjølyst plass 4 0278 Oslo Norway       ,ps@prognosesenteret.no,Phone: 472 411 5880,
NORSTAT Norway,Europe,Norway,Fridtjof Nansens Plass 2 0160 Oslo Norway        ,info@norstat.no,Phone: 472 130 0300,Fax: 472 130 0333
Ipsos MMI,Europe,Norway,Christian Krohgsggt 1 PB 9143 Gronland 0133 Oslo Norway        ,firmapost.norge@ipsos.com,Phone: 472 295 4700,Fax: 472 295 4701
EPINION - Norway - Research &amp; Insights,Europe,Norway,Biskop Gunnerus Gate 2 0155 Oslo Norway       ,contact@epinionglobal.com,Phone: 479 711 7350,
MOODS QUALITATIVE RESEARCH AS,Europe,Norway,Universitetsgata 14 0164 Oslo Oslo Norway       ,post@moodsresearch.no,Phone: 479 069 2216,
Respons Analyse,Europe,Norway,Postboks 1911 Nordnes 5817 Bergen Norway        ,post@responsanalyse.no,Phone: 475 560 7000,Fax: 475 560 7001
Opinion AS,Europe,Norway,Vulkan 16 0178 Oslo Norway        ,post@opinion.no,Phone: 472 130 0400,Fax: 472 130 0444
EMBS Group,Europe,Poland,Al. Sosnowa 2A 30-224 Krakow Poland        ,info@embs-group.com,Phone: 0048 12 376 8740,Fax: +481-23768750
Market Research Centre INDICATOR,Europe,Poland,ul. ?wi?tojerska 5/7 00-236 Warsaw Poland        ,indicator@indicator.pl,Phone: +48-22-595.1.595,Fax: +48-22-595.1.596
SODA,Europe,Poland,al. Jerozolimskie 85/21 02-001 Warszawa Poland       ,info@soda-imr.com,Phone: +48-22-389-65-15,
MASMI Poland,Europe,Poland,"Oxford Tower 26th Floor, Office 60 Chalubinskiego 8 00-613 Warsaw Poland        ",masmi-poland@masmi.com,Phone: +48-22-292.82.97,Fax: +48-22-292.82.97
NORSTAT Poland,Europe,Poland,Polna 3A/27 00-622 Warszawa Poland        ,info@norstat.pl,Phone: +48-22-244.13 45,Fax: +48-22-244.13.47
Inquiry Market Research,Europe,Poland,Hajoty 61 01-821 Warsaw Poland        ,info@inquiry.com.pl,Phone: +48 22 832 51 50,Fax: +48-22-561.9251
GfK in Poland,Europe,Poland,2 Ludna Street 00-406 Warsaw Poland        ,pl@gfk.com,Phone: +48-22-434.1000,Fax: +48-22-434.1010
BCMM - market research Ltd,Europe,Poland,23 Kosciuszki Street 40-048 Katowice Poland        ,bcmm@bcmm.com.pl,Phone: +48-322.515.300,Fax: +48-322.571.797
IMAS International,Europe,Poland,al. Armii Krajowej 50-541 Wroclaw Poland        ,imas@imas.pl,Phone: +48-71-7710800,Fax: +48-717710801
IPSOS Sp. z o.o.,Europe,Poland,Domaniewska 34 a Ambassador Building 02-672 Warsaw Poland       ,info.poland@ipsos.com,Phone: +48 22 448 77 00,
ASM Market Research and Analysis Centre ltd.,Europe,Poland,5 Grunwaldzka street 99-300 Kutno Poland        ,agnieszka.kowalska@asm-poland.com.pl,Phone: +48243557754,Fax: +48243557700
ABR SESTA Sp. z o.o.,Europe,Poland,Łucka 7/9 00-842 Warsaw Poland        ,office@abrsesta.com,Phone: +48-22-3226500,Fax: +48-22-3226501
IQS Sp.zo.o,Europe,Poland,37 Francuska Street - 03-905 Warsaw - Poland        ,kontakt@grupaiqs.pl,Phone: +48225926300,Fax: +48228254870
ARC Rynek i Opinia Sp. z o. o.,Europe,Poland,ul. Slowackiego 12 01-627 Warsaw Poland        ,office@arc.com.pl,Phone: +48-22-584.8500,Fax: +48-22-584.5801
Stratega Poland,Europe,Poland,Equator II Business Centre Al. Jerozolimskie 96 00-807 Warsaw Poland       ,izabela.remba@stratega.pl,Phone: +48 22 275 56 49,
PBS Sp. z o.o.,Europe,Poland,Ul. Junaków 2 81-812 Sopot Poland        ,kontakt@pbs.pl,Phone: +48-58-550.6070,Fax: +48-58-550.6670
OksiJen Sp. z o.o.,Europe,Poland,UL. ZWIERZYNIECKA 10 M.19 31102 KRAKÓW Poland        ,oksana.pleskova@oksijen.eu,Phone: +380 50 504 63 97,Fax: +380 44 234 24 06
4P research mix Ltd,Europe,Poland,Pulawska 12A/5 02-566 Warsaw Poland        ,mail@4prm.com,Phone: +48 22 565 27 50,Fax: +48 22 565 27 60
ALMARES Ltd.,Europe,Poland,ul. Swietokrzyska 31/33a 00-049 Warsaw Poland        ,almares@almares.com.pl,Phone: +48-22-621.8218,Fax: +48-22-621.8819
CEM Market and Public Opinion Research Institute,Europe,Poland,ul. Syrokomli 10 30-102 Kraków Poland        ,cem@cem.pl,Phone: +48-12-637.5438,Fax: +48-12-638.6913
BlueOpinion,Europe,Portugal,"R. Passeio Alegre, 20 4150-570 Porto Porto Portugal       ",info@blueopinion.pt,Phone: +351 913927757,
Qmetrics SA,Europe,Portugal,Tr. da Trindade No 16- 2° D 1200-468 Lisbon Portugal        ,mail@qmetrics.pt,Phone: +351-21-322.0420,Fax: +351-21-322.0429
Netsonda,Europe,Portugal,Edifício Alto da Barra Av. das Descobertas 59F 4º Piso 2780-053 Oeiras Portugal        ,geral@netsonda.pt,Phone: +351214460392,Fax: +351214460394
"DATA E – Marketing Research, Business Consulting &amp; IT",Europe,Portugal,"Av. da Liberdade, 244-6º 1250-149 Lisbon Portugal        ",datae@datae.pt,Phone: +351-21-355.3280,Fax: +351-21-356.0951
Consulmark,Europe,Portugal,Av. Miguel Bombarda 1 - 5. Dto. 1000-207 Lisbon Portugal        ,main@consulmark2.pt,Phone: +351-21-384.9010,Fax: +351-21-384.9039
GfK in Portugal,Europe,Portugal,"R.Carlos Testa, 1-1° B 1050-046 Lisbon Portugal        ",gfk.portugal@gfk.com,Phone: +351 210 000 200,Fax: +351 210 000 290
Ipsos Apeme,Europe,Portugal,Av. Duque D'Avila 26 3º 1000-141 Lisbon Portugal        ,apeme@apeme.pt,Phone: +351-21-358.3480,Fax: +351-21-358.3528/9
Intercampus,Europe,Portugal,"Av. Antonio Augusto de Aguiar, 106-5º/6º 1050-019 Lisbon Portugal        ",master@intercampus.pt,Phone: +351-21-313.2700,Fax: +351-21-353.0676
Green Apple Research S.R.L.,Europe,Romania,"75-77 Buzesti, 9th floor, sector 1 011013 Bucharest Bucharest Romania       ",rfq@datadiggers-mr.com,Phone: +40-215897346,
MEDNET Marketing Research Center,Europe,Romania,"98 Turda St., Bldg. 29A, Section II, 8th floor, Ap. 24-25, 1st District 011333 Bucharest Romania        ",office@romednet.com,Phone: +40-21-224.0677,Fax: +40-21-224.0675
Field Insights CEE,Europe,Romania,"250 Basarabia Blvd., Titan Industrial Group Administrative Building, 2nd Floor Bucharest 3 Bucharest Romania        ",laurentiu_belu@fieldinsights.ro,Phone: +40-21-204.7600,Fax: +40-21-204.7604
MIA Marketing Institute Ltd,Europe,Romania,9 Arch. Stefan Burcus Sector 1 Bucharest Romania        ,office@romia.ro,Phone: +40 311078518,Fax: +40 311078518
Institutul Roman pentru Evaluare si Strategie - IRES,Europe,Romania,Calea Turzii 150 400495 Cluj-Napoca Cluj Romania        ,office@ires.com.ro,Phone: +40-364-710-701,Fax: +40-264-438-638
Novel Research,Europe,Romania,"118, Calea Victoriei Str, Etaj 6 Sector 1 010093 Bucharest Romania        ",office@novelresearch.ro,Phone: +40372135800,Fax: +40318163056
ORUS Marketing Srl,Europe,Romania,"Rosenthal 26, sector 1 011934 Bucharest Romania       ",info@orusmarketing.com,Phone: +40 (21) 3102860,
Mercury Research SRL,Europe,Romania,"16 Copilului, ground floor Sector 1 012178 Bucharest Romania        ",contact@mercury.ro,Phone: +40-21-224.6600,Fax: +40-21-224.6611
ISRA Center Marketing Research,Europe,Romania,"Vitan Center, 1st and 2nd floors, 23C Calea Vitan 031281 Bucharest Bucharest, sector 3 Romania        ",RFQ@ISRACENTER.COM,Phone: +40 21 326 6578/79,Fax: +40 21 326 6581
Mappers Consult SRL,Europe,Romania,33 Fluierului St. 021432 Bucharest Romania       ,oana.rengle@mappers.ro,Phone: +40-21-252.1863,
360insights,Europe,Romania,"siriului 22-26, sector 1, csda 014353 Bucharest Romania        ",panicos.christopoulos@360insights.eu,Phone: +40-21-527-01-01,Fax: +40-21-527-01-00
Intelligence d.o.o.,Europe,Serbia,Uciteljska 60 11050 Belgrade Serbia        ,info@intelligence.rs,Phone: +381-11-2886-106,Fax: +381-11-2342-771
Ipsos Strategic Marketing,Europe,Serbia,Gavrila Principa 8 11000 Belgrade Serbia        ,office@ipsos.com,Phone: +381-11-328.4075,Fax: +381-11-2626.430
MASMI Belgrade,Europe,Serbia,Balkanska 29/II 11000 Belgrade Serbia        ,masmi-belgrade@masmi.com,Phone: +381-11.339.0846,Fax: +381-11.339.0732
Open Source,Europe,Serbia,Trgovacka 6 11030 Belgrade Serbia        ,office@open-source.rs,Phone: 381-11-3030-000,Fax: 381-11-3030-444
Genuine Market Research,Europe,Serbia,Veljka Dugosevica 54 Naucno Tehnoloski Park Zvezdara 11000 Belgrade Serbia       ,info@genuinemr.com,Phone: +381 60 30 40 286,
Focus - Center for Social and Market Analysis,Europe,Slovakia,Grosslingová 37 810 00 Bratislava Slovakia        ,focus@gtinet.sk,Phone: +421-2-5293.1366,Fax: +421-2-5293.1378
IPSOS,Europe,Slovakia,Heydukova 12 811 08 Bratislava SK Slovakia        ,jakub.maly@ipsos-tambor.sk,Phone: +421-252-932.142,Fax: +421-252-932.143
Focus - Center for Social and Market Analysis,Europe,Slovakia,Grosslingová 37 810 00 Bratislava Slovakia        ,focus@gtinet.sk,Phone: +421-2-5293.1366,Fax: +421-2-5293.1378
ACRC s.r.o.,Europe,Slovakia,Kremnická 14 851 01 Bratislava Slovakia       ,info@acrc.sk,Phone: +421911706906,
KMG International,Europe,Slovakia,Kopcianska 14 PO Box 127 851 01 Bratislava Slovakia        ,info@kmg.sk,Phone: +421-2-6353.1505,Fax: +421-2-6353.1505
Aragon d.o.o. - Research &amp; Planning,Europe,Slovenia,Litostrojska 44c 1000 Ljubljana Slovenia        ,info@aragon.si,Phone: +386-1-547.1701,Fax: +386-1-547.1750
Mediana Institut for market and media research,Europe,Slovenia,Likozarjeva 3 1000 Ljubljana Slovenia        ,janja@mediana.si,Phone: +386-1-234.5150,Fax: +386-1-234.5176
Valicon,Europe,Slovenia,Kopitarjeva 2 1000 Ljubljana Slovenia        ,info@valicon.net,Phone: +386-1-420.4900,Fax: +386-1-420.4960
Ukrainian Marketing Project,Europe,Ukraine,"Suvorova 19a, 1 01010 Kiev Ukraine        ",info@ump.ua,Phone: +380-44-254.2252,Fax: +380-44-288.8298
Ltd. IMData,Europe,Ukraine,"Holosiivska Str.7, Block 1, Office 400 03039 Kyiv Ukraine       ",anna.rudenko@imdata.com.ua,Phone: +38 044 383 94 91,
FACTUM GROUP UKRAINE,Europe,Ukraine,"Shchorsa Str. 32-G, office 3 01133 Kiev Ukraine       ",office@factum-ua.com,Phone: +38-044-569-72-06,
Medical Data Management (MDM),Europe,Ukraine,"3 Surikova str., building 8-B, 5-th floor BC 03035 Kiev Ukraine        ",hq-mdm@mdmworld.com,Phone: +380 44 4960430,Fax: +380 44 4960431
InMind,Europe,Ukraine,"14, Vasylkivska St., office 505 03040 Kiev Ukraine        ",office@inmind.com.ua,Phone: +380-44-220.0042,Fax: +380-44-220.0042
MASMI Ukraine,Europe,Ukraine,"9-a, Lva Tolstogo Str. Entrance 1, 8th Floor 01004 Kiev Ukraine        ",masmi-ukraine@masmi.com,Phone: +380-44-207.0110,Fax: +380-44-207.0117
KIIS [Kiev International Institute of Sociology],Europe,Ukraine,8/5 Voloska St 04070 Kiev Ukraine        ,marketing@kiis.com.ua,Phone: +380-44-537.3376,Fax: +380-44-537.3376
GfK in Ukraine,Europe,Ukraine,"Office 601, 6th floor 34 Lesi Ukrainki Boulevard 01601 Kiev Ukraine        ",info.ukraine@gfk.com,Phone: +380-44-230.0260,Fax: +380-44-230.0262
Quest Mindshare,North America,Canada,238 Lakeshore Road E Oakville Canada        ,info@questmindshare.com,Phone: 1 416 860 0404,Fax: 1 416 860 0404
E.R.M.R. Inc.,North America,Canada,"7905 Cote St-Luc Road, #1407 H4V 2T1 Montreal QC Canada       ",elaine@ermr.net,Phone: 1 514 758 0854,
GfK in Canada,North America,Canada,5700 Explorer Drive Suite 104 L4W0C6 Mississauga Canada       ,ca@gfk.com,Phone: 1 905 277 2669,
GlobeScan Incorporated,North America,Canada,145 Front Street East Suite 102 M5A 1E3 Toronto ON Canada        ,insight@globescan.com,Phone: 1 416 962 0707,Fax: 1 416 920 3510
Environics Research Group Ltd.,North America,Canada,"33 Bloor Street East, Suite 900 M4W 3H1 Toronto ON Canada        ",research@environics.ca,Phone: 1 416 920 9010,Fax: 1 416 920 3299
ACCE Intl,North America,Canada,2575 Dunwin Drive L5L 3N9 Mississauga Ontario Canada        ,info@acceintl.com,Phone: 905 828 0493,Fax: 905 828 0499
Research Strategy Group Inc,North America,Canada,111 Queen Street East Suite 110 M5C 1S1 Toronto ON Canada        ,jimpeterson@rsginc.net,Phone: 1 416 928 1575,Fax: 1 416 928 1580
Decision Point Research Inc.,North America,Canada,5801 Yonge St Suite 1 Toronto Canada        ,info@decisionpointresearch.ca,Phone: 416 309 0454,Fax: 416 309 0031
Research &amp; Incite,North America,Canada,"209, Wicksteed Avenue,  Suite 51 M4G 0B1 Toronto Ontario Canada        ",info@riconsultants.com,Phone: 416 467 7101,Fax: 416 467 7648
Network Research Field Services,North America,Canada,1099 Kingston Road Suite 201 L1V 1B5 Pickering ON Canada        ,elaine@networkfield.com,Phone: 1 905 839 7635,Fax: 1 905 839 6937
Robin Cooper Research Group Inc.,North America,Canada,5694-4 Hwy 7 East #353 L3P 1B4 Markham ON Canada        ,r.cooper@robincooperresearch.com,Phone: 1 416 783 8818 ext 1,Fax: 1 905 201 9120
MBA Recherche,North America,Canada,"1470 Peel Street Suite 800, Tower B H3A 1T1 Montreal Quebec Canada        ",mbourbonnais@mbarecherche.com,Phone: 1 514 284 9644,Fax: 1 514 284 0668
"Leger, The Research Intelligence Group",North America,Canada,507 Place d'Armes Suite 700 H2Y 2W8 Montreal QC Canada        ,jmleger@leger360.com,Phone: 1 514 982 2464,Fax: 1 514 987 1960
"Burke, Inc.",North America,United-States-USA,500 West 7th Street 45203 Cincinnati OH United States (USA)        ,corporate@burke.com,Phone: 1 513 241 5663,Fax: 1 513 684 7500
3 Market Dimensions,North America,United-States-USA,333 So Grand Ave 25th Floor Los Angeles California United States (USA)        ,info@market-dimensions.com,Phone: 1 844 777 8100,Fax: 1 416 480 1500
Consensus Point,North America,United-States-USA,209 10th Ave S #112 37203 nashville Tennessee United States (USA)       ,info@consensuspoint.com,Phone: 1 877 230 8074,
"Garcia Research Associates, Inc.",North America,United-States-USA,1520 S Driftwood Dr 92264 Palm Springs United States (USA)       ,carlosg@garciaresearch.com,Phone: ,
SSI,North America,United-States-USA,6 Research Drive 06484 Shelton CT United States (USA)        ,info@surveysampling.com,Phone: 1 203 567 7200,Fax: 1 203 567 7367
MOODY’S ANALYTICS KNOWLEDGE SERVICES SOLUTIONS (US) INC.,North America,United-States-USA,"7 World Trade Center 250 Greenwich Street, 14th Floor 10007 New York New York United States (USA)        ",contact_maks@moodys.com,Phone: 091 124 4599 000,Fax: 091 124 4202 062
CoolTool Inc,North America,United-States-USA,1750 Montgomery St. FL1 94111 San Francisco California United States (USA)       ,hello@cooltool.com,Phone: 1 415 835 9433,
Bare Associates International,North America,United-States-USA,3702 Pender Dr #305 22030 Fairfax Virginia United States (USA)        ,barecorporate@bareinternational.com,Phone: 1 800 296 6699,Fax: 1 866 734 9309
Kadence International ( USA),North America,United-States-USA,1 Research Drive Suite 302 01581 Westborough MA United States (USA)        ,ojenkins@kadence.com,Phone: 508 620 3946,Fax: 1 508 620 1223
C &amp; C Market Research,North America,United-States-USA,1200 S. Waldron rd suite 138 72903 Fort Smith Arkansas United States (USA)        ,craig@ccmarketresearch.com,Phone: 1 479 785 5637,Fax: 1 479 785 5645
Quick Test/Heakin Research,North America,United-States-USA,"1061 East Indiantown Road, Suite 300 33477 Jupiter Florida United States (USA)        ",info@quicktest.com,Phone: 1 561 748 0931,Fax: 1 561 748 0931
"Russell Marketing Research, Inc.",North America,United-States-USA,One Meadowlands Plaza Suite 1001 07073 East Rutherford New Jersey United States (USA)        ,john.debiasio@russellresearch.com,Phone: 1 201 528 0303,Fax: 1 201 528 0210
Ipsos,North America,United-States-USA,1271 Avenue of the Americas 15th Floor 10020 New York NY United States (USA)        ,info@ipsos-na.com,Phone: 1 212 265 3200,Fax: 1 212 265 3790
Critical Mix,North America,United-States-USA,53 Riverside Ave 06880 Westport CT United States (USA)       ,simplify@criticalmix.com,Phone: 1 203 635 0260,
YouGov America,North America,United-States-USA,805 Veterans Blvd Suite 202 94063 Redwood City California United States (USA)        ,help.us@yougov.com,Phone: 1 650 462 8000,Fax: 1 650 462 8422
InSites Marketing Consulting Inc.,North America,United-States-USA,"30 East 39th Street, 3rd floor 10016 New York New York United States (USA)       ",info@insites-consulting.com,Phone: 1 646 386 9851,
"Primer Research, Inc.",North America,United-States-USA,11700 W Charleston Blvd #170-259 89135 Las Vegas NV United States (USA)        ,info@v-primer.com,Phone: 1 805 980 4791,Fax: 1 805 980 3410
ase,North America,United-States-USA,15 West Montauk Highway NY 11946 Hampton Bays New York United States (USA)       ,mailbox@aseresearch.com,Phone: 1 631 594 3999,
Vital Findings,North America,United-States-USA,10557 Jefferson Blvd. Suite E 90232 Culver City California United States (USA)        ,info@vitalfindings.com,Phone: 310 279 5510,Fax: 310 279 5519
Cross-Tab Marketing Services Pvt. Ltd.,North America,United-States-USA,"2509 152nd Avenue NE, Building 16, Suite Mezzanine E 98052 Redmond Washington United States (USA)       ",stephan.mayer@cross-tab.com,Phone: 1 866 614 7954,
ACSOR Surveys,Asia Pacific,Afghanistan,"House 217, Street #2, Qalaye Fatullah Fatullah Kabul Afghanistan        ",matthew.warshaw@acsor-surveys.com,Phone: +93-75-202.3432,Fax: +93-75-202.3432
Afghan Management and Marketing Consultants (AMMC),Asia Pacific,Afghanistan,"Near Shura Street, Karte 3 Kabul Afghanistan        ",alokozay@ammc.com.af,Phone: +93796591654,Fax: +93-210-7580-8120
McNair Ingenuity Research Pty Ltd,Asia Pacific,Australia,270 Pacific Highway Crows Nest 2065 Sydney NSW Australia        ,solutions@mcnairingenuity.com,Phone: +61-2-9966.9133,Fax: +61-2-9966.9277
Susan Bell Research,Asia Pacific,Australia,PO Box 173 Frenchs Forest 2086 Sydney NSW Australia       ,suebell@sbresearch.com.au,Phone: +61294511234,
"ekas marketing research services, Interviewing Australia",Asia Pacific,Australia,116 Alexander St Crows Nest 2065 Sydney NSW Australia        ,ross@ekas.com.au,Phone: +61-2-9976.7400,Fax: +61-2-9976.2374
TEG Rewards,Asia Pacific,Australia,"Level 14, 175 Liverpool St 2000 Sydney NSW Australia       ",info@TEGrewards.com,Phone: +61 2 9266 4022,
KBX Research,Asia Pacific,Australia,Suite 2 38 Hipwood Street 2060 North Sydney NSW Australia       ,enquiries@KBXResearch.com.au,Phone: ++ 61 29929 0122,
AMR,Asia Pacific,Australia,72 Christie St Ultimo 2065 St Leonards NSW Australia        ,gary.wilkinson@amrinteractive.com,Phone: +61-2-9020.6700,Fax: +61-2-9020.6789
Market Attitude Research Services Pty. Ltd.,Asia Pacific,Australia,"Unit 1,  237-239 Burraneer Bay Road 2229 Caringbah, Sydney NSW Australia        ",research.mars@ozemail.com.au,Phone: +61-2-9525.3200,Fax: +61-2-9525.3656
Market Research Asia Directory &amp; Health Care Panel Asia,Asia Pacific,Australia,"Suite 5, 140 Jonson St 2481 Byron Bay NSW Australia        ",info@marketresearchasia.com.au,Phone: +61-2-66807651,Fax: +61-2-66807682
i-Link Research Solutions,Asia Pacific,Australia,267-277 Castlereagh Street 2000 Sydney NSW Australia        ,john@i-linkresearch.com,Phone: +61 2 9262 7171,Fax: +61-292627178
Quantum Market Research,Asia Pacific,Australia,Level 3 650 Chapel Street 3141 South Yarra VIC Australia        ,research@qmr.com.au,Phone: +61-3-9289.9599,Fax: +61-3-9289.9595
GfK in Australia,Asia Pacific,Australia,"L7, 107 Mount Street 2060 North Sydney NSW Australia        ",au@gfk.com,Phone: +61 2 9900 2888,Fax: +61-2-9460.6293
The Minter Group,Asia Pacific,Australia,"Suite 26D, Waratah Court 12-14 Waratah Street 2103 Mona Vale via Sydney NSW Australia        ",gminter@minter.com.au,Phone: +61-2-9979.5277,Fax: +61-2-9979.6658
Market Focus International,Asia Pacific,Australia,Level 4 270 Pacific Highway 2065 Crows Nest NSW Australia        ,enquiries@marketfocus.com.au,Phone: +61-2-9966.9107,Fax: +61-2-8915.1580
National Field Services (NFS),Asia Pacific,Australia,"Level 12, 310 St Kilda Rd Melbourne 3004 Melbourne Victoria Australia        ",nfs@nfs.com.au,Phone: +613-9211.5146,Fax: +613-9534.4373
The Market Intelligence Co.,Asia Pacific,Australia,"Level 1, 4A Lord Street 2019 Botany NSW Australia        ",ao@market-intelligence.com.au,Phone: +61 2 8336 8000,Fax: +61 2 9316 5810
QAFQAZ Research company,Asia Pacific,Azerbaijan,Inshaatchilar ave.33 a office 1 AZ1065 Baku Azerbaijan        ,maho@azeurotel.com,Phone: +994-12-5105491,Fax: +99412 5105491
ORG-Quest Research Ltd (OrQuest),Asia Pacific,Bangladesh,"ORG-Quest Research Ltd (OrQuest) DH Tower, Level - 7 (S-1), 6 Panthapath 1215 Dhaka Bangladesh        ",mhaque@global-bd.net,Phone: +880-2-550.13481,Fax: +880-2-913.6162
SRG Bangladesh Limited,Asia Pacific,Bangladesh,"House 12, Road 2A (Chairmanbari) Banani 1213 Dhaka Bangladesh        ",mshaq@srgb.org,Phone: +880-2-55040915 to 20,Fax: +880-2-55040923
MRB Bangladesh,Asia Pacific,Bangladesh,"South Breeze Center, 10th &amp; 8th Floor Building no. 05, Road no. 11. Block – G 1213 Dhaka Banani Bangladesh       ",info@mrbglobalbd.com,Phone: +880-2-9870046,
ABN Impact (Asia – China),Asia Pacific,China,"Room 504, Office Building 5 Tianzifang, Lane 210, Taikang Road 200025 Shanghai China       ",info@abnimpact.com,Phone: +86 139 0180 4152,
"UniqueView Asia Co., Ltd",Asia Pacific,China,"Floor 18, No. 118 Qinghai Road Huangpu District, Shanghai 200041 Shanghai Shanghai China       ",info@uniqueview.com,Phone: +86-21-3376-5639,
"Anova Research &amp; Marketing Consultants Shanghai Co., Ltd.",Asia Pacific,China,Room 201 2nd Floor No. 1415 Kaixuan Road #02-01 200052 Shanghai Shanghai China        ,china@anovaresearch.com,Phone: +86 21 5258 6312,Fax: +86 21 5258 6221
"Hycon Research Co., Ltd.",Asia Pacific,China,"No. 8, Lane 815 Shaanxi Road North Jing'an District 200040 Shanghai China        ",contact@hyconresearch.com,Phone: 0086 21 51080566,Fax: 0086 21 51080568
Shanghai Justice Marketing Consulting Inc.,Asia Pacific,China,"Loft B1 Daning Central Square, No.700 Wanrong Road 200072 Shanghai Shanghai China        ",mcr@chinamcr.com,Phone: +8621-52987060,Fax: +8621-52987063
"Psyma Business Research China Co., Ltd.",Asia Pacific,China,"Suite 1901-1902, Yufeng International Building, 777 West Yan'an Road 200050 Shanghai China        ",lisa.zeng@psyma-china.com,Phone: +86-21-51.87.1198,Fax: +86-21-31.35.0133
"Facts &amp; Factors Marketing Research Co., Ltd.",Asia Pacific,China,"12C, Yu Jia Building No. 1336, Hua Shan Road 200052 Shanghai China        ",ffmr@facts-factors.com,Phone: +86-21-6213.7218,Fax: +86-21-6213.7015
Seemax Asia Marketing Research &amp; Consulting Limited,Asia Pacific,China,"Room 2401, Huiyin Plaza, No.2018 Huashan Road, Shanghai China Shanghai China       ",vinson@seemaxresearch.com,Phone: +8621-34770003,
Risingsun Marketing Research,Asia Pacific,China,Room 409 Hengchen Business Building No. 4 Lane 398 Dapu Road Shanghai 200023 Shanghai China        ,enquiry@risingsun-mr.com,Phone: +86 21 53028722,Fax: +86 21 6304 8641
CBC Marketing Research Ltd,Asia Pacific,China,CBC Building 49A Wuyi Road 200050 Shanghai China        ,cbc@cbcnow.com,Phone: +86-21-5155.2000,Fax: +86-21-5155.2099
D&amp;K Research Chinawide Co. Ltd.,Asia Pacific,China,"B708, FengXing Plaza, No.242 Tian He Road 510620 Guangzhou China        ",derek@dk-china.com,Phone: +86-20-3839.5060,Fax: +86-20-3839.5080
"China Fieldwork Co.,Ltd",Asia Pacific,China,"B-2104, Oasis Plaza No. 3064 Zhong Shan Bei Road 200063 Shanghai China        ",vivian@chinafieldwork.com,Phone: +86-21-62600056,Fax: +86-21-52510333
Marcom-China.com Company Ltd.,Asia Pacific,China,"14H, 14/F, Xinmei Building No 585 Tianmuzhong Road, 200070 Shanghai China        ",jenny@marcom-china.com,Phone: +86-21-5100.3580,Fax: +86-21-5100.3582
ProJoy Research,Asia Pacific,China,"Room.403, Timeson Tower No.b12 Chaoyangmen North Street 100020 Beijing Beijing China        ",michael.pang@projoy-research.com,Phone: +8613701023815,Fax: +861056241026
Cathaya Research,Asia Pacific,China,"398 Mahua Road, Bin Hai Xin Cheng Innovation Park Main Building, Rm 202-203 312300 Shaoxing Zhejiang Province China       ",inquiry@cathayaresearch.com,Phone: +86-400-654-6626,
VoisBox Research,Asia Pacific,China,139 Ruijin Road (No 1) 4F Unit 42 Fuxing Commercial Building 200020 Shanghai China        ,weekenglee@vois-box.com,Phone: (86) 21- 6136 6042,Fax: (86) 21-6136 6086
Beijing Pan-Asia Market Research Institute (PAMRI),Asia Pacific,China,"Floor 5, Gate 1, Leading International Business Mansion, No. 3 Nanxiaojie, Guangqumen, Dongcheng District 100061 Beijing China        ",email@pamri.com,Phone: +86-10-6712.0599,Fax: +86-10-6712.0669
Labbrand,Asia Pacific,China,"Shanghai Creative Industry Clustering Park, Floor 2, Building 7 50 Moganshan Road 200060 Shanghai China        ",global@labbrand.com,Phone: +86-21-6298.2606,Fax: +86-21-6298.0775
MAP,Asia Pacific,China,"Suite 7F1, Junyao International Plaza, 789 Zhaojiabang Road, Xuhui District 789 Zhao Jia Bang Rd. 200032 Shanghai China        ",matthew@map-map.com,Phone: +86-21-6422.8386,Fax: +86-21-6422.8387
"Balance HealthCare Research Co., Ltd (Beijing)",Asia Pacific,China,"Unit 1, No.14 Building, South Haidian Road Haidian district 100001 Beijing China        ",emma@b-hr.com,Phone: +86-10-5165.5441,Fax: +86-10-5165.5447
Tebbutt Research,Asia Pacific,Fiji-Islands,18 Suva Street Suva Fiji Islands        ,tr@tebbuttresearch.com,Phone: 679 331 5555,Fax: 679 331 4444
"Market Intelligence Caucasus, Licensee of TNS",Asia Pacific,Georgia,27 Kavtaradze Str 4 Floor 0186 Tbilisi Georgia        ,giorgi.abramishvili@tns-global.ge,Phone: +995-32- 95 76 30,Fax: +995-32- 94 00 37
Institute for Polling and Marketing (IPM),Asia Pacific,Georgia,8 Baratashvili Street 0105 Tbilisi Georgia        ,ipm@ipm.ge,Phone: +995-32-2998.203,Fax: +995-32-998.506
ACT,Asia Pacific,Georgia,51 Sairme Hill 0194 Tbilisi Georgia        ,geo@act-global.com,Phone: +995-32-422.322,Fax: +995-32-422.322.9
"TV MR GE, Nielsen Television Audience Measurement's official licensee",Asia Pacific,Georgia,"16, Vazha-Phshavela Ave., IX Floor 0160 Tbilisi Georgia        ",agb@agbnielsen.ge,Phone: +995-32.380.862,Fax: +995-32.380.820
CBC Marketing Research (Hong Kong) Ltd,Asia Pacific,Hong-Kong,"Suite 2909-10, 29F China Resources Building No. 26 Harbour Road Hong Kong Hong Kong        ",charles.merkle@cbcnow.com,Phone: +86-20-2227.3200,Fax: +86-20-2227.3201
Strategic Focus Research and Consultancy Ltd.,Asia Pacific,Hong-Kong,9/F King’s Commercial Centre 25 King’s Road Hong Kong Hong Kong        ,davidhui@strategicfocus.com.hk,Phone: +852-2832.7861,Fax: +852-28327189
NuanceTree Limited (HK),Asia Pacific,Hong-Kong,"Unit 317, Innocentre, 72 Tat Chee Avenue, Hong Kong Hong Kong       ",eleanor.lam@nuancetree.com,Phone: +852 27351878,
Toluna,Asia Pacific,Hong-Kong,"3/F Hecny Tower 9 Chatham Road South Tsim Sha Tsui, Kowloon Hong Kong       ",toluna@toluna.com,Phone: +852 3512 0600,
YouGov Asia Pacific,Asia Pacific,Hong-Kong,"801 &amp; 802 Western Centre 46-50 Des Voeux Road West, Sheung Wan Hong Kong Hong Kong        ",infoap@yougov.com,Phone: +852 8191 3481,Fax: +852 3010 9810
Marcom-HongKong.com,Asia Pacific,Hong-Kong,"2/F., Eton Tower 8 Hysan Avenue, Causeway Bay Hong Kong Hong Kong        ",jenny@marcom-hongkong.com,Phone: +852-8199.9509,Fax: +852-2910.7000
Acorn Marketing &amp; Research Consultants (International) Ltd,Asia Pacific,Hong-Kong,"Unit 6-9, 9/F Island Place Tower, 510 King's Road, North Point Hong Kong Hong Kong        ",hongkong@acornasia.com,Phone: +852-2881.5250,Fax: +852-2890.5496
Mercado Solutions Associates Ltd.,Asia Pacific,Hong-Kong,"3101-03, 31/F, Laws Commercial Plaza 788 Cheung Sha Wan Road Kowloon Hong Kong        ",ms@mercadosolutions.com,Phone: +852-2538.8181,Fax: +852-2538.8123
Agility Research &amp; Strategy,Asia Pacific,Hong-Kong,"Unit 1101, 11/F, Caroline Centre Lee Garden Two  28 Yun Ping Road Causeway Bay Hong Kong       ",CONTACTUS@AGILITY-RESEARCH.COM,Phone: (852) 3951 0192,
Surpassdata Limited,Asia Pacific,Hong-Kong,"Unit C, 10/F., CNT TOWER No. 338 Hennessy Road, Wanchai Hong Kong       ",patrick.pun@surpassdata.com,Phone: (852)2802 1303,
KK Market Research - KK &amp; Co.,Asia Pacific,Hong-Kong,"15/F, 80 Gloucester Road Hong Kong Hong Kong       ",general@kk-mr.com,Phone: +852 98003213,
Ahead Business Consultants,Asia Pacific,Hong-Kong,"Office E, 10/F, MG Tower, 133 Hoi Bun Road, Kwun Tong Kowloon Hong Kong        ",enquiry@ahead-consultants.com,Phone: +852 3105 1298,Fax: +852 3585 2802
ABN Impact (Asia – Hong Kong),Asia Pacific,Hong-Kong,"2201, Times Square Tower 2,  1 Matheson Street, Causeway Bay, Hong Kong Hong Kong       ",info@abnimpact.com,Phone: +852 3753-8847,
FRC Hong Kong Limited,Asia Pacific,Hong-Kong,"7A Redana Centre, 25 Yiu Wa Street, Causeway Bay Hong Kong Hong Kong        ",admin@frchongkong.com,Phone: +852-21470262,Fax: +852-30201026
Kadence International,Asia Pacific,Hong-Kong,6/F Shun Pont Commercial Building 5-11 Thomson Road Wanchai Hong Kong        ,mcoulter@kadence.com,Phone: +852-2834.8970,Fax: +852-2834.8975
Anova Limited,Asia Pacific,Hong-Kong,"Unit B-3, 4/F North Point Industrial Building, 499 King's Road, North Point HKSAR Hong Kong Hong Kong        ",hongkong@anovaresearch.com,Phone: +852-2156.3432,Fax: +852-2156.3421
MOV Data Collection Center Limited,Asia Pacific,Hong-Kong,"1309-1313 One Midtown, 11 Hoi Shing Road, Tsuen Wan, Hong Kong Centre, 608 Nathan Road, Kowloon, Hong Kong Hong Kong Hong Kong        ",info@mov.com.hk,Phone: +852-39001111,Fax: +852-39001122
Orchidea Research &amp; Technology,Asia Pacific,India,"Mpl No-9847, Plot No 40, Kh No 1034/153 3rd Floor, Karol Bagh, Blk-65, New Rohtak Road 110005 Delhi New Delhi India       ",vaibhav@orchidearesearch.com,Phone: +919899867696,
Impetus Research Pvt Ltd,Asia Pacific,India,"A105 First Floor Sector 19, Dwarka 110075 New Delhi Delhi India        ",consult@impetus-research.com,Phone: +91-11-64626860,Fax: +91-11-45547983
Azure Knowledge Corporation,Asia Pacific,India,"2nd Floor, IFFCO Building, 132 ft Ring Road, Near Shivranjani Cross Roads 380015 Ahmedabad Gujarat India        ",jay.ruparel@azureknowledge.com,Phone: +91-7930401900,Fax: +91-7930401900
Evalueserve,Asia Pacific,India,"Tower B, 3rd, 4th &amp; 5th Floor UnitechWorld - Cyber Park Jharsa Sector-39, 122002 Gurgaon Haryana India        ",Deepti.Tyagi@Evalueserve.com,Phone: +911244154000,Fax: +911244552406
Trident Research,Asia Pacific,India,"# 510, 18th Cross PoornaPragna Lyt, Uttarahalli 560050 Bangalore Karnataka India       ",info@thetrident-consultants.com,Phone: +91 99725 27331,
GreyCells Research Services Pvt Ltd,Asia Pacific,India,"B4/18, Safdarjung Enclave 110029 New Delhi Delhi India        ",info@greycellsindia.net,Phone: +91-11- 461 42653,Fax: +91-11- 4650 8750
Robas Research Pvt. Ltd.,Asia Pacific,India,"#111, `Shreshta Bumi', No. 87 K R Road, Next to Gayana Samaja, Basavangudi 560004 Bangalore Karnataka India       ",internal@ro-bas.com,Phone: 91-80-41229515,
Oncofocus Solutions,Asia Pacific,India,"#4, 5th Main, 9th Cross Jayamahal Extension 560046 Bangalore Karnataka India       ",support@oncofocus.com,Phone: +91 80 3232 8002,
Analytique Research Private Limited,Asia Pacific,India,"132 First Floor, U S Complex Opp Apollo Hospital, Mathura Road 110076 New Delhi New Delhi India        ",info@analytiqueresearch.com,Phone: +91-11-2639-7059,Fax: +91-11-2639-7061
Quantum Consumer Solutions Pvt Ltd (Formerly known as Quantum Market Research Pvt Ltd),Asia Pacific,India,"A 305, Neelam Centre, S K Ahire Marg, Worli Marg, Worli 400030 Mumbai Maharashtra India       ",meena.kaushik@quantumcs.com,Phone: +91-2243474721,
Indianet MS Pvt.Ltd.,Asia Pacific,India,"243, 1st Floor,Fakhri Manzil Perin Nariman Street 400001 Mumbai Maharashtra India        ",indianet@vsnl.com,Phone: +91-22-4030 6001/3,Fax: +91-22-2265 1413
KeynoteResearch,Asia Pacific,India,"B-04, Somnath Building, Neelkanth Shrushti Wadeghar, Kalyan (West) 421301 Mumbai Maharashtra India       ",rfq@keynoteresearch.com,Phone: +91-22-6529-1122,
Market Xcel Data Matrix Pvt Ltd,Asia Pacific,India,"16, Sant Nagar East of Kailash 110065 New Delhi India        ",rfp@market-xcel.com,Phone: +91-11-4234.3500,Fax: +91-11-4132.5150
Asplor Research Private Limited,Asia Pacific,India,"Zen Business Centtre C-585, LGF, Block C, Defence Colony, New Delhi 110024 New Delhi Delhi India       ",info@asplor.com,Phone: +91 11 4905 9013,
Global Survey,Asia Pacific,India,"21, Manav Mandir Bounglow , Nr Old Aradhna School Maninagar 380008 Ahmedabad Gujarat India       ",mayank@globalsurvey.in,Phone: +919974325123,
Global Vox Populi,Asia Pacific,India,"Unit 815, Wing B, Jaswanti Allied Business Center Ramchandra Lane, Kanchpada, Malad West 400064 Mumbai Maharashtra India       ",inquiry@globalvoxpopuli.com,Phone: +912265556708,
Borderless Access Panels Pvt. Ltd.,Asia Pacific,India,"Embassy Tech Village, Building 2A Ground Floor, East Tower Sarjapura Outer Ring Road 560103 Bangalore Karnataka India        ",info@borderlessaccess.com,Phone: +91 80 4931 3800,Fax: +91 80 4931 3899
Aeon Market Research Private Limited,Asia Pacific,India,"C-10, 2nd Floor, Amar Colony Market, Lajpat Nagar-4 110024 New Delhi Delhi India       ",anil@aeonresearch.in,Phone: +919810622456,
Asia Research Partners LLP,Asia Pacific,India,"95, Okhla Industrial Area 110020 New Delhi Delhi India        ",infodl@asiaresearchpartners.com,Phone: +91 11 45554222,Fax: +91 11 41052539
GfK in India,Asia Pacific,India,15 Mayfair Road 700001 Kolkata India        ,in@gfk.com,Phone: +91-33-2289.0314,Fax: +91-33-2287.0910
QPA Indonesia,Asia Pacific,Indonesia,HOS Cokroaminoto 26 Menteng 10350 Jakarta Indonesia       ,sandra@qpa.sg,Phone: +62213907469,
Cimigo,Asia Pacific,Indonesia,"Jl. Cipete Raya 16 Cipete Selatan, Cilandak 12410 Jakarta Indonesia        ",indonesia@cimigo.com,Phone: +62 21 7507701,Fax: +62 21 7506973
MarkPlus Insight,Asia Pacific,Indonesia,"EightyEight@Kasablanka, 8th Floor Jl. Casablanca Raya Kav. 88 Jakarta 12870 Jakarta DKI Jakarta Indonesia        ",research@markplusinc.com,Phone: +62-21-57902338,Fax: +62-21-57902339
TNS,Asia Pacific,Indonesia,"Wisma Metropolitan II, 7th Floor Jl. Jend. Sudirman Kav. 29-31 12920 Jakarta Indonesia        ",raghavan.srinivasan@tnsglobal.com,Phone: +62-21-252.6022,Fax: +62-21-252.6369
MRI (Marketing Research Indonesia),Asia Pacific,Indonesia,"Menara Bidakara 2, 7th Floor, Unit 4 Jl. Jend. Gatot Subroto Kav. 71-73 12870 Jakarta DKI Indonesia        ",mri@mri-research-ind.com,Phone: +62-21-8370 8767,Fax: +62-21-8370 8768
Kadence International,Asia Pacific,Indonesia,"Wisma Bakrie 2, 15th Floor Jl. HR Rasuna Said Kav. B2 12920 Jakarta Indonesia        ",vthomas@kadence.com,Phone: +62 21 5794 2133,Fax: +62-21-3001.5992
INDEPENDENCE Research Operation Partner,Asia Pacific,Indonesia,Jalan Cilandak Dalam No. 50A 12430 South Jakarta DKI Jakarta Indonesia        ,info@independencepartner.com,Phone: +62 21-7654032,Fax: +62-21-75914019
MYRIAD,Asia Pacific,Indonesia,Boulevard Office Tower UG floor unit A Jl. Fachrudin Raya No. 5 Tanah Abang Bukit 10250 Jakarta Pusat DKI Jakarta Indonesia        ,imam.fauzie@myriad-research.com,Phone: +62 21 31991419,Fax: +62 21 31991420
RAD Research,Asia Pacific,Indonesia,"Ruko Pasar Modern Batununggal Indah, Blok RA 26 CATI Centre, Jl. Cijagra 76-78 40267 Bandung West Java Indonesia        ",infor@rad-research.com,Phone: +62-22-875-26860,Fax: +62-22-875-26860
PT Acorn Konsultan,Asia Pacific,Indonesia,"29th Floor Allianz Tower, JL HR Rasuna Said, Kawasan Kuningan Persada Super Blok 2, Selatan 12980 Jakarta Indonesia        ",indonesia@acornasia.com,Phone: +62-21-290.79655,Fax: +62-21-290.79656
GfK in Indonesia,Asia Pacific,Indonesia,"Plaza Kuningan - Menara Selatan (Suite 501) Jl. H.R. Rasuna Said, Kav. C11 - 14, 12940 Jakarta Indonesia       ",contact-id@gfkrt.com,Phone: (021) 52906659,
Mitra Market Research,Asia Pacific,Indonesia,"9th Floor, Intiland Tower Jl. Jend. Sudirman 32 10220 Jakarta Indonesia        ",admin@mitramr.com,Phone: +62-21-57903292,Fax: +62-21-57903296
Frontier Consulting Group,Asia Pacific,Indonesia,Gading Bukit Indah M15-M16 Jl. Bukit Gading Raya - Kelapa Gading Permai 14240 Jakarta DKI Jakarta Indonesia        ,overseas@frontier-mr.com,Phone: +62 21 451 4151,Fax: +62-21-451.4152
KAD Research,Asia Pacific,Indonesia,"Jalan Tanah Abang 1, No. 11F Jakarta Pusat 16110 Jakarta DKI Jakarta Indonesia       ",info@kadresearch.com,Phone: +62-21-29098597,
ABN Impact (Asia – Indonesia),Asia Pacific,Indonesia,Jl. Gaharu IV No. 10 Cilandak 12430 South Jakarta Indonesia       ,info@abnimpact.com,Phone: +62 (21) 299 27860,
MARS Indonesia,Asia Pacific,Indonesia,MARS Building Jalan Paus 89 G Rawamangun Jakarta Jakarta Indonesia        ,subroto8@rad.net.id,Phone: +62 21 4753080,Fax: +62 21 4753110
"Central Research Services, Inc. (CRS)",Asia Pacific,Japan,6-16-12 Ginza Chuo-Ku 104-0061 Tokyo Japan        ,office@crs.or.jp,Phone: +81-3-3549.3121,Fax: +81-3-3549.3126
Video Research Ltd.,Asia Pacific,Japan,6-17 Sanbancho Chiyoda-ku 102-0075 Tokyo Japan        ,bizplan@videor.co.jp,Phone: +81-3.5860.1746,Fax: +81-3.3556.8754
"Consumer Behavior Research, Ltd.",Asia Pacific,Japan,"Sawada Bldg 2F 1-15-9 Shinjuku, Shinjuku-ku 160-0022 Tokyo Japan        ",cbrinfo@cbr.co.jp,Phone: +81-3-5366.5266,Fax: +81-3-5366.5269
R2 Insights,Asia Pacific,Japan,"5F Musashi Building 7-4-4 Nishi-shinjuku, Shinjuku-ku Tokyo Japan       ",julian@r2-insights.com,Phone: +81-3-3483-3513,
"Citation Japan Co., Ltd.",Asia Pacific,Japan,Kyobashi Square 12F 3-7-5 Kyobashi 1040031 Chuo-ku Tokyo Japan        ,inquiry@citation.co.jp,Phone: +813-4360-8673,Fax: +813-6228-7808
3Waves Japan,Asia Pacific,Japan,11F Aoyama Palacio Tower 3-6-7  Kita-Aoyama 107-0061 Minato-ku Tokyo Japan        ,jbrouse@3wavesjapan.com,Phone: +81 3 5778 5248,Fax: +81-357785249
Breeze LLC,Asia Pacific,Japan,2-16-24 Komachi 248-0006 Kamakura-shi Kanagawa Japan        ,info@breeze.co.jp,Phone: +81-467-67-4324,Fax: +81-467-61-2830
JMA Research Institute Inc.,Asia Pacific,Japan,"2F Shin-Otemachi Building 2-2-1 Otemachi, Chiyoda-ku 100-0004 Tokyo Japan        ",info_global@jmar.co.jp,Phone: +81-3-6202-1287,Fax: +81-3-6202-1294
Borders Incorporated,Asia Pacific,Japan,"KOSUGI Building 7F, 1-28-11, Shinjuku Shinjuku-ku Tokyo Tokyo Japan        ",hagino@borders.jp,Phone: +81-3-6380-0537,Fax: +81-3-5366-2879
Lux Research Japan,Asia Pacific,Japan,"4F Sun Park Building 1-52-7 Tomigaya 151-0063 Shibuya-Ku, Tokyo Japan        ",infomarket@luxresearchjapan.com,Phone: +81-3-5452-1222,Fax: +81-3-5459.4579
"Nippon Research Center,Ltd.",Asia Pacific,Japan,2-7-1 Nihonbashi honcho Chuo-ku 103-0023 Tokyo Japan        ,mail-esomar@nrc.co.jp,Phone: +81-3-6667.3400,Fax: +81-3-6667.3470
Adams Communications,Asia Pacific,Japan,"7-28-15 Kamisoshigaya, Setagaya-ku 157-0065 Tokyo Japan        ",rfq-worldwide@aaa.co.jp,Phone: +81-3-3305.5500,Fax: +81-3-3307.7210
Japan Marketing Agency,Asia Pacific,Japan,"6th Floor, KN Shibuya 1 Building 13-11, Udagawa-cho, Shibuya-ku 150-0042 Tokyo Japan        ",inter@jma-net.com,Phone: +81-3-3496.0131,Fax: +81-3-3464.7996
"SevenSeas Marketing Research Co., Ltd.",Asia Pacific,Japan,"501 Sotobori Sky Building 2-11 Ichigaya Honmuracho, Shinjuku-ku 162-0845 Tokyo Japan        ",ssmr@ss-mr.com,Phone: +81-3-5229.8680,Fax: +81-352298681
Shin Joho Center Inc,Asia Pacific,Japan,"Unosawa Tokyu Building, 1-19-15 Ebisu Shibuya-ku 150-0013 Tokyo Japan        ",y-akagawa@sjc.or.jp,Phone: +81-3-3473.5231,Fax: +81-3-3473.5353
AIP Corporation,Asia Pacific,Japan,Rakuten Crimson House 1-14-1 Tamagawa 158-0094 Tokyo Setagaya-ku Japan        ,aip-sales@aip-global.com,Phone: +81-50-5581-1710,Fax: +81-3-6670-5006
"Acorn Marketing &amp; Research Consultants Japan Co., Ltd",Asia Pacific,Japan,"OS Building 6F 1-12-15 Kandaizumicho, Chiyoda-ku 101-0024 Tokyo Japan        ",japan@acornasia.com,Phone: +81-3-3863-8318,Fax: +81-3-3863-8308
GfK in Japan,Asia Pacific,Japan,"Shinjuku Square Tower 12F, 6-22-1 Nishi-Shinjuku, Shinjuku-ku 163-1129 Tokyo Japan        ",jp@gfk.com,Phone: + 81 3 6304 5820,Fax: + 81 3 6304 5825
"Marketing Research Services, Inc.",Asia Pacific,Japan,Shin-Otsuka Plaza Building 5-9-2 Otsuka Bunkyo-ku 112-0012 Tokyo Japan        ,overseas_request@mrs.co.jp,Phone: +81-3-5976.0711,Fax: +81-3-5976.0730
CreativeLink Inc.,Asia Pacific,Japan,"1850-12, KAMIKURATA-CHO TOTSUKA-KU 244-0816 YOKOHAMA KANAGAWA Japan        ",info@cre-link.jp,Phone: +81-45-512-5374,Fax: +81-45-871-1150
BRIF Research Group,Asia Pacific,Kazakhstan,"6th Floor, 76 Zhibek Zholy Ave. 050004 Almaty Kazakhstan        ",aruzanov@brif.kz,Phone: +7-727-2501.291,Fax: +7-727-2501.297
CIOM Ltd,Asia Pacific,Kazakhstan,"38, Pushkin str., cross 54, Zhibek Zholy str. 050002 Almaty Kazakhstan        ",welcome@ciom.kz,Phone: +7 (727) 273 14 01,Fax: +7 (727) 273 14 75
BISAM Central Asia,Asia Pacific,Kazakhstan,"Office 236, 221 Bogenbai Batyr Street 050026 Almaty Kazakhstan        ",welcome@bisam.kz,Phone: +7-727-378-05-31 / 83,Fax: +7-727-378-05-23
ALVIN MARKET,Asia Pacific,Kazakhstan,"Gogol street, 39 050002 Almaty Kazakhstan        ",info@alvin.kz,Phone: +7 727 3337324,Fax: +7 727 2597549
Hyundae Research Institute,Asia Pacific,Korea-Republic-of,"Main Building of Catholic Press #3 149-2 Jungrim-dong Jung-gu 100-858 Seoul Korea, Republic of        ",sklee@hri4u.com,Phone: +82-2-3218.9600,Fax: +82-2-3444.8715
Saraholdings Inc.,Asia Pacific,Korea-Republic-of,"1st floor, Optical Bldg. 193-102, Jangchung-dong2(i)-ga Jung-gu, Seoul 100-856 Seoul Korea, Republic of        ",presi21@nownfuture.co.kr,Phone: 822 541 9472,Fax: 82-2-3453-7599
ABN Impact (Asia – South Korea),Asia Pacific,Korea-Republic-of,"ABN Impact South Korea 27, Wausan-ro 29 ma-gil 0453 Seoul Mapo-gu Korea, Republic of        ",info@abnimpact.com,Phone: 822 326 2100,Fax: 822 326 2109
Insight Korea,Asia Pacific,Korea-Republic-of,"96-8, Daesun Bldg. 3F Banpo 4(sa)-dong Seocho-gu 137-040 Seoul Korea, Republic of        ",eycho@insight-korea.com,Phone: +82-2-3483.0500,Fax: +82-2-3481.9032
Gallup Korea,Asia Pacific,Korea-Republic-of,"208 Sajik-dong Jongno-gu 110-054 Seoul Korea, Republic of        ",info@gallup.co.kr,Phone: +82-2-3702.2100,Fax: +82-2-3702.2121
David Richardson &amp; Associates,Asia Pacific,Korea-Republic-of,"Seoul Finance Center, Level 21 136 Sejong-daero, Jung-gu 100-768 Seoul Korea, Republic of        ",davidrichardson@drakorea.com,Phone: +82237826991,Fax: +82237824555
Hankook Research,Asia Pacific,Korea-Republic-of,"2-8,10th floor, H-Tower 192-19, Nonhyun-dong Gangnam-ku 135-826 Seoul Korea, Republic of        ",hankook@hrc.co.kr,Phone: +82-2-3014.1000,Fax: +82-2-3014.0774
TNS Korea,Asia Pacific,Korea-Republic-of,"4th Floor, Anwon Building 14-15 Yoido-dong, Youngdeungpo-ku 150-010 Seoul Korea, Republic of        ",office.kr@tnsglobal.com,Phone: +82-2-3779.4300,Fax: 822 782 5533
GfK in Korea,Asia Pacific,Korea-Republic-of,"70 Chungjeongno 12F, 13F Westgate Building Seodaemun-gu 03738 Seoul Korea, Republic of        ",cr.contact-kr@gfk.com,Phone: 026 712 4000,Fax: 822 361 4000
"Panel Marketing Interactive Co., Ltd.",Asia Pacific,Korea-Republic-of,"Seochogu Seocho chunangro 56 blue tower Floor 8 Seoul Seoul Korea, Republic of        ",mhcho@tillion.co.kr,Phone: +82-02-2055-3100,Fax: +82-02-2055-1025
"Acorn Marketing &amp; Research Consultants (HK) Limited, Korea Branch",Asia Pacific,Korea-Republic-of,"2~3F., Line Building, 180-5, Chungjeongno-2ga, Seodaemun-Gu, 120-012 Seoul Korea, Republic of        ",korea@acornasia.com,Phone: 822 716 6626,Fax: 822 716 6627
"Macromillembrain.co., ltd",Asia Pacific,Korea-Republic-of,"14th Fl. Tower 837 Bldg. 318 Gangnam-dearo, Gangnam-gu 06253 Seoul Korea, Republic of        ",globalbiz@embrain.com,Phone: +82-234063851,Fax: +82-234063870
TRC(THE RESEARCH COMPANY),Asia Pacific,Korea-Republic-of,"3rd Floor, LionsBldg, 50-6, Choonmuro2ga, Joonggu, 100-861, Seoul Korea, Republic of        ",jcha@trcompany.co.kr,Phone: +82-2-6324-4021,Fax: +82-2-6324-1024
Ipsos Korea,Asia Pacific,Korea-Republic-of,"12Fl., Korea Economic Daily News Bldg., Cheonpa-ro, Jung-gu, 100-791 Seoul Korea, Republic of        ",gina.nam@ipsos.com,Phone: +82-2-6464-5100,Fax: +82-2-2056-7100
ConsumerInsight,Asia Pacific,Korea-Republic-of,"19th Floor Geopyeong Town 129 Bongeunsa-ro Gangnam-gu 06121 Seoul Seoul Korea, Republic of        ",kwonyg@consumerinsight.kr,Phone: +82-2-6004-7622,Fax: +82-2-6004-7601
"MarketLink Co., Ltd.",Asia Pacific,Korea-Republic-of,"Elimnet Bldg. 4F, Kyunggi-daero 15 Seodaemun-gu 03751 Seoul Korea, Republic of        ",andy@marketlink.co.kr,Phone: +82237879605,Fax: +82237879699
"NICE Research &amp; Consulting, Inc",Asia Pacific,Korea-Republic-of,"36, Chungjeong-ro, Seodaemun-gu 03741 Seoul Korea, Republic of        ",smchung@nicerc.co.kr,Phone: +82-2-2122-8714,Fax: +82-2-2122-4797
"Research &amp; Research, Inc.",Asia Pacific,Korea-Republic-of,"SL Building 46-3 Jamwon-dong, Seocho-gu 137-906 Seoul Korea, Republic of        ",randr@randr.co.kr,Phone: +82-2.3484.3000,Fax: +82-2.3484.3009
QMR,Asia Pacific,Korea-Republic-of,"5F HCC Building 726-420 Hannam-Dong, Yongsan-Ku 140-893 Seoul Korea, Republic of        ",ethan_chon@qmr.co.kr,Phone: +82-2-2279.9432,Fax: +82-2-2279.9223
GfK in Malaysia,Asia Pacific,Malaysia,"Suite 16.02, Level 16, Centrepoint South Kuala Lumpur Malaysia       ",selinna.chin@gfk.com,Phone: 032 289 0388,
Acorn Marketing and Research Consultants (M) Sdn Bhd,Asia Pacific,Malaysia,"Lot 12-01, 12th Flr., Blk. B, HP Towers, 12, Jalan Gelenggang, Damansara Heights 50490 Kuala Lumpur W. Persekutuan Malaysia        ",malaysia@acornasia.com,Phone: +60-3-2094.1688,Fax: +60-3-2095.2129
Dynamic Search Sdn. Bhd.,Asia Pacific,Malaysia,"Mezz &amp; 1st Floor, 49 &amp; 53 Jalan SS 2/64, Seapark 47300 Petaling Jaya Selangor Malaysia        ",sharon@dynamic-search.com.my,Phone: +60-3-7874.1452,Fax: +60-3-7875.7419
Ipsos Malaysia,Asia Pacific,Malaysia,"A38-11, Level 38, Menara UOA Bangsar 5, Jalan Bangsar Utama 1 59000 Kuala Lumpur Kuala Lumpur Malaysia        ",ipsosmalaysia@ipsos.com,Phone: +603 2302 3383,Fax: +603 2302 3386
InsightAsia Research Malaysia,Asia Pacific,Malaysia,"Unit 2A-13-2 Plaza Sentral - Phase II Jalan Stesen Sentral 5, Kuala Lumpur Sentral 50470 Kuala Lumpur Malaysia        ",hello@insightasia.com.my,Phone: +60-3-2261.4100,Fax: +60322878500
Central Force Malaysia,Asia Pacific,Malaysia,"C-3-8 Block C, Level 5 Ue3, Menara Uncang Emas, Jalan Loke Yew 55200 Kuala Lumpur Malaysia        ",cforce@cforce-int.com,Phone: +60-3-9284.6808,Fax: +60-3-9284.7393
Malaysia Airports Consultancy Services Sdn Bhd,Asia Pacific,Malaysia,"Level 2, Block C MAHB Corporate Office KL International Airport, Sepang 64000 Sepang Selangor Malaysia        ",roslinas@malaysiaairports.com.my,Phone: +603-87777407,Fax: +603-87777550
Metrix Research Sdn Bhd.,Asia Pacific,Malaysia,"11 Floor, Menara Dato' Onn, PWTC 45, Jalan Tun Ismail 50480 Kuala Lumpur Malaysia        ",general@metrix.com.my,Phone: +60-3-27827722,Fax: +60-3-27710020
Green Zebras,Asia Pacific,Malaysia,"D-8-01, Capital 4, Oasis Square No. 2 Jalan PJU 1A/7A, Ara Damansara 47301 Petaling Jaya Selangor Malaysia       ",hello@greenzebras.net,Phone: +60 12 280 6168,
Joshua Research Consultants Sdn Bhd,Asia Pacific,Malaysia,7-6 The Boulevard Mid Valley City Lingkaran Syed Putra 59200 Kuala Lumpur Kuala Lumpur Malaysia        ,info@joshuaresearch.com,Phone: +60-3-2297.7700,Fax: +60-3-2287.7912
Cardas Research &amp; Consulting Sdn Bhd,Asia Pacific,Malaysia,"A-15-10, 15th Floor, Menara A, Prima Avenue Jalan PJU 1/39, Dataran Prima 47301 Petaling Jaya Selangor Malaysia        ",info@crcg.com.my,Phone: +60-3-7801 0688,Fax: +60-3-7801.0699
TNS Malaysia,Asia Pacific,Malaysia,"Suite 16.02, 16.03 &amp; 16.05 (Level 16), Centrepoint North, The Boulevard, Mid Valley City, Lingkaran Syed Putra, 59200 Kuala Lumpur Wilayah Persekutuan (WP) Malaysia        ",office.my@tnsglobal.com,Phone: +60 (3) 2787 8888,Fax: +60 (3) 2711 8788
QPA Malaysia,Asia Pacific,Malaysia,17 Jalan Timur Petaling Jaya 46000 Selangor Malaysia       ,yoga@qpa.my,Phone: +60 3-7958 1717,
"Mongolian Marketing Consulting Group,",Asia Pacific,Mongolia,"Building 57, 2nd floor, Bayanzurkh district, 3 khoroo, 13370 Ulaanbaatar Tuv Aimag Mongolia        ",info@mmcg.mn,Phone: 976-77000188,Fax: 976-77000888
Xavey Research Solutions,Asia Pacific,Myanmar,"No. 35, 4th Floor, Bahan Street 2 Myoma Ward, Bahan Township 11201 Yangon Myanmar       ",aungsithu@xavey.com,Phone: +95 9 250 106 950,
Myanmar Survey Research,Asia Pacific,Myanmar,"55, Maha Bandoola Garden Street, Yangon. Room# 1409,14th Floor, Sakura Tower, 339 Bogyoke Aung San Road, Kyauktada Township, Yangon. Yangon Yangon Region Myanmar        ",msr@myanmar.com.mm,Phone: +95-1-391387,Fax: +95-1-254263
Quidnovi SARL,Asia Pacific,New-Caledonia,5 rue de la Boudeuse Ouèmo 98800 Nouméa New Caledonia       ,stephane.renaud@quidnovi.nc,Phone: +6-87241607,
Infotools,Asia Pacific,New-Zealand,51 Hurstmere Road 0622 Auckland New Zealand       ,mail@infotools.com,Phone: 94880111,
TRA,Asia Pacific,New-Zealand,"Level 4, Quay Building 106-108 Quay St, Britomart 1010 Auckland New Zealand       ",vanisha@tra.co.nz,Phone: 649 377 8129,
Aftab Associates,Asia Pacific,Pakistan,"13-H, GULBERG II 54660 Lahore Punjab Pakistan       ",Aftab@aftabassociates.pk,Phone: +92-42-35817191-96,
The Dynamics - Research Consultants,Asia Pacific,Pakistan,"The Dynamics - Research Consultants 501, Park Avenue, Shahrah-e-Faisal 75300 Karachi Sindh Pakistan        ",husaini@thedynamics.biz,Phone: +92 21 34311989,Fax: +92 21 34311988
iris communications,Asia Pacific,Pakistan,"1st Floor, 176-Y Commercial Area, DHA 54792 Lahore Pakistan        ",contact@iriscommunications.com.pk,Phone: 923 572 7346,Fax: 923 589 6918
Access Consumetrics Pvt. Ltd.,Asia Pacific,Pakistan,"Suite # 8, 3rd Floor, 35 - M, Classic Complex, Model Town Ext. 54000 Lahore Punjab Pakistan       ",aamir@consumetrics.com.pk,Phone: +92 42 35201852 - 6,
SMAR International (Private) Ltd.,Asia Pacific,Pakistan,"199/D Block-2, P.E.C.H.S. 75400 Karachi Pakistan        ",info@smarinternational.com,Phone: +92-21-454.3768,Fax: +92-21-454.6355
International Field &amp; Tab,Asia Pacific,Pakistan,"858 C, Faisal Town, Lahore 54770 Lahore Pakistan        ",info@field-tab.com.pk,Phone: +92-42-35916636,Fax: +92-42-35916636
SB&amp;B Marketing Research,Asia Pacific,Pakistan,"258 A, New Muslim Town 54700 Lahore Punjab Pakistan        ",info@sbbresearch.net,Phone: +92-42-3583.2662,Fax: +92-42-3583.2668
Ipsos Pakistan,Asia Pacific,Pakistan,"4th Floor, Tower 10, Commercial Market, E-11/1 44000 Islamabad Pakistan        ",Info.Pakistan@Ipsos.com,Phone: . +92 51 2210815,Fax: . +92 51 2210 819
Market Research Bureaux Pakistan Pvt. Limited formerly Oasis Insights (Pvt.) Ltd.,Asia Pacific,Pakistan,"E-4 2nd floor, Nasreen Building, Shaheed -e Millat Rd 75350 Karachi Pakistan        ",info@mrbglobal.pk,Phone: +92-21-34387582,Fax: +92-21-431.2613
Gallup Pakistan,Asia Pacific,Pakistan,"H.45, ST.52 F-7/4 1055 Islamabad Pakistan        ",isb@gallup.com.pk,Phone: +92-51-265.5630,Fax: +92-51-265.5632
Foresight Research (Pvt.) Ltd.,Asia Pacific,Pakistan,"Foresight House 6-X, Block 6, PECHS 75400 Karachi Sindh Pakistan       ",muhammad.zubair@foresight.com.pk,Phone: +92 21 34527302,
Anglo Pacific Research and Strategy,Asia Pacific,Papua-New-Guinea,P.O.Box 386 Port Moresby 121 Port Moresby NCD Papua New Guinea        ,arose@anglo.com.pg,Phone: 675 325 3632,Fax: 675 325 0464
Tebbutt Research,Asia Pacific,Papua-New-Guinea,L8 Deloitte Tower Douglas St Port Moresby NCD Papua New Guinea       ,tr@tebbuttresearch.com,Phone: +675-7373-4030,
Ipsos in the Philippines,Asia Pacific,Philippines,"1401 - B, One Corporate Center Meralco Avenue cor. Doña Julia Vargas Avenue 1605 Ortigas Center, Pasig City Metro Manila Philippines        ",philippines@ipsos.com,Phone: 632 633 3997,Fax: 632 655 9574
SIS International Research - South East Asia,Asia Pacific,Philippines,17 ADB Avenue Ortigas Floor 29 Suite #2928 1600 Manila Philippines       ,ILORENZOBI@SISINTERNATIONAL.COM,Phone: 632 689 7174,
"Strategic Research and Development Center, Inc.",Asia Pacific,Philippines,"S-1A 2/F Sunvar Plaza Bldg., 156 Amorsolo St. cor. Arnaiz Ave.,  Legaspi Village 1229 Makati City Philippines        ",info@strandasia.com,Phone: 632 576 8407,Fax: 632 403 9768
"The Asia-Pacific Centre for Research (ACRE), Inc.",Asia Pacific,Philippines,504B Antel Seaview Condominium Roxas Boulevard 1300 Pasay City Metro Manila Philippines        ,abfontanilla@spss-ph.com,Phone: +639178921918,Fax: +639285202256
InsightsImpact Inc.,Asia Pacific,Philippines,"12F Trade and Financial Tower 7th Ave corner 32nd St, BGC 1634 Taguig City Philippines       ",research@insightsimpact.com,Phone: 632 330 3678,
ASCEND The All-Asian Centre for Enterprise Development (Research) Inc,Asia Pacific,Philippines,"Unit 503 Tritan Plaza Paseo De Magallanes, Magallanes Village 1232 Makati city Metro Manila Philippines        ",info@ascendresearch.ph,Phone: +63 02-8510317,Fax: 630 851 4195
PSRC,Asia Pacific,Philippines,"10th Floor OMM CITRA Building San Miguel Avenue, Ortigas Center 1600 Pasig City Philippines        ",research@psrc.com.ph,Phone: 632 638 4528,Fax: 632 638 4526
PRESTIGE MARKET RESEARCH SERVICES,Asia Pacific,Philippines,"Unit 614, 6Floor AIC Burgundy Empire Tower ADB Avenue, Ortigas Center, Pasig City 1605 ORTIGAS CENTER PASIG Philippines        ",prescym@prestigeresearchph.com,Phone: 632 945 8772,Fax: +63262165549 / 60
"MarketMatters, Inc.",Asia Pacific,Philippines,"Blk 3 Lot 10 Brescia St., Trails of Maia Alta Brgy. Dalig 1870 Antipolo Philippines       ",noreen.acaylar@marketmatters.ph,Phone: +639175133975,
"TNS (Taylor Nelson Sofres) Philippines, Inc.",Asia Pacific,Philippines,"8/F Sun Plaza Building, 1507 Shaw Blvd cor. Princeton St. 1550 Mandaluyong City Philippines        ",gary.deocampo@tnsglobal.com,Phone: 632 548 4500,Fax: 632 548 4517
Acorn Marketing &amp; Research Consultants Pte Ltd,Asia Pacific,Singapore,"Acorn Building, 12 &amp; 13 Mohamed Sultan Road #02-01 238961 Singapore Singapore Singapore        ",singapore@acornasia.com,Phone: 656 733 6565,Fax: 656 732 6128
Cruger Haus Sg Pte Ltd,Asia Pacific,Singapore,73 Upper Paya Lebar Road. #05-02 Centro Bianco 534818 Singapore Singapore Singapore        ,claude.lee@crugerhaus.sg,Phone: 656 841 0735,Fax: 656 841 0735
B2B International Singapore,Asia Pacific,Singapore,"UOB Plaza 1 80 Raffles Place, Level 35 048624 SINGAPORE Singapore       ",singapore@b2binternational.com,Phone: 656 248 4727,
ABN Impact (Asia – Singapore),Asia Pacific,Singapore,"228B South Bridge Road, 058777 Singapore Singapore       ",info@abnimpact.com,Phone: 6221 0281,
Consulting Group – Asia Insight Pte. Ltd.,Asia Pacific,Singapore,1 King George's Avenue #03-00 Rehau Building 208557 Singapore Singapore        ,contact_us@asiainsight.com,Phone: 656 735 3788,Fax: 656 735 7188
BDRC Asia,Asia Pacific,Singapore,51 Goldhill Plaza #14-04/05 308900 Singapore Singapore Singapore        ,piers.lee@bdrc-asia.com,Phone: 656 578 9400,Fax: 656 258 4629
QPA Singapore,Asia Pacific,Singapore,256a South Bridge Road #02-01 058805 Singapore Singapore       ,Lynus@qpa.sg,Phone: 656 592 5266,
Blackbox Research Pte Ltd,Asia Pacific,Singapore,"The Herencia 46 Kim Yam Road, #01-08 239351 Singapore Singapore        ",susan@blackbox.com.sg,Phone: 656 323 1351,Fax: 656 323 1327
Media Research Consultants Pte Ltd,Asia Pacific,Singapore,1 Stars Avenue Mediacorp Campus 138507 Singapore Singapore        ,info@mrconsultants.com.sg,Phone: 656 255 7484,Fax: 656 255 6268
AXANTEUS RESEARCH,Asia Pacific,Singapore,3 TEMASEK AVENUE #21-00 CENTENNIAL TOWER 039190 SINGAPORE Singapore        ,contact@axanteusresearch.com,Phone: 656 332 6888,Fax: 656 338 6823
Nielsen,Asia Pacific,Singapore,47 Scotts Road #13-00 Goldbell Towers 228233 Singapore Singapore        ,esomar@nielsen.com,Phone: 656 672 6600,Fax: 656 672 6996
Kadence International Ltd,Asia Pacific,Singapore,"11-01 RB Capital Building Raffles Place, 22 Malacca Street 048980 Singapore Singapore        ",plee@kadence.com,Phone: 656 513 4200,Fax: 656 538 4300
InsightAsia Research Group Pte. Ltd.,Asia Pacific,Singapore,9 Purvis Street #04-01 188588 Singapore Singapore        ,hello@insightasia.com,Phone: 656 338 4780,Fax: 656 337 9470
Joshua Research Consultants Pte Ltd,Asia Pacific,Singapore,1 Commonwealth Lane #08-31/32/33 One Commonwealth 149544 Singapore Singapore Singapore        ,info@joshuaresearch.com,Phone: 656 876 7077,Fax: 656 536 7166
Join the Dots,Asia Pacific,Singapore,"168 Robinson Road, #12-01 Capital Tower Singapore 068912 Singapore Singapore       ",singapore@jointhedotsmr.com,Phone: 653 157 9338,
Markelytics,Asia Pacific,Singapore,"57, Sultan Link Road Singapore Singapore       ",rohan@markelytics.com,Phone: 659 776 9626,
GfK in Singapore,Asia Pacific,Singapore,One George Street 1 George Street #22-02 049145 Singapore Singapore        ,sg@gfk.com,Phone: 656 826 8622,Fax: 56 826 8601
SYRES Pte Ltd,Asia Pacific,Singapore,391B Orchard Road Ngee Ann City Tower B #23-01 238874 Singapore Singapore        ,elodie.flanet@syres.fr,Phone: 656 736 7347,Fax: 656 491 1269
Agility Research &amp; Strategy,Asia Pacific,Singapore,"300 Beach Road, #14-07 The Concourse 199555 Singapore Singapore        ",amrita@agility-research.com,Phone: 656 396 6832,Fax: 656 396 6583
Nexus Link Pte Ltd,Asia Pacific,Singapore,62 Ubi Road 1 #05-11 Oxley Bizhub 2 408734 Singapore Singapore        ,enquiries@nexus-link.net,Phone: 656 340 1888,Fax: 656 340 1899
PepperCube Consultants (Pvt) Ltd,Asia Pacific,Sri-Lanka,100/7A Horton Gardens Horton Place 7 Colombo West Sri Lanka       ,email@peppercube.lk,Phone: +94117238701,
Lanka Market Research Bureau Limited,Asia Pacific,Sri-Lanka,"228, Galle Road 2nd &amp; 4th Floors Colombo 4 Sri Lanka        ",lmrb@lmrbint.com,Phone: +94-11-554.4913,Fax: +94-11-250.0437
"Anova Research and Marketing Consultants Pte Ltd, Taiwan Branch",Asia Pacific,Taiwan,"Unit B,11 Floor 222 Fu Xing South Road Section 1, Taipei Taiwan R.O.C. #02-01 10666 Taipei Taiwan        ",taiwan@anovaresearch.com,Phone: +886 2 2771 3381,Fax: +886 2 2771 3681
"Acorn Marketing and Research Consultants (HK) Ltd, Taiwan Branch",Asia Pacific,Taiwan,"Unit A, 11th Floor 222 Fu Xing South Road, Section 1 10666 Taipei Taiwan        ",taiwan@acornasia.com,Phone: +886-2-2778.2210,Fax: +886-2-2778.2230
"Viewpoint Research &amp; Consulting Co., Ltd.",Asia Pacific,Taiwan,No.71 Sung Chiang Road 104 Taipei Taiwan        ,stephanielien@vow.com.tw,Phone: 886-2-2500.7111,Fax: 886-2-2507.5828
innov8asia (Thailand) ltd,Asia Pacific,Thailand,"20th Floor, Liberty Square 287 Silom Road 10500 Bangkok Thailand        ",info@innov8asia.com,Phone: + 66 (0) 2631 2700,Fax: + 66 (0) 2631 2701
Ipsos (Thailand) Ltd.,Asia Pacific,Thailand,"Unit 16-01, 16-02, 16-03 16th Fl. Times Square Building 246, Sukhumvit 12-14 Rd. 10110 Klongtoey Bangkok Thailand        ",jerome.hervio@ipsos.com,Phone: 662 250 0071,Fax: 662 250 0166
Marketbuzzz,Asia Pacific,Thailand,"100/99 Vongvanij Complex B 29 fl Rama IX Rd, Huaykwang Bangkok Thailand        ",info@marketbuzzz.com,Phone: 662 645 0014,Fax: 662 645 0013
Acorn Marketing and Research Consultants Co. Ltd,Asia Pacific,Thailand,"11th Fl. Sathorn Thani 1 Building 90/26-27 Sathorn Road, Silom, Bangrak 10500 Bangkok Thailand        ",thailand@acornasia.com,Phone: 662 238 2929,Fax: 662 238 2922
BMRS Asia,Asia Pacific,Thailand,"10th Floor, 42 Tower, Soi 42 Sukhumvit Road Bangkok Thailand        ",RFQ@bmrs-asia.com,Phone: +66-81-551.4744,Fax: 662 713 6074
CSN Research Ltd.,Asia Pacific,Thailand,"12A Floor, Sinn Sathorn Tower 77/42 Krungthonburi Rd., Klongsarn 10600 Bangkok Thailand        ",research@csnthailand.com,Phone: 662 440 0140,Fax: 662 440 0179
"INTAGE (Thailand) Co., Ltd.",Asia Pacific,Thailand,"952 Ramaland Building, 15th Floor Rama IV Road, Suriyawongse, Bangrak 10500 Bangkok Thailand        ",contact@th.intage.com,Phone: 662 632 9945,Fax: 662 632 8643
InfoSearch Limited,Asia Pacific,Thailand,"89/12-13 Amornpan 205, Tower 1, 7&amp;11 Flrs Soi Nathong, Ratchadapisek Road, Dindaeng 10400 Bangkok Thailand        ",infosea@truenet.co.th,Phone: 662 248 7662,Fax: 662 248 7667
"Jupiter MR Solutions Co.,Ltd",Asia Pacific,Thailand,"28/226 Phayathai Plaza, 21st Floor, Phayathai Road, Thung Phayathai, Ratchatewi, 10400 Bangkok Bangkok Thailand       ",usa@jupitermr.com,Phone: +66-21293272-3,
ABN Impact (Asia – Thailand),Asia Pacific,Thailand,"6th floor Zuellig House, 1 Silom Road 10500 Bangkok Thailand        ",info@abnimpact.com,Phone: 662 231 6446,Fax: 662 231 6499
Video Research International (Thailand) Ltd.,Asia Pacific,Thailand,"142 Two Pacific Place, 22nd Floor, Unit 2203 Sukhumvit Road, Klongtoey Sub-district, Klongtoey District 10110 Bangkok Thailand        ",info@videor.co.th,Phone: +66(0) 2255-4966,Fax: +66(0) 2255-4962
GfK in Thailand,Asia Pacific,Thailand,"New Phetchaburi Road 1126/2 Vanit Building II, 24th Floor 10400 Bangkok Thailand        ",th@gfk.com,Phone: 02 670 3300,Fax: 662 259 0296
"Anova Marketing &amp; Research Consultants Co., Ltd.",Asia Pacific,Thailand,"Suite 10/194, Trendy Building 27th Floor, Sukhumvit Soi 13, Wattana 10110 Bangkok Thailand        ",thailand@anovaresearch.com,Phone: 662 168 7585,Fax: 662 168 7587
Custom Asia Co. Ltd.,Asia Pacific,Thailand,"1168/65 Lumpini Tower, 23rd Floor, Rama IV Rd., Sathorn, Thungmahamek 10120 Bangkok Thailand        ",sukit@c-asia.com,Phone: 662 649 9799,Fax: 662 649 9788
"Market Support Co., Ltd.",Asia Pacific,Thailand,"1126/2 Vanit Building II, 11th Floor, Unit #1103-1105 New Petchburi Road, Makkasan, Rajthevee 10400 Bangkok Thailand        ",saismorn@marketsupport.co.th,Phone: +662 047 5561-3,Fax: 662 047 5564
Intage Vietnam LLC.,Asia Pacific,Vietnam,"1st Floor, Citilight Tower 45 Vo Thi Sau Street, Da Kao ward, Dist 1, HCMC Ward 17, Binh Thanh District Ho Chi Minh City Vietnam        ",contact@intage.com.vn,Phone: 843 820 5558,Fax: +84 8  3820 5256
VINAMR (Vietnam Marketing Research &amp; Consultants),Asia Pacific,Vietnam,"Block G, Level 16, Unit 21, The Manor Officetel, 91 Nguyen Huu Canh, Binh Thanh District, HCMC +84 HCMC HCMC Vietnam        ",research@vinamr.com.vn,Phone: 846 258 6379,Fax: 846 258 6386
Decision Lab,Asia Pacific,Vietnam,"44 Floor - Bitexco Financial Tower  2 Hai Trieu,  District 1 Ho Chi Minh City Vietnam       ",decision@decisionlab.co,Phone: +84 8 3915 1919,
Indochina Research (Vietnam) Ltd.,Asia Pacific,Vietnam,"3rd Floor, 101 Tran Hung Dao District 1 Ho Chi Minh City Vietnam        ",vietnam@indochinaresearch.com,Phone: +(84) 8 39205900,Fax: +84- 839204483
B&amp;Company Vietnam,Asia Pacific,Vietnam,"No.1 Do Hanh Str., Nguyen Du Ward, Hai Ba Trung Dist. Hanoi Vietnam        ",info@b-company.jp,Phone: +84-4-3978-5165,Fax: +84-4-3978-5180
INFOCUS Mekong Research (Vietnam),Asia Pacific,Vietnam,"1 Dang Huu Pho Street, Thao Dien, An Phu, D.2 75000 Ho Chi Minh City TP HCM Vietnam       ",ralf.matthaes@infocusmekong.com,Phone: +84-903-949-531,
Axis Research Vietnam,Asia Pacific,Vietnam,"Fl.2, ATIC Building, 04 Nguyen Thi Minh Khai St. Dakao, Dist. 1 04 Nguyen Thi Minh Khai St., Dakao Ward, Dist. 1 Ho Chi Minh City Vietnam        ",lebachhoa@axisco-research.com,Phone: 843 911 7979,Fax: 843 911 7240
TITA Research,Asia Pacific,Vietnam,"5th Floor, Lu Gia Plaza 70 Lu Gia Street, Ward 15, District 11 70000 HCMC Vietnam        ",info@titaresearch.com.vn,Phone: +84 908 392 856,Fax: +848 62 999 867
Acorn Marketing and Research Consultants (Vietnam) Ltd,Asia Pacific,Vietnam,"Unit 201-202 Level 2, Me Linh Point Tower 2 Ngo Duc Ke, District 1 238961 Ho Chi Minh City Ho Chi Minh City Vietnam        ",vietnam@acornasia.com,Phone: +84-8-3823.3007,Fax: +84-8-3823.3006
N-equals Vietnam,Asia Pacific,Vietnam,150/9 Nguyen Trai Street District 1 Ho Chi Minh City Vietnam        ,robert@n-equals.com,Phone: +84-8-3925 3580/81,Fax: +84-8-3925 3582
Kadence International Co. Ltd,Asia Pacific,Vietnam,"4th Floor, HMC Tower 193 Dinh Tien Hoang Street District 1, 70000 Ho Chi Minh City Vietnam        ",VIETNAM@KADENCE.COM,Phone: +84-873050087,Fax: 843 820 7915
ABBEY-MELNIK,South America,Argentina,Estrada 2817 Olivos 1636 Buenos Aires Buenos Aires Argentina        ,claudia@abbey-melnik.com,Phone: +54.11.4.799.8842,Fax: +54.11.4.794.1461
OH! Panel,South America,Argentina,Av. Callao 1234 piso 10-09 C1023AAS Capital Federal Buenos Aires Argentina        ,angelesaiassa@ohpanel.com,Phone: 5491157501234,Fax: 54.11.511.1410
KNACK®,South America,Argentina,Céspedes 3550 C1427EAB Buenos Aires Argentina        ,info@knack.com.ar,Phone: +54-11-4555.3999,Fax: +54-11-4555.3999
"Markwald, La Madrid &amp; Asociados",South America,Argentina,Paraguay 1840 - 5° Piso C1121ABB Buenos Aires Argentina        ,mlamadrid@marklam.net,Phone: +54-11-4813.3378,Fax: +54-11-4816.0589
IMSUD,South America,Argentina,Manuela Pedraza 1756 C1429CBF Buenos Aires Caba Argentina        ,info@imsud.com.ar,Phone: +54-11-4704-7070,Fax: +54-11-4703-1010
Mega Research,South America,Argentina,NICETO VEGA 4736 1414 BUENOS AIRES Buenos Aires Argentina        ,info@megaresearch.net,Phone: 5491169320000,Fax: 91169320000
Datos &amp; Estrategias,South America,Argentina,Austria 2469-8°A 1425 Buenos Aires Argentina       ,arg@datosyestrategias.com,Phone: +54 11 48021646,
Quantum Argentina Fieldwork,South America,Argentina,Padilla 876 2º Ciudad de Buenos Aires 1414 Buenos Aires CABA Argentina       ,quantum@quantumargentina.com,Phone: +54-9-11-5725-4924,
Fine Research - The LatAm Field Company,South America,Argentina,Olazabal 1334 C1428ATL Ciudad de Buenos Aires Argentina        ,field-la@fine-research.com,Phone: +54-11-4896.4180,Fax: +54-11-4896.4180 105
GfK in Argentina,South America,Argentina,Florida 537 Piso 25 Galería Jardín Buenos Aires Argentina        ,ar@gfk.com,Phone: +54-1148155567,Fax: +54-1148114005
Focus 99,South America,Argentina,Uruguay 782 2nd. Floor 1015 Buenos Aires Buenos Aires Argentina       ,sandra@focus99.com,Phone: 54-11-4371-9849,
DatosClaros,South America,Argentina,Conde 2024 1B C1428DAF Buenos Aires Buenos Aires Argentina       ,kahane@datosclaros.com,Phone: +54-1141074107,
Research Ahead,South America,Argentina,Ing. Arcos 2837 2nd floor Ciudad Autonoma de Buenos Aires 1429 Buenos Aires Buenos Aires Argentina        ,belen@research-ahead.com,Phone: +54-911-6643-0178,Fax: +54-1147353791
Dichter &amp; Neira Bolivia,South America,Bolivia,"Avenida Cristóbal de Mendoza esq Libertad,  Edificio Castelo Blanco,  of 7g Santa Cruz de la Sierra Santa Cruz Bolivia       ",bolivia@dichter-neira.com,Phone: +591-7019-3378,
Captura Consulting SRL,South America,Bolivia,"Equipetrol, Comercial Chuubi, Of. # 22 4069 Santa Cruz Santa Cruz Bolivia        ",sstraube@capturaconsulting.com,Phone: 591 3 3360606,Fax: 591 3 3360606
Expert Research,South America,Brazil,"Coelho Lisboa, 442 03323-040 São Paulo SP Brazil       ",expert@expertresearch.com.br,Phone: +55 11 2225-1838,
Psyma Pesquisas de Mercado Ltda.,South America,Brazil,"Avenida Jandira, 295, Conj. 303 Moemal 04080-001 Sao Paulo Brazil        ",holger.rothemund@psyma-brasil.com,Phone: +55-11-2925-6402,Fax: +55-11-2925-6403
Fine Brasil - The LatAm Field Company,South America,Brazil,"Paulista Av. 2494, 7th floor, Suite 73 01310-300 São Paulo SP Brazil        ",field-la@fine-research.com,Phone: +54-11-4896.4180,Fax: +54-11-4896.4180 105
Inception,South America,Brazil,"The Square Granja Viana - Rodovia Raposo Tavares, km 22,1 Bloco F - Sala 222 06709-900 Cotia São Paulo Brazil       ",inception@inception.com.br,Phone: +5511 28989855,
GfK in Brazil,South America,Brazil,"R. Gomes de Carvalho, 1456-1500 8-11 andares São Paulo Brazil        ",bra@gfk.com,Phone: +55-11 2174-3902,Fax: +55-11-2174.3901
QualiBest.Com Servicos Consultoria e Assessoria em Internet Ltda.,South America,Brazil,"Rua Quata, 845 04546-044 Sao Paulo Sao Paulo Brazil        ",rfq.brazil@qualibest.com.br,Phone: 55 11 3846-0351,Fax: 55 11 3846-6121
Ideia Inteligencia em Pesquisa Ltda.,South America,Brazil,"Avenida Marechal Camara, 160 Sala 1213 - 12 andar 20020-080 Rio de Janeiro Brazil       ",deborah@ideiainteligencia.com.br,Phone: +55-11999541571,
Albar Research,South America,Brazil,"Av. Vereador José Diniz, 3720 CJ.1206 04604-007 Sao Paulo Sao Paulo Brazil        ",albar@albar-research.com,Phone: +55 11 5041-1818,Fax: +55-1150411818
Análise &amp; Síntese Pesquisa e Marketing,South America,Brazil,Rua Itápolis 1346 Pacaembu 01245-000 São Paulo SP Brazil        ,daniel@asintese.com.br,Phone: +55-11-3823-3828,Fax: +55-11-3823-3822
CONECTA,South America,Brazil,Alameda Santos 2101 3o andar 01419002 Sao Paulo Sao Paulo Brazil       ,info@conecta-i.com,Phone: +551130699596,
Idealis Pesquisa e Comunicacao Ltda,South America,Brazil,"Rua Das Castanheiras, 320 Sala 301 - Santa Amélia - Belo Horizonte - Minas Gerais Avenida Paulista, 726 17º andar - Bela Vista, São Paulo - SP 31560210 . Brazil        ",comercial@idealispesquisa.com.br,Phone: +55 31 34956001,Fax: +55 31 34956001
Consumer Consultoria em Pesquisa de Mercado S/C Ltda,South America,Brazil,"Al. das Boninas, 99 CEP Mirandópilis 04049-060 São Paulo SP Brazil        ",clarice@consumer-la.com.br,Phone: +55-11-5072.2121,Fax: +55-11-5072.2121
AG3 Consulting,South America,Brazil,"Rua Canto das Corujas, 419 Rio Vermelho 88060239 Florianopolis Brazil        ",geisa@ag3consulting.com.br,Phone: 554896162060,Fax: 554832096025
ABOUT BRAZIL MARKET RESEARCH,South America,Brazil,"Rua Dom Joaquim de Melo, 407  - Parquelandiade 60430-660 Fortaleza CE Brazil        ",wagner@aboutbrazilmr.com,Phone: 55-85-3021-5784,Fax: +55-853253.3293
Meta Instituto De Pesquisa De Opiniao Ltd,South America,Brazil,"Av. Boqueirao, 706 sala 102 Bairro Estancia Velha 92032-470 Canoas Brazil        ",flavio@metapesquisa.com.br,Phone: +55-5133152456,Fax: +55-5133396933
Latin-Field Brazil,South America,Brazil,"Rua Marques do Paraná, 471 – sl 5 05086-010 São Paulo São Paulo Brazil       ",info@latin-field.com,Phone: 1 512 828 7171,
Exafield Brazil,South America,Brazil,rua manoel isidoro da silveira florianopolis SC Brazil       ,sand@exafield.com.br,Phone: 554832118802,
Demanda Pesquisa E Desenvolvimento de Marketing,South America,Brazil,"Rua Consolação, 1992- 4th floors 01302-001 São Paulo Brazil        ",demanda@demanda.com.br,Phone: +55-11-3218.8000,Fax: +55-11-3218.8003
NOGAR - Marketing  Intelligence,South America,Brazil,"Rua Itapeva, 378 01332-000 Sao Paulo Sao Paulo Brazil        ",nogar@nogar.com.br,Phone: 55 11 4119-4652,Fax: 55 11 3266-6692
Insight Assessoria e Pesquisa Ltda.,South America,Brazil,"Av. Rubem Berta, 1479 04074-010 São Paulo - SP Brazil        ",insight@insightbr.com,Phone: +55-11-5581.9900,Fax: +55-11-5581.3025
Seycam Ltda.,South America,Chile,Carrascal 3585 Quinta Normal 8530028 Santiago Chile       ,info@seycam.cl,Phone: 562 817 8500,
Fine Chile - The LatAm Field Company,South America,Chile,"Avenida Providencia 2008, oficina C. Providencia. Santiago. 7500000 Providencia, Santiago de Chile Santiago de Chile Chile        ",field-la@fine-research.com,Phone: (+54) 11 4896-4180,Fax: +54-11-4896.4180 105
GfK in Chile,South America,Chile,Avenida Americo Vespucio Sur 100 - Piso 7 Las Condes 7510053 Santiago Chile        ,cl@gfk.com,Phone: 562 479 2003,Fax: 562 479 2200
Colombia On-Target,South America,Colombia,"Kr 10 No 97A-13 Torre B of 202 Bogota Trade Center T2, Chico Norte II Sector Bogota Colombia       ",contact@onmarketresearch.net,Phone: 571 381 9453,
Latin Field Colombia,South America,Colombia,Kr 10 No 97A - 13T B Oficina 202 Bogotá Colombia       ,info@latin-field.com,Phone: 1 512 828 7171,
Dichter &amp; Neira Colombia,South America,Colombia,"Calle 76, No 11-17, Torre Nogales, Piso 8 Avenida Calle 100 # 9A-45 Oficina 603 Bogota Colombia        ",krodriguez@dichter-neira.com,Phone: +0571-317.9131,Fax: 571 257 5066
Synapsis,South America,Colombia,Carrera 15 # 93A -84 oficina 301 Bogota Colombia       ,leonardo.cascante@synapsis-rs.com,Phone: 571 744 9107,
Inspira Research SAS,South America,Colombia,Carrera 10 # 1-131 oeste San Antonio Cali Colombia       ,a.vargas@inspirar.com.co,Phone: 572 893 7234,
Fine Research Latin America,South America,Colombia,Carrera 19 A No 2-49 Apto 301 11001000 Bogotá Colombia       ,jennyrivera@fine-research.com,Phone: +541148964180,
GC Research,South America,Colombia,Calle 70A 13 43 Piso 2 110231 Bogota DC Colombia       ,ricardo.guerrero@gc-research.com,Phone: 571 807 5077,
GfK in Colombia,South America,Colombia,"Carrera 13, No. 93 - 68 Oficina 201 Bogota Colombia        ",co@gfk.com,Phone: 571 640 1250,Fax: 571 640 1250
CID-Gallup,South America,Costa-Rica,50e 150s Colegio Medicos Sabana Sur San José Costa Rica        ,cid@cidgallup.com,Phone: 506 220 4101,Fax: 506 231 2145
Dichter &amp; Neira Costa Rica,South America,Costa-Rica,"Del Mall San Pedro, 200 mt Norte Edificio Lachner, Piso 3 San Jose San Jose Costa Rica        ",costarica@dichter-neira.com,Phone: +506-2234.9575,Fax: +506-2225.1915
"UNIMER CENTROAMERICA, Panamá y República Dominicana",South America,Costa-Rica,Bo. Dent. 150 Oeste del Parqueo posterior del Mall San Pedro 12743-1000 San José Costa Rica        ,cpaniagua@unimercentroamerica.com,Phone: +506-2224.2222,Fax: +506-2280.3080
MERCAPLAN Central America &amp; Caribbean (Costa Rica),South America,Costa-Rica,"75mts sur de la entrada al Blvd. Los Yoses, #76, San Jose Costa Rica        ",info@mercaplan.com,Phone: +506-2280-4938,Fax: +504-25453100
MERCAPLAN Central America &amp; Caribbean (Dominican Republic),South America,Dominican-Republic,"C/Paseo de los Indios, #49, Los Millones Santo Domingo Dominican Republic       ",info@mercaplan.com,Phone: 809 537 1846,
Dichter &amp; Neira Dominican Republic,South America,Dominican-Republic,"Paseo de los Locutores No.6 Piantini, Condominio Ginza Dominicana Suite 401. Santo Domingo Dominican Republic        ",repdominicana@dichter-neira.com,Phone: 1 809 566 2455,Fax: 1 809 566 4248
Mardis Cia. Ltda.,South America,Ecuador,Shyris N4231 y Tomás de Berlanga  Edificio Senader Piso 5 Quito Pichincha Ecuador        ,kmoya@mardisresearch.com,Phone: +593-2-246.8468,Fax: +593-2-246.8469
Dichter &amp; Neira Ecuador,South America,Ecuador,"Calle Portugal y 6 de diciembre , Edificio Zyra 3rd floor 170135 Quito Pichincha Ecuador       ",ecuador@dichter-neira.com,Phone: 593 2380 9550,
ANALITIKA Market Research,South America,El-Salvador,"Cumbres De La Escalon, Avenida Chanmico, No. 3-b, 503 San Salvador San Salvador El Salvador       ",info@analitika.com.sv,Phone: +503 7787-9549,
MERCAPLAN Central America &amp; Caribbean,South America,El-Salvador,"Col. Escalón, 3ra calle Poniente, Pasaje Stahl, #147, San Salvador El Salvador        ",info@mercaplan.com,Phone: +503.2132.1910,Fax: +503-2224.2041
Dichter &amp; Neira El Salvador,South America,El-Salvador,"Alameda  Dr Manuel E. Araujo Barrio Escalon,  Edificio Palic, Piso 4 San Salvador El Salvador        ",elsalvador@dichter-neira.com,Phone: +503-2298.4800,Fax: +503-2298.4811
Dichter &amp; Neira Guatemala,South America,Guatemala,"Edifico Europlaza Torre 1, Nivel 18 Guatemala City Guatemala Guatemala        ",guatemala@dichter-neira.com,Phone: +502-2387.6900,Fax: +502-2387.6909
MERCAPLAN Central America &amp; Caribbean (Guatemala),South America,Guatemala,"Edificio Géminis 10, Torre Sur, #1702, Guatemala City Guatemala        ",info@mercaplan.com,Phone: +502-2203.4800,Fax: +502-2338.0416
MERCAPLAN Central America &amp; Caribbean (Honduras),South America,Honduras,"Blvd. Los Proceres, #238 San Pedro Sula Honduras        ",info@mercaplan.com,Phone: +504-2545-3100,Fax: +504-2545-3101
Dichter &amp; Neira Honduras,South America,Honduras,"Col. Palmira, frente al Hotel Honduras Maya Edificio Palmira, Piso 2 Tegucigalpa Francisco Morazan Honduras        ",honduras@dichter-neira.com,Phone: 504 235 8156,Fax: 504 235 8135
Dichter &amp; Neira Jamaica,South America,Jamaica,"Winchester Business Centre, Unit 61 15 Hope Road, Kingston 10, St. Andrew. Kingston Jamaica        ",jamaica@dichter-neira.com,Phone: 1 876 622 4154,Fax: 1 876 631 4572
EPI Marketing,South America,Mexico,G. Gonzalez Camarena 1450-7 Santa Fe 01210 Mexico City Mexico        ,info@epimarketing.com,Phone: 52-55-12096606,Fax: +52-55-12096606
Psyma Latina,South America,Mexico,Rio Rhin 22 - 204 Col. Cuauhtemoc 06500 Mexico City Mexico        ,esomar@psyma-latina.com,Phone: +52-55-5592.0572,Fax: +52-55-5535.0141
Motif  Research,South America,Mexico,Seneca 134 2nd floor Polanco CP 11570 Mexico City DF Mexico       ,yolanda@motif.mx,Phone: +5215513659055,
BEST RESEARCH,South America,Mexico,Emilio Castelar 240 Piso III Col. Polanco 11560 Mexico Distrito Federal Mexico        ,erobles@best-research.com.mx,Phone: +52 (55) 2624.2708,Fax: +52 (55) 2624.2709
"Analytical Glance, SC",South America,Mexico,"Concepción Béistegui 1702, Colonia Narvarte, Delegación Benito Juárez 03020 Mexico City Distrito Federal Mexico        ",informes@analyticalglance.com,Phone: +52-55-55430604,Fax: +52-55-55430644
MARES Consumer Intelligence,South America,Mexico,RÃ­o Duero 29 Col. CuauhtÃ©moc 06500 Mexico City DF Mexico        ,contacto@mares-ci.com.mx,Phone: +52 55 55365998,Fax: +52-55-5687.2875
Latin-Field Mexico,South America,Mexico,"World Trade Center - Montecito #38, piso 2, oficinas 7 y 8 Colonia Nápoles 06170 Mexico City Mexico        ",miguel@latin-field.com,Phone: +52-55-5250.2799,Fax: +52-7221974010
"Brain - Brand Investigation, S.A. de C.V.",South America,Mexico,Ejercito Nacional # 436 - Piso 8 Col. Chapultepec Morales 11570 Mexico City Mexico       ,lruvalcaba@brain-research.com,Phone: +52-55-4211.1000,
Racional &amp; Emocional,South America,Mexico,Concepcion Besitegui No.703-1 Col. Del Valle 03100 Mexico City Del. Benito Juarez Mexico        ,contacto@racionalyemocional.com,Phone: +52 (55) 5536-4022,Fax: +52 (55) 5536-4022
Fine Mexico - The LatAm Field Company,South America,Mexico,"Tintoreto #32, Office 103, Building A 03700 Mexico DF D.F. Mexico        ",field-la@fine-research.com,Phone: +54-11-4896.4180,Fax: +54-11-4896.4180 105
"Servimer Research Global, S.A. de C.V.",South America,Mexico,Tuxpan No. 18 piso 1 06760 Distrito Federal Distrito Federal Mexico        ,servimer@servimer-research.com,Phone: 52 (55) 52 64 89 32,Fax: 52 (55) 52 64 89 32
The Cocktail America,South America,Mexico,"San Luis Potosi 196 Col Roma Norte, Del Cuauhtemoc 06700 Mexico Df Mexico Df Mexico        ",mexico@tcanalysis.com,Phone: +525565482935,Fax: +525565482935
Evamerc S.C.,South America,Mexico,"Tlaxcala 46,  Col. Roma 06700 Mexico DF Mexico        ",jorgevaldes@evamerc.com.mx,Phone: +52-55-5584.8091,Fax: +52-55-5264.2829
On-Target,South America,Mexico,RFC: BOT050316HR4 Sierra Candela 35 11000 Mexico City Mexico        ,latamsupport@onmarketresearch.net,Phone: +52 55 5260-0924,Fax: +52-55 5260-1377
GfK in Mexico,South America,Mexico,Blvd. Manuel Avila Camacho 5 Mexico City Mexico        ,mx@gfk.com,Phone: +52 554 1603800,Fax: 554 160 3800
AMARO &amp; GLEIZER INVESTIGACIÃN CUALITATIVA,South America,Mexico,"Homero 1933, Los Morales  Polanco 11560 Distrito Federal Mexico        ",laura@amaroygleizer.com,Phone: + 52 55 53 95 95 00,Fax: + 52 55 53 95 95 01
Dichter &amp; Neira Mexico,South America,Mexico,"Ave. Ejercito Nacional, Polanco Chapultepec Edificio 598, Pisos 5 y 6 11560 Mexico City Mexico D.F. Mexico       ",lbrizuela@dichter-neira.com,Phone: +52-0155-6389.3088,
"Analitica Marketing, S.A. de C.V.",South America,Mexico,Puebla 319 Colonia Roma 06700 Mexico City Mexico        ,info@analiticamkt.com,Phone: +52-55-5211.5000,Fax: +52-55-5256.0839
Q Solutions,South America,Mexico,Homero 1425 - Suite 902 Col. Polanco 11510 México DF Mexico        ,elerek@solucionesq.com.mx,Phone: +52-55-5395.8838,Fax: +52-55-5395.4516
Estudios Psico Industriales/Brand Synergy/SInergia,South America,Mexico,Flamarion #5 Colonia Anzures 11590 Mexico City distrito federal Mexico        ,epsi@epsiglobal.com,Phone: 52 1 5555014459,Fax: +52-55-545.8922
MERCAPLAN Central America &amp; Caribbean (Nicaragua),South America,Nicaragua,"Bolonia, del canal 2, 2 cuadras abajo, 30 vrs al sur, #24, Managua Nicaragua        ",info@mercaplan.com,Phone: +505.2266.6769,Fax: +505.2266.6769
Dichter &amp; Neira Nicaragua,South America,Nicaragua,"Residencial Altamira Oeste, Del Banpro Altamira 1 Cuadra Sur, 1/2 Cuadra Oeste, Numero 111. Managua Managua Nicaragua        ",nicaragua@dichter-neira.com,Phone: +505-2278.3201,Fax: +505-2252.5951
Dichter &amp; Neira Panama,South America,Panama,"Avenue Ricardo J. Alfaro Century Tower, 21st Floor Panama City Panama Panama        ",panama@dichter-neira.com,Phone: 507 236 4000,Fax: 507 236 2233
MERCAPLAN Central America &amp; Caribbean,South America,Panama,"San Francisco, Calle 64 y Las Caracuchas, #12, Panama Panama       ",info@mercaplan.com,Phone: 507 270 7809,
Dichter &amp; Neira Paraguay,South America,Paraguay,"Ave. Mariscal Lopez 3794, esquina Cruz del Chaco Asunción Distrito Capital Paraguay        ",paraguay@dichter-neira.com,Phone: +595-21-6207700,Fax: +595-216207780
Datum Internacional S.A.,South America,Peru,Ave. Trinidad Moran 740 14 Lima Peru        ,datum@datum.com.pe,Phone: 511 215 0600,Fax: 511 221 5147
Dichter &amp; Neira Peru,South America,Peru,Dichter &amp; Neira Peru Av. Alfredo Benavides 768. Oficina 1102 L18 Lima Lima Peru       ,peru@dichter-neira.com,Phone: 511 616 0555,
Arellano Marketing,South America,Peru,Paseo de la República 3952 Miraflores Lima Lima Peru        ,rjarellano@arellanomarketing.com,Phone: 511 221 7330,Fax: 511 222 4086
DMR Insights Limited,South America,Saint-Lucia,Massade 00000 Gros Islet Saint Lucia       ,projects@dmrinsights.com,Phone: 1 270 681 4706,
MAJO Marketing Research CA,South America,Venezuela,"Calle Cayaurima, El Taparo, 2H El Marques 1070 Caracas Dtto. Capital Venezuela       ",mbpachecog@majomarketing.com,Phone: 58 212 8802041,
GfK in Venezuela,South America,Venezuela,"Avenida Principal de El Bosque, Torre Credicard Caracas Venezuela       ",gfk@gfk.com,Phone: 424 160 0027,
"StatMark Group, S.A.",South America,Venezuela,"Multicentro Empresarial del Este, Nivel Libertador, Nucleo A, Piso 12, Of 123 A Avenida Libertador, Chacao 1060 Caracas Miranda Venezuela        ",statmark@statmark.net,Phone: +58-212-918.2100,Fax: +58-212-285.9620
Idealween,Middle East,Iran-Islamic-Republic-of,"48 Javaherian st. Satari Hwy. Apt 17 Tehran Tehran Iran, Islamic Republic of       ",info@idealween.com,Phone: +98 912 5015381,
Eksen Research Iran,Middle East,Iran-Islamic-Republic-of,"Ferdousi Square, Manouchehri St. Goudazi Alley No: 15/20 Tehran Iran, Islamic Republic of        ",deniz.serdar@eksen.eu,Phone: +902122916006,Fax: +902122916106
Rahbar Bazaar (Headquarter in IRAN),Middle East,Iran-Islamic-Republic-of,"#3, North Didar st., Nelson Mandella Ave. 1991613875 Tehran Tehran Iran, Islamic Republic of        ",info@rahbarbazaar.com,Phone: +98-21-8878-2023,Fax: +98-218878-2023
IranPoll,Middle East,Iran-Islamic-Republic-of,"IranPoll No. 8, Sayeh St., Vali Asr Ave. 19677 Tehran Iran, Islamic Republic of        ",Sales@IranPoll.com,Phone: +1-84-IranPoll,Fax: +1-84-IranPoll
TOPLANS,Middle East,Iran-Islamic-Republic-of,"No. 77, Khoramshahr (Apadana) st., Tehran Iran, Islamic Republic of       ",info@toplans.com,Phone: +98 (21) 220 14 220,
IRC - AGI (AGAH Group International),Middle East,Iran-Islamic-Republic-of,"Agah Building No. 13, North 4th Vahdat Alley, Paeezan St., Furthur Ashrafi Esfahani Highway, Hakim-West Highway - 1473684641 Tehran Tehran Iran, Islamic Republic of        ",info@irc-group.org,Phone: +98-2144016731,Fax: +98-2144016731
Bazaar Negar Marketing Research Consultants,Middle East,Iran-Islamic-Republic-of,"Unit 201, 13 Behrooz st, Mohseni (Madar)Sq, Mirdamad Blv, Tehran 19119,Iran PO Box 15875-9684 Tehran Tehran Iran, Islamic Republic of        ",parissa.p@bazaarnegar.com,Phone: +98-21-22900313,Fax: +98-21-22900316
DTR - Dadeh Tadbir Rahnema Research Co.,Middle East,Iran-Islamic-Republic-of,"Unit 6, No. 1,4th Alley, Shah Nazari Street, Mirdamad Blvd. Unit 6, No. 1,4th Alley, Shah Nazari Street,  Mirdamad Blvd. 154 791 66 17 Tehran Tehran Iran, Islamic Republic of        ",a.karimi@dtrco.ir,Phone: +98 21 88 190 263,Fax: +98-2188190263
EMRC (EMROOZ MARKETING RESEARCH COMPANY),Middle East,Iran-Islamic-Republic-of,"No. 7, Sheikh Bahaeie Sq, Tehran, Iran Molla Sadra Ave. 1991815545 Tehean Tehran Iran, Islamic Republic of        ",emrc@emrc.info,Phone: +98-21-88-620-500,Fax: +98-21-88-054-753
JMR Iran - Jameehnegar Market Research Institute,Middle East,Iran-Islamic-Republic-of,"No.4, Navak Street, Africa Blvd. 15186-46891 Tehran Iran, Islamic Republic of        ",info@jameehnegar.com,Phone: +98-21-8866.2480,Fax: +98-21-8866.2481
ONI Iran,Middle East,Iran-Islamic-Republic-of,"Unit. 2, No.9, Mahtab Bldg.. Valadkhani St. Ashrafi Esfahani Highway Tehran Tehran Iran, Islamic Republic of        ",info@oni-group.com,Phone: +98-21-44382768,Fax: +98-21-44219808
ASHARQ Research Center.Ltd,Middle East,Iraq,"Al – Mansur, Mahla No.609 Zaqaq (street no):3, building no: 48 28103 Baghdad Iraq        ",info@ashraqcenter.com,Phone: +96-47-9011.07640,Fax: +96-41-543.2673
IIACSS,Middle East,Iraq,Baghdad-Abu Nuwas Str. Karaddah Baghdad Iraq       ,munqith_daghir@iiacss.org,Phone: +962-799-672.229,
ALMOASHIR Company for market researches,Middle East,Iraq,- - - Baghdad Iraq       ,info@almoashirmr.com,Phone: +9647712901057,
YouGov Iraq,Middle East,Iraq,. Ankawa Erbil Iraq       ,info.iraq@yougov.com,Phone: +964 751 757 2797,
Brandman Marketing Research &amp; Consultancy,Middle East,Israel,57 Igal Alon st. 67891 Tel Aviv Israel        ,office@brandman.co.il,Phone: +972-3-689.8100,Fax: +972-3-689.8101
iPanel Ltd.,Middle East,Israel,Bar Kochva 21 51260 Bnei Brak Israel        ,research2@ipanel.co.il,Phone: +972-37517676,Fax: +972-37516969
The New Wave Research,Middle East,Israel,25 Efal Street Petach Tikva 4951125 Ramat Gan Israel        ,welcome@nwr.co.il,Phone: +972-3-576.6666,Fax: +972-3-576.6636
PanelView,Middle East,Israel,22 Tuval St. POB 3349 5213601 Ramat Gan Israel        ,ziv@panelview.co.il,Phone: +972-3-7576333,Fax: +972-3-6036455
Panels LTD,Middle East,Israel,Hahagana 34 St. 67721 Tel Aviv Israel        ,info@panelsltd.com,Phone: +972-3-6365100,Fax: +972-3-6365105
Geocartography Knowledge Group,Middle East,Israel,Geocartography Knowledge Group Menahem Gegin 154 T.A. 6482107 Mikud Israel        ,research@geocartography.com,Phone: +972-3-768.2222,Fax: +972-3-768.2223
GfK in Israel,Middle East,Israel,"32 Habarzel St Ramat-Ha'hayal, Building B, 3rd Floor, 69710 Tel-Aviv Israel        ",Eliran.milo@gfk.com,Phone: +972-3-6448640,Fax: +972-3-6448641
SHILUV  I2R - Market Research and Strategic Planning,Middle East,Israel,"Beit David, 138 Jabutinski Road Fifth Floor 52602 Ramat Gan Israel        ",info@shiluv-I2R.com,Phone: +972-3-575.4498,Fax: +972-3-575.4497
Meida Shivuki C.I,Middle East,Israel,4 bareket st. 49170 Petach Tikva Israel        ,talia@meidashivuki.co.il,Phone: +972-3-922.0099,Fax: +972-3-922.0070
PORI,Middle East,Israel,10 Ha'arba'a St. 64739 Tel Aviv Israel        ,itzikr@pori.co.il,Phone: +972-3-561.2443,Fax: +972-3-561.0960
The Market Research Organisation (MRO) - Jordan,Middle East,Jordan,"AMRA Commercial Center 6th Circle, Jebel Amman Amman Jordan        ",nadine.farsoun@mrocompany.com,Phone: +962-6-552.6541,Fax: +962-6-552.6542
Ipsos Jordan,Middle East,Jordan,"Wasfi Al-Tal Street, Tabba Group Commercial Complex 4th Fl, P O Box 830871 11183 Amman Jordan        ",admin.jordan@ipsos-mena.com,Phone: +962-6-569.7193,Fax: +962-6-569.7196
Service Hero,Middle East,Kuwait,Omar Ibn Al-Khattab Street P.O. Box 4981 Safat 13050 Kuwait City Kuwait        ,feedback@servicehero.com,Phone: +965.2244.1646,Fax: +965.2244.5562
Ipsos Kuwait,Middle East,Kuwait,"Beirut Street, Hawally Boubyan Bank building, 5th floor PO Box 22417, Safat 13085 Kuwait Kuwait        ",Admin.Kuwait@Ipsos.com,Phone: +96522626025,Fax: +96522626019
InfoPro Research,Middle East,Lebanon,"Hamra Street, Piccadilly Center, 2nd Floor Hamra 11-4355 Beirut, Lebanon Beirut Lebanon        ",infopro@infopro.com.lb,Phone: 961 173 9777,Fax: 961 174 9090
Martpoint Marketing Research Consultants,Middle East,Lebanon,"Ashrafieh - Sassine Square, Asco Center, 9th Floor Beirut Lebanon        ",info@martpoint.com,Phone: 961 120 0173,Fax: 961 121 6928
"REACH (Research &amp; Consulting House) , Lebanon",Middle East,Lebanon,"Furn el Chebbak, Dalal Center 3rd &amp; 4th floor Beirut Lebanon        ",infodep@reachmass.com,Phone: 961 128 4100,Fax: 961 545 9369
Ipsos Lebanon,Middle East,Lebanon,"Dekwaneh, Ipsos Bldg. 55103 Beirut Lebanon        ",admin.lebanon@ipsos.com,Phone: 961 149 4136,Fax: 961 150 2643
The Market Research Organisation (MRO) - Lebanon,Middle East,Lebanon,"Bekhazi Building, 3rd Floor Sidani Street Beirut Lebanon        ",nadine.farsoun@mrocompany.com,Phone: 961 135 4173,Fax: 961 134 0831
Information International SAL,Middle East,Lebanon,"Martyrs Square, Beirut Central District Al-Borj (An-Nahar) Bldg., 4th Floor 11-4353 Beirut Lebanon        ",infointl@information-international.com,Phone: 961 198 3008,Fax: 961 198 0630
Business Zone,Middle East,Qatar,"12th Floor, Al Reem Tower, West Bay Doha Qatar        ",da@businesszoneco.com,Phone: +974 4437 6337,Fax: +974 4431 1663
Focal Point,Middle East,Saudi-Arabia,"Office 8, Surooh Business Center Hail St. 21313 Jeddah Saudi Arabia        ",info@focalpoint.com.sa,Phone: +966-12-6521850,Fax: +966-12-6521850
"REACH (Research &amp; Consulting House), KSA",Middle East,Saudi-Arabia,"Medina Road and Falasteen street in Jeddah Olaya circon building 10, Riyadh 21313 Jeddah &amp; Riyadh Saudi Arabia        ",m.khoury@reachmass.com,Phone: +966-12-284.3499,Fax: +966-12-284.3488
Pharma Dynamics (Saudi Arabia),Middle East,Saudi-Arabia,"Classy Sama Building, At Tawbah Al-Sharafeyah - Cross King Abdullah Street 1st P.O. Box 311 21331 Jeddah Jeddah Saudi Arabia        ",wael@pharmadynamics.org,Phone: (+966) 56 53 00 825,Fax: (+2) 0111 600 91 41
Top Level MENA,Middle East,Saudi-Arabia,"office  number 412, Fourth Floor, Burj El Mamlka El Tojari, El Malk Fahd Street, Jeddah 11390 Jeddah Jeddah Saudi Arabia        ",info@toplevel-mena.com,Phone: 00966562215848,Fax: +966-12932957
Spectrum,Middle East,Saudi-Arabia,KSA Jeddah and Riyadh 21521 Jeddah Jeddah Saudi Arabia        ,ahmed.morsi@spectrum-ksa.com,Phone: 00966126434460,Fax: 00966126452559
"C&amp;O MARKETING, KSA",Middle East,Saudi-Arabia,Al Rawdah District Al Madinah Road Jeddah Saudi Arabia       ,MENA@C-O-MARKETING.AE,Phone: +966-12-652-9205,
Nagy Research,Middle East,Saudi-Arabia,Business Plaza - West Tower Jeddah Saudi Arabia        ,nadine.sobhy@nagyresearch.com,Phone: +966 54 573 7822,Fax: +966 2 651 96 95
Arabian Echo,Middle East,Saudi-Arabia,Jeddah - KSA 3365 Jeddah Saudi Arabia        ,hana.balaa@arabian-echo.com,Phone: +966 2 6683660,Fax: +966 2 6611619
INSIGHT Consultancy &amp; Research (ICR),Middle East,Saudi-Arabia,Al Rajhi Village Jeddah Saudi Arabia        ,n.katerji@icr-me.com,Phone: +966503004904,Fax: +966 12 6924385
YouGov Saudi Arabia,Middle East,Saudi-Arabia,"Prince Mohammed Bin Abdulaziz St (Al Tahliyah St), Al Rawdah Dist. Safwat Alamal Compound, Villa No 7 Jeddah Saudi Arabia        ",infome@yougov.com,Phone: +966 12 6677992,Fax: +966 12 6679534
RMR - Middle East &amp; Africa,Middle East,Saudi-Arabia,Rabwa Area P.O. Box: 23369 11426 Riyadh Saudi Arabia        ,wael@rmr-research.com,Phone: +966-5031-564-29,Fax: +966-149-156-75
MASMI Middle East,Middle East,Saudi-Arabia,"Al Sharfayah District, Alwaleed Centre Second Floor Office 206 Khalid Ibn Al Waleed St (opposite UAE Consulate) Riyadh Saudi Arabia        ",masmi-saudi@masmi.com,Phone: +966-50-585.8340,Fax: +966-1-462.4193
MedicalOne Market Research,Middle East,Saudi-Arabia,Riyadh Riyadh Saudi Arabia       ,info@medicalone.co,Phone: +966543051849,
FeedBack Market Research - UAE,Middle East,United-Arab-Emirates,"1902-1904, Golden Tower Buhairah Corniche 29663 Sharjah United Arab Emirates        ",mmrao@feedbackme.ae,Phone: +971-6-574.7979,Fax: +971-6-574.7749
The Silver Lining Fz. LLC,Middle East,United-Arab-Emirates,"Dubai Media City Building 8, Suite 502 502192 Dubai United Arab Emirates        ",info@thesilverlining.ae,Phone: 971-4-4279831,Fax: 971-4-4279830
SWAT Research Field Force,Middle East,United-Arab-Emirates,"Sharjah, Taawun Road Taawun 1 Tower 7034 Sharjah United Arab Emirates        ",swat@swat.ae,Phone: +97-165-773.331,Fax: +97-165-773.566
IDS RESEARCH &amp; CONSULTANCY,Middle East,United-Arab-Emirates,"P O Box 95530, Belhoul Group Building Entrance No. 2,Al Garhoud 95530 Dubai Dubai United Arab Emirates       ",tilak.arora@ids-research.com,Phone: +971-4-6056801,
Eksen Research Dubai,Middle East,United-Arab-Emirates,"Office # 213, 6 EA Building 371473 Dubai United Arab Emirates        ",uae@eksen.eu,Phone: +90-212-291-60-06,Fax: +90-212-291-61-06
4SiGHT Research &amp; Analytics,Middle East,United-Arab-Emirates,"Office 1003, X3, Jumeirah Bay Tower Jumeirah Lakes Towers 115790 Dubai United Arab Emirates        ",info@4sight-global.com,Phone: +971 4 4548601,Fax: +971 4 4542436
Realistic Management Consultancy,Middle East,United-Arab-Emirates,"PO Box 12672, Dubai Saudi Arabia, KSA Dubai United Arab Emirates        ",divesh@emirates.net.ae,Phone: +971-4-359.7226,Fax: +971-4-359.7227
Ipsos UAE,Middle East,United-Arab-Emirates,"Dubai Media City, Al Thuraya Tower 1, 8th floor PO Box 71283 Dubai Dubai United Arab Emirates        ",admin.uae@ipsos.com,Phone: +971-4-4408980,Fax: +971-4-4408981
SixthFactor,Middle East,United-Arab-Emirates,1004 B Business Central Tower Dubai  Media City 124606 Dubai United Arab Emirates       ,info@sixthfactor.com,Phone: +97144385258,
"C&amp;O MARKETING, UAE &amp; Gulf",Middle East,United-Arab-Emirates,"Al Batha Tower, Corniche Street Floor 12, Office 1208 83242 Sharjah Sharjah United Arab Emirates       ",MENA@C-O-MARKETING.AE,Phone: +97165976000,
GfK in United Arab Emirates,Middle East,United-Arab-Emirates,Arjaan Business Office Tower Office 406 Dubai United Arab Emirates       ,ae@gfk.com,Phone: 04 429 6700,
Think Positive,Middle East,United-Arab-Emirates,Burlington tower Business Bay 14098 Dubai Dubai United Arab Emirates        ,enquiry@thinkpositive.ae,Phone: +97144566778,Fax: +97144566493
Hall &amp; Partners Dubai,Middle East,United-Arab-Emirates,Dubai Media City OmnicomMediaGroup Bldg 34404 Dubai United Arab Emirates       ,INFOMENA@HALLANDPARTNERS.COM,Phone: +971 (0)4 457 4670,
Synergy Marketing Consultancy LLC,Middle East,United-Arab-Emirates,"404/406, Holiday Towers Sh Khalifa bin Zayed Street, Nuemiya 12946 Ajman Ajman United Arab Emirates       ",ramanath@synergy-mena.org,Phone: +97167148729,
Accel Knowledge,Middle East,United-Arab-Emirates,"2nd floor,Megamall Tower, Plot 260, Al Qassimia 73500 Sharjah United Arab Emirates       ",adrian.d@accelknowledge.com,Phone: +971-5530 74289,
"REACH (Research &amp; Consulting House), UAE",Middle East,United-Arab-Emirates,"PO Box 6742, Corniche Al-Buhaira Road Corniche Plaza 1 Sharjah United Arab Emirates        ",m.khoury@reachmass.com,Phone: +971-6-572.2636,Fax: +971-6-572.4009
Ethos Integrated Solutions LLC,Middle East,United-Arab-Emirates,"Office 301 3rd Floor Ibn Battuta Gate Office Jebel Ali, PO Box 75745 0000 Dubai Dubai United Arab Emirates        ",info@ethosplc.com,Phone: +971 4 432 9373,Fax: +971 4 432 9371
Focus 360 Arabia,Middle East,United-Arab-Emirates,"Office 1007B, Business Central Towers, Dubai Media City Business Central Towers, Dubai Media City 75362 Dubai Dubai United Arab Emirates        ",nikita@focus360arabia.com,Phone: +971 44 50 4255,Fax: 44504255
LEYHAUSEN Middle East FZ-LLC,Middle East,United-Arab-Emirates,"Dubai Media City, Aurora Tower PO Box 502879, Office 1302 502879 Dubai United Arab Emirates        ",b.peters@leyhausen.com,Phone: +971-4-4464054,Fax: +971-6-5754.605
Greenland Market Research,Middle East,United-Arab-Emirates,"202, Abu Hussain Bldg Close To Mega Mall 67925 Sharjah United Arab Emirates        ",muffadal@greenland-research.com,Phone: 00971-50-6852201,Fax: 00971-6-5216359
Nagy Research,Africa,Algeria,"Nagy Research 5eme Rue, villa N° 50, Beau lieu Oued Smar Algiers Algeria        ",nadine.sobhy@nagyresearch.com,Phone: +213 661 940 331,Fax: +213 661 940 331
CIBLE,Africa,Cameroon,1473 Blvd de la République Face Ancien Cameroon Automible 3462 Douala Littoral Cameroon        ,cible@groupe-cible.com,Phone: +237-3343.0971,Fax: +237-3343.0482
QNR Data - Cameroon,Africa,Cameroon,Entree de la Gare Bessengue Douala Cameroon       ,info@qnrdata.com,Phone: +27110373505,
TARGET Sarl,Africa,Congo-Democratic-People-s-Republic,"Huitième Niveau Immeuble VULAMBO (ex Shell) Commune de Gombe + 243 Kinshasa Kinshasa Congo, Democratic People's Republic       ",info@target-sarl.cd,Phone: +243 81 04 51 052,
Marketeers Research,Africa,Egypt,"2, Al Sarag Mall, Suite 88 Nasr City 11471 Cairo Egypt        ",sami@marketeersresearch.com,Phone: +20-2-2670.7530,Fax: +20-2-2670.7534
Nagy Research,Africa,Egypt,63 Street 104 Maadi Maadi-Cairo Hadayek El Maadi Egypt        ,nadine.sobhy@nagyresearch.com,Phone: +20-2-25275071,Fax: +20-22-527.5072
Ipsos Egypt,Africa,Egypt,"35A Saray El Maadi Tower, 4th floor Cornish El Nile 11742 Maadi Egypt        ",admin.egypt@ipsos.com,Phone: +202 25286815,Fax: +202 25286809
TNS Egypt,Africa,Egypt,"1G Dar Defaa El Gawy St. Taaseem Asmaa Fahmy, off Nozha St., Heliopolis Cairo Egypt        ",Nermeen.Bedeir@tnsglobal.com,Phone: +202 2414 9310,Fax: +202 2290 5989
Infomine Healthcare  Research,Africa,Egypt,"31 Omar Bakir Street, Military Academy Square Floor 5, Suite 401 11361 Heliopolis Cairo Egypt       ",amansour@infomineresearch.com,Phone: 00201000120590,
AMRC-Global,Africa,Egypt,"702 Shahed Tower, Nasr City CAIRO Egypt        ",m.alhamd@amrc-global.com,Phone: +20226716454,Fax: +20226716453
Top Level MENA,Africa,Egypt,"8 Abd El Azim Salama, from Nor El Den Bahgat , Behind El Tawhed wel noor , Makram Ebid , Nasr City Nasr City 00202 Cairo Egypt        ",Info@toplevel-mena.com,Phone: +20-2-26702735,Fax: +20-226710596
YouGov Egypt,Africa,Egypt,115 El Thawra Street Heliopolis Cairo Egypt       ,info.egypt@yougov.com,Phone: 202 418 6002,
integrity market research,Africa,Egypt,13 Mohamed Ibrahim St Nasr city 11765 Cairo Egypt        ,info@imr-eg.com,Phone: 0020226710591,Fax: 0020226710591
Market Vision Egypt - Market Research &amp; Consultancy,Africa,Egypt,"Masjed EL Ghofran St, 7 El Safa Tower - Suit 91 Area 9 - Nasr City - Cairo CAIRO Cairo Egypt        ",hassan.elfakahany@marketvisionegy.com,Phone: +201221790290,Fax: +20224718387
Ejabat Marketing Research - Egypt,Africa,Egypt,"84 El Merghany Street, 4th floor, unit 18, Masr El Gededa Cairo Egypt       ",m.ahmed@ejabatmr.com,Phone: +201152421111,
Findings,Africa,Egypt,"13A Cornish El-Maadi, Cairo, Egypt 11431 Cairo Egypt       ",mohamed.farouk@findingsresearch.com,Phone: +201224459007,
FeedBack Market Research,Africa,Egypt,"64 Helmy Hasan Ali Street, off Mustafa El Nahhas 8th District, Nasr City Cairo Egypt        ",ahsan@feedbackme.com,Phone: +20-2-2287.6338,Fax: +20-2-2670.7884
QNR Data - Ethiopia,Africa,Ethiopia,"Djibuti Street Edna Mall, Office 31 Addis Ababa Ethiopia       ",info@qnrdata.com,Phone: +27110373505,
Marketing Support Consultancy Ltd,Africa,Ghana,H/no 216/22 Numo Yikai Street Adjacent ICGC Abofu-Achimota 23321 Accra Greater Accra Ghana       ,info@marketingsupportconsultancy.com,Phone: +233-302-236.843,
Quality Control Afrika Ltd,Africa,Ghana,First Plaza New Town Dome Around Keboat Junction Christian Village 23301 Accra Greater Accra Ghana       ,info@qualitycontrolafrica.com,Phone: +233 540346202,
Bamba,Africa,Kenya,05 The Crescent Road Westlands 14048 - 00400 Nairobi Nairobi County Kenya       ,contact@bambagroup.com,Phone: +254 722 155 519,
Infinite Insight Ltd.,Africa,Kenya,"New Muthaiga Shopping Mall, 2nd Floor, Suite 3 Thigiri Ridge Road Nairobi Kenya       ",info@infiniteinsight.net,Phone: +254-774-157784,
Numbers Afrika,Africa,Kenya,Moktar Daddah St. Consolidated Bank House 00100 Nairobi Nairobi Kenya       ,tervil@numbersafr.com,Phone: +254721718271,
Voices Africa Limited,Africa,Kenya,Riara Road Nairobi Kenya       ,rfp@voicesafrica.com,Phone: +254736787970,
Research Solutions Africa Ltd.,Africa,Kenya,"Whitefield Place, School Lane Westlands, Nairobi PO box 16832-00620 Nairobi Kenya        ",jasper@researchsolutionsafrica.com,Phone: +254-20-444.5082,Fax: +254-20-444.5081
QNR Data - Kenya,Africa,Kenya,31 Jogoo Road Nairobi Kenya       ,info@qnrdata.com,Phone: +27110373505,
KASI Insight Africa,Africa,Kenya,"Jameson Court Block D Suite 8, Ngong Road P.O BOX 62158-00200 Nairobi Kenya       ",info@kasiinsight.com,Phone: 0016472936783,
Consumer Insight Africa - Kenya,Africa,Kenya,Riara Corporate Suites Riara Road 27766-00506 Nairobi Nairobi Kenya       ,info@ciafrica.com,Phone: +254(0)733638001,
GfK in Kenya,Africa,Kenya,"Mombasa Road 6th Floor, Tulip House, Nairobi Kenya       ",Christopher.Maina@gfk.com,Phone: ----------------,
Consumer Options Ltd,Africa,Kenya,"International House, 6th Floor Mama Ngina street. 20610-00200 Nairobi Kenya        ",info@consumeroptions.co.ke,Phone: + 254 020 317709,Fax: +254 020 317538
ATW Consultants,Africa,Madagascar,"Lot II Y 9 F Avaratr'antanimora, BP 8192 101 Antananarivo Madagascar        ",andrianina@atw.mg,Phone: +261-20-226.1042,Fax: +261-20-223.4598
Market and Social Insight,Africa,Madagascar,Lot II Y 53 FK Andobolobe - Ampahibe - Bp 3652 101 Antananarivo Madagascar       ,bpo@msi.mg,Phone: +261320510918,
DCDM Research,Africa,Mauritius,10 Remy Ollier Street P.O. Box 1165 Port Louis Mauritius       ,vincent.staub@dcdmresearch.com,Phone: 230 405 7850,
Averty Market Research &amp; Intelligence,Africa,Morocco,"Bureau 255, Casablanca Technopark. Morocco Casablanca Morocco       ",act@averty.ma,Phone: +212522508409,
LMS-CSA Marketing &amp; Sondages,Africa,Morocco,45 Boulevard d'Anfa 20000 Casablanca Casablanca Morocco        ,lmscsa@lmsmark.com,Phone: +212-522-471.036,Fax: +212-522-491.406
C&amp;O Marketing,Africa,Morocco,"28, rue Ibnou Banna El Addadi Av. du Phare - Racine Extension 20050 Casablanca Morocco        ",com@c-o-marketing.com,Phone: +212-522-399.933,Fax: +212-22-399.924
SEREC,Africa,Morocco,"10, Place des Nations Unies 20080 Casablanca Morocco        ",serec@serec.ma,Phone: +212-22-203.305,Fax: +212-22-209.507
BJ Consult/BJ Marketing/BJKA Consulting/BJKA Senegal,Africa,Morocco,"Les Terrasses Gautier, Ang. Rue A. de Musset et Moussa Ibnou Noussair 26 rue de Nimes 20000 Casablanca/Alger Morocco        ",bjconsult@menara.ma,Phone: 00-212-661-60-75-01,Fax: 00-212-522.472224
Infotrak Research and Consulting Nigeria Limited,Africa,Nigeria,"15 Allen Avenue 26052 Ikeja,Lagos Ikeja Lagos Nigeria        ",info.nigeria@infotrakresearch.com,Phone: +234-1-8419275,Fax: +234-1-7914061
Sterling Business Research &amp; Consulting Ltd.,Africa,Nigeria,"Plot 390, George Crescent, Abalajobi Estate, By Oasis Bakery Off WEMPCO Road Ogba GRA-Ikeja Lagos Lagos Nigeria        ",info@sbrc-ng.com,Phone: +234-1-8033-0026-87,Fax: +27-86-639.8363
QNR Data - Nigeria,Africa,Nigeria,279 Old Abeokuta Road Suite 04 Axiom Plaza Agege 234 Lagos Nigeria       ,info@qnrdata.com,Phone: +27110373505,
LEYHAUSEN RESEARCH AFRICA,Africa,Nigeria,NO 50 DIYA STREET IFAKO-GBAGADA 234 LAGOS LAGOS Nigeria       ,a.olaseinde@leyhausenresearchafrica.com,Phone: +2348036788561,
GfK in Nigeria,Africa,Nigeria,The Infastructure Bank Building 52 Ahmadu Bello Way Lagos Nigeria       ,kenneth.doghudje@gfk.com,Phone: +234 80 2312 2649,
RANDOM DYNAMIC RESOURCES LTD,Africa,Nigeria,50A IRE-AKARI ESTATE ROAD ISOLO ISOLO 00234 LAGOS- NIGERIA LAGOS Nigeria       ,p.nnanwobu@random-dynamicresources.com,Phone: +234 803 325 5099,
MARKET TRENDS INTERNATIONAL,Africa,Nigeria,"5B, SUNDAY OGUNYADE STREET, GBAGADA ESTATE PHASE II 01 LAGOS LAGOS Nigeria       ",mti@markettrends-int.com,Phone: +234 1 791 79 87,
Consumer Ideas Ltd,Africa,Nigeria,"13E, Olanrenwaju Street Oregun 100212 Ikeja Lagos Nigeria       ",info@consumerideasafrica.com,Phone: +234 81 8628 6401,
DADCH&amp;co Market Research Agency,Africa,Senegal,CENTRE D’AFFAIRES AGORA N°7 VDN FANN MERMOZ 27000 Dakar Senegal Senegal       ,ydiaw@dadch-co.com,Phone: +22-17-7526.2980,
Liaison Marketing,Africa,Senegal,Ouest Foire 29213 Dakar Senegal        ,liaison.mkg@orange.sn,Phone: +221-33-867.9196,Fax: +221-33-867.9195
HOTBUTTONS cc,Africa,South-Africa,61 Rochester Road Observatory 7925 Cape Town Western Cape South Africa        ,johannesc@hotbuttons.co.za,Phone: +27-214474804,Fax: +27-11-782.9819
GfK in South Africa,Africa,South-Africa,Cnr Witkoppen Rd &amp; Umhlanga Ave 2056 Johannesburg South Africa       ,za@gfk.com,Phone: 011 803 1300,
KLA,Africa,South-Africa,"The Workshop, 70 7th Avenue Parktown North 2193 Johannesburg Gauteng South Africa        ",enquiries@kla.co.za,Phone: +27-11-4478411,Fax: +27-11-4478463
Frontline Business Information Services Pty Ltd,Africa,South-Africa,9 Lutman Street Richmond Hill 6001 Port Elizabeth Eastern Cape South Africa        ,info@frontlineafrica.com,Phone: +27-41-5862257,Fax: +27-41-5862254
BDRC South Africa,Africa,South-Africa,"Studio C14, Mainstream Centre Main Road 7806 Hout Bay Cape Town South Africa        ",mail@bdrc.co.za,Phone: +27-21-790.5262,Fax: +27-21-791.1021
Clear Strategy Company (Pty) Ltd,Africa,South-Africa,"Laboratorium Building Moddercrest Office Park, High Street Modderfontein South Africa        ",mail@clear.co.za,Phone: +27-116080700,Fax: +27-116084179
Enterprises University of Pretoria (Pty) Ltd.,Africa,South-Africa,Enterprises University of Pretoria (Pty) Ltd. Private Bag X41 0028 Hatfield Pretoria Gauteng South Africa        ,info@enterprises.up.ac.za,Phone: +27124342200,Fax: +27124342505
Columinate,Africa,South-Africa,100 3rd Avenue Linden 2195 Johannesburg Gauteng South Africa       ,info@columinate.com,Phone: +27117827246,
Livingfacts Pty Ltd,Africa,South-Africa,"Endaweni Office Suites, Ballyclare Place 14 Ballyclare Drive, Bryanston 2021 Johannesburg Gauteng South Africa        ",marylou.kneale@livingfacts.co.za,Phone: +27828074043,Fax: +27866844071
BMi Research (Pty) Ltd,Africa,South-Africa,H Santos Building 30 Arena Close Bruma 2008 Johannesburg Gauteng South Africa        ,research@bmi.co.za,Phone: +27116157000,Fax: +27116154999
QNR Data,Africa,South-Africa,27  Eaton Road RISCTEC Building 2191 Bryanston Gauteng South Africa       ,info@qnrdata.com,Phone: 011 037 3505,
Eksen Research South Africa,Africa,South-Africa,"4 Woodburn Crescent, Oranjezicht 8001 Cape Town South Africa       ",africa@eksen.eu,Phone: +27214247906,
QNR Data,Africa,Tanzania,"Ohio Street, 7th floor Amani Place Dar es Salaam Tanzania       ",info@qnrdata.com,Phone: ,
Sigma International,Africa,Tunisia,43 rue Alain Savary 1002 Tunis-Belvédère Tunisia        ,zargouni.hassen@gmail.com,Phone: +21698324829,Fax: +216-71-286.534
Nagy Research,Africa,Tunisia,"Immeuble Les Oranges, App E 2 Ben Arous 2063 Tunisie Nouvelle Medina Tunisia       ",nadine.sobhy@nagyresearch.com,Phone: +21 622 820 657,
EMRHOD Consulting,Africa,Tunisia,2 Rue Damas 2080 Ariana Tunisia        ,emrhod@gnet.tn,Phone: +216-98 435 086,Fax: +216-70 014 210
Institut El Amouri,Africa,Tunisia,21 rue El Jahedh El Menzah 1 1004 Tunis Tunisia        ,international@elamouri.com,Phone: +216-71-750.337,Fax: +216-71-752.177
QNR Data,Africa,Zambia,Kwacha Road Manda Hill Shopping Mall - Office 102 Lusaka Zambia       ,info@qnrdata.com,Phone: ,
